{"version": 0.6, "generator": "Overpass API 0.7.57 93a4d346", "osm3s": {"timestamp_osm_base": "2022-05-02T13:23:24Z", "copyright": "The data included in this document is from www.openstreetmap.org. The data is made available under ODbL."}, "elements": [{"type": "node", "id": 250954967, "lat": 55.809329, "lon": 37.4629628}, {"type": "node", "id": 252934400, "lat": 55.7607671, "lon": 37.6261664, "tags": {"alt_name:uk": "\u041a\u043e\u0432\u0430\u043b\u044c\u0441\u044c\u043a\u0438\u0439 \u043c\u0456\u0441\u0442", "colour": "violet", "layer": "-5", "name": "\u041a\u0443\u0437\u043d\u0435\u0446\u043a\u0438\u0439 \u041c\u043e\u0441\u0442", "name:be": "\u041a\u0443\u0437\u043d\u0435\u0446\u043a\u0456 \u043c\u043e\u0441\u0442", "name:de": "Kusnezk-Br\u00fccke", "name:en": "Kuznetsky Most", "name:ru": "\u041a\u0443\u0437\u043d\u0435\u0446\u043a\u0438\u0439 \u041c\u043e\u0441\u0442", "name:uk": "\u041a\u0443\u0437\u043d\u0435\u0446\u044c\u043a\u0438\u0439 \u043c\u0456\u0441\u0442", "network": "\u041c\u043e\u0441\u043a\u043e\u0432\u0441\u043a\u0438\u0439 \u043c\u0435\u0442\u0440\u043e\u043f\u043e\u043b\u0438\u0442\u0435\u043d", "operator": "\u0413\u0423\u041f \u00ab\u041c\u043e\u0441\u043a\u043e\u0432\u0441\u043a\u0438\u0439 \u043c\u0435\u0442\u0440\u043e\u043f\u043e\u043b\u0438\u0442\u0435\u043d\u00bb", "public_transport": "station", "railway": "station", "station": "subway", "subway": "yes", "transport": "subway", "wikidata": "Q2549598"}}, {"type": "node", "id": 253016890, "lat": 55.740465, "lon": 37.6518996, "tags": {"colour": "violet", "layer": "-4", "loc_name": "\u0422\u0430\u0433\u0430\u043d\u043a\u0430", "name": "\u0422\u0430\u0433\u0430\u043d\u0441\u043a\u0430\u044f", "name:be": "\u0422\u0430\u0433\u0430\u043d\u0441\u043a\u0430\u044f", "name:en": "Taganskaya", "name:ru": "\u0422\u0430\u0433\u0430\u043d\u0441\u043a\u0430\u044f", "name:uk": "\u0422\u0430\u0433\u0430\u043d\u0441\u044c\u043a\u0430", "network": "\u041c\u043e\u0441\u043a\u043e\u0432\u0441\u043a\u0438\u0439 \u043c\u0435\u0442\u0440\u043e\u043f\u043e\u043b\u0438\u0442\u0435\u043d", "operator": "\u0413\u0423\u041f \u00ab\u041c\u043e\u0441\u043a\u043e\u0432\u0441\u043a\u0438\u0439 \u043c\u0435\u0442\u0440\u043e\u043f\u043e\u043b\u0438\u0442\u0435\u043d\u00bb", "public_transport": "station", "railway": "station", "station": "subway", "subway": "yes", "transport": "subway", "wikidata": "Q3028818", "wikipedia": "ru:\u0422\u0430\u0433\u0430\u043d\u0441\u043a\u0430\u044f (\u0441\u0442\u0430\u043d\u0446\u0438\u044f \u043c\u0435\u0442\u0440\u043e, \u0422\u0430\u0433\u0430\u043d\u0441\u043a\u043e-\u041a\u0440\u0430\u0441\u043d\u043e\u043f\u0440\u0435\u0441\u043d\u0435\u043d\u0441\u043a\u0430\u044f \u043b\u0438\u043d\u0438\u044f)"}}, {"type": "node", "id": 253016891, "lat": 55.731857, "lon": 37.6658787, "tags": {"colour": "violet", "layer": "-2", "name": "\u041f\u0440\u043e\u043b\u0435\u0442\u0430\u0440\u0441\u043a\u0430\u044f", "name:be": "\u041f\u0440\u0430\u043b\u0435\u0442\u0430\u0440\u0441\u043a\u0430\u044f", "name:en": "Proletarskaya", "name:ru": "\u041f\u0440\u043e\u043b\u0435\u0442\u0430\u0440\u0441\u043a\u0430\u044f", "name:uk": "\u041f\u0440\u043e\u043b\u0435\u0442\u0430\u0440\u0441\u044c\u043a\u0430", "network": "\u041c\u043e\u0441\u043a\u043e\u0432\u0441\u043a\u0438\u0439 \u043c\u0435\u0442\u0440\u043e\u043f\u043e\u043b\u0438\u0442\u0435\u043d", "operator": "\u0413\u0423\u041f \u00ab\u041c\u043e\u0441\u043a\u043e\u0432\u0441\u043a\u0438\u0439 \u043c\u0435\u0442\u0440\u043e\u043f\u043e\u043b\u0438\u0442\u0435\u043d\u00bb", "public_transport": "station", "railway": "station", "station": "subway", "subway": "yes", "transport": "subway", "wheelchair": "no", "wikidata": "Q614711"}}, {"type": "node", "id": 253016892, "lat": 55.7252386, "lon": 37.6868906, "tags": {"colour": "violet", "layer": "-2", "name": "\u0412\u043e\u043b\u0433\u043e\u0433\u0440\u0430\u0434\u0441\u043a\u0438\u0439 \u043f\u0440\u043e\u0441\u043f\u0435\u043a\u0442", "name:be": "\u0412\u0430\u043b\u0433\u0430\u0433\u0440\u0430\u0434\u0441\u043a\u0456 \u043f\u0440\u0430\u0441\u043f\u0435\u043a\u0442", "name:en": "Volgogradsky Prospekt", "name:ru": "\u0412\u043e\u043b\u0433\u043e\u0433\u0440\u0430\u0434\u0441\u043a\u0438\u0439 \u043f\u0440\u043e\u0441\u043f\u0435\u043a\u0442", "name:uk": "\u0412\u043e\u043b\u0433\u043e\u0433\u0440\u0430\u0434\u0441\u044c\u043a\u0438\u0439 \u043f\u0440\u043e\u0441\u043f\u0435\u043a\u0442", "network": "\u041c\u043e\u0441\u043a\u043e\u0432\u0441\u043a\u0438\u0439 \u043c\u0435\u0442\u0440\u043e\u043f\u043e\u043b\u0438\u0442\u0435\u043d", "operator": "\u0413\u0423\u041f \u00ab\u041c\u043e\u0441\u043a\u043e\u0432\u0441\u043a\u0438\u0439 \u043c\u0435\u0442\u0440\u043e\u043f\u043e\u043b\u0438\u0442\u0435\u043d\u00bb", "public_transport": "station", "railway": "station", "station": "subway", "subway": "yes", "transport": "subway", "wikidata": "Q2551336"}}, {"type": "node", "id": 253016893, "lat": 55.7088138, "lon": 37.7315039, "tags": {"alt_name:en": "Tekstilschiki", "alt_name:uk": "\u0422\u0435\u043a\u0441\u0442\u0438\u043b\u044c\u043d\u0438\u043a\u0438", "colour": "violet", "layer": "-2", "name": "\u0422\u0435\u043a\u0441\u0442\u0438\u043b\u044c\u0449\u0438\u043a\u0438", "name:be": "\u0422\u044d\u043a\u0441\u0442\u044b\u043b\u044c\u0448\u0447\u044b\u043a\u0456", "name:en": "Tekstilshchiki", "name:ru": "\u0422\u0435\u043a\u0441\u0442\u0438\u043b\u044c\u0449\u0438\u043a\u0438", "name:uk": "\u0422\u0435\u043a\u0441\u0442\u0438\u043b\u044c\u0449\u0438\u043a\u0438", "network": "\u041c\u043e\u0441\u043a\u043e\u0432\u0441\u043a\u0438\u0439 \u043c\u0435\u0442\u0440\u043e\u043f\u043e\u043b\u0438\u0442\u0435\u043d", "operator": "\u0413\u0423\u041f \u00ab\u041c\u043e\u0441\u043a\u043e\u0432\u0441\u043a\u0438\u0439 \u043c\u0435\u0442\u0440\u043e\u043f\u043e\u043b\u0438\u0442\u0435\u043d\u00bb", "public_transport": "station", "railway": "station", "station": "subway", "subway": "yes", "transport": "subway", "wheelchair": "yes", "wikidata": "Q21152431"}}, {"type": "node", "id": 253016894, "lat": 55.7056021, "lon": 37.7657844, "tags": {"colour": "violet", "layer": "-2", "name": "\u041a\u0443\u0437\u044c\u043c\u0438\u043d\u043a\u0438", "name:be": "\u041a\u0443\u0437\u044c\u043c\u0456\u043d\u043a\u0456", "name:en": "Kuzminki", "name:ru": "\u041a\u0443\u0437\u044c\u043c\u0438\u043d\u043a\u0438", "name:uk": "\u041a\u0443\u0437\u044c\u043c\u0456\u043d\u043a\u0438", "network": "\u041c\u043e\u0441\u043a\u043e\u0432\u0441\u043a\u0438\u0439 \u043c\u0435\u0442\u0440\u043e\u043f\u043e\u043b\u0438\u0442\u0435\u043d", "operator": "\u0413\u0423\u041f \u00ab\u041c\u043e\u0441\u043a\u043e\u0432\u0441\u043a\u0438\u0439 \u043c\u0435\u0442\u0440\u043e\u043f\u043e\u043b\u0438\u0442\u0435\u043d\u00bb", "public_transport": "station", "railway": "station", "station": "subway", "subway": "yes", "transport": "subway", "wikidata": "Q2550982"}}, {"type": "node", "id": 253016895, "lat": 55.7156444, "lon": 37.8179229, "tags": {"alt_name:en": "Vyhino", "colour": "violet", "name": "\u0412\u044b\u0445\u0438\u043d\u043e", "name:be": "\u0412\u044b\u0445\u0456\u043d\u0430", "name:en": "Vykhino", "name:ru": "\u0412\u044b\u0445\u0438\u043d\u043e", "name:uk": "\u0412\u0438\u0445\u0456\u043d\u043e", "network": "\u041c\u043e\u0441\u043a\u043e\u0432\u0441\u043a\u0438\u0439 \u043c\u0435\u0442\u0440\u043e\u043f\u043e\u043b\u0438\u0442\u0435\u043d", "operator": "\u0413\u0423\u041f \u00ab\u041c\u043e\u0441\u043a\u043e\u0432\u0441\u043a\u0438\u0439 \u043c\u0435\u0442\u0440\u043e\u043f\u043e\u043b\u0438\u0442\u0435\u043d\u00bb", "railway": "station", "station": "subway", "transport": "subway", "wikidata": "Q2551396"}}, {"type": "node", "id": 253017004, "lat": 55.716947, "lon": 37.7933151, "tags": {"colour": "violet", "layer": "-1", "name": "\u0420\u044f\u0437\u0430\u043d\u0441\u043a\u0438\u0439 \u043f\u0440\u043e\u0441\u043f\u0435\u043a\u0442", "name:be": "\u0420\u0430\u0437\u0430\u043d\u0441\u043a\u0456 \u043f\u0440\u0430\u0441\u043f\u0435\u043a\u0442", "name:en": "Ryazansky Prospekt", "name:ru": "\u0420\u044f\u0437\u0430\u043d\u0441\u043a\u0438\u0439 \u043f\u0440\u043e\u0441\u043f\u0435\u043a\u0442", "name:uk": "\u0420\u044f\u0437\u0430\u043d\u0441\u044c\u043a\u0438\u0439 \u043f\u0440\u043e\u0441\u043f\u0435\u043a\u0442", "network": "\u041c\u043e\u0441\u043a\u043e\u0432\u0441\u043a\u0438\u0439 \u043c\u0435\u0442\u0440\u043e\u043f\u043e\u043b\u0438\u0442\u0435\u043d", "operator": "\u0413\u0423\u041f \u00ab\u041c\u043e\u0441\u043a\u043e\u0432\u0441\u043a\u0438\u0439 \u043c\u0435\u0442\u0440\u043e\u043f\u043e\u043b\u0438\u0442\u0435\u043d\u00bb", "public_transport": "station", "railway": "station", "station": "subway", "subway": "yes", "transport": "subway", "wikidata": "Q740829"}}, {"type": "node", "id": 296959502, "lat": 55.8606544, "lon": 37.4365264, "tags": {"colour": "violet", "layer": "-2", "loc_name": "\u041f\u043b\u0430\u043d\u0435\u0440\u043a\u0430; \u041f\u043b\u0430\u0448\u043a\u0430", "name": "\u041f\u043b\u0430\u043d\u0435\u0440\u043d\u0430\u044f", "name:be": "\u041f\u043b\u0430\u043d\u0435\u0440\u043d\u0430\u044f", "name:en": "Planernaya", "name:ru": "\u041f\u043b\u0430\u043d\u0435\u0440\u043d\u0430\u044f", "name:uk": "\u041f\u043b\u0430\u043d\u0435\u0440\u043d\u0430", "network": "\u041c\u043e\u0441\u043a\u043e\u0432\u0441\u043a\u0438\u0439 \u043c\u0435\u0442\u0440\u043e\u043f\u043e\u043b\u0438\u0442\u0435\u043d", "operator": "\u0413\u0423\u041f \u00ab\u041c\u043e\u0441\u043a\u043e\u0432\u0441\u043a\u0438\u0439 \u043c\u0435\u0442\u0440\u043e\u043f\u043e\u043b\u0438\u0442\u0435\u043d\u00bb", "public_transport": "station", "railway": "station", "station": "subway", "subway": "yes", "transport": "subway", "wikidata": "Q2549402", "wikipedia": "ru:\u041f\u043b\u0430\u043d\u0435\u0440\u043d\u0430\u044f (\u0441\u0442\u0430\u043d\u0446\u0438\u044f \u043c\u0435\u0442\u0440\u043e)"}}, {"type": "node", "id": 296959503, "lat": 55.8517008, "lon": 37.4394762}, {"type": "node", "id": 296959504, "lat": 55.8265293, "lon": 37.4369761, "tags": {"colour": "violet", "layer": "-3", "name": "\u0422\u0443\u0448\u0438\u043d\u0441\u043a\u0430\u044f", "name:be": "\u0422\u0443\u0448\u044b\u043d\u0441\u043a\u0430\u044f", "name:en": "Tushinskaya", "name:ru": "\u0422\u0443\u0448\u0438\u043d\u0441\u043a\u0430\u044f", "name:uk": "\u0422\u0443\u0448\u0438\u043d\u0441\u044c\u043a\u0430", "network": "\u041c\u043e\u0441\u043a\u043e\u0432\u0441\u043a\u0438\u0439 \u043c\u0435\u0442\u0440\u043e\u043f\u043e\u043b\u0438\u0442\u0435\u043d", "operator": "\u0413\u0423\u041f \u00ab\u041c\u043e\u0441\u043a\u043e\u0432\u0441\u043a\u0438\u0439 \u043c\u0435\u0442\u0440\u043e\u043f\u043e\u043b\u0438\u0442\u0435\u043d\u00bb", "public_transport": "station", "railway": "station", "station": "subway", "subway": "yes", "transport": "subway", "wikidata": "Q784024", "wikipedia": "ru:\u0422\u0443\u0448\u0438\u043d\u0441\u043a\u0430\u044f (\u0441\u0442\u0430\u043d\u0446\u0438\u044f \u043c\u0435\u0442\u0440\u043e)"}}, {"type": "node", "id": 296959505, "lat": 55.8084608, "lon": 37.4647008, "tags": {"alt_name:en": "Schukinskaya", "colour": "violet", "layer": "-2", "loc_name": "\u0429\u0443\u043a\u0430", "name": "\u0429\u0443\u043a\u0438\u043d\u0441\u043a\u0430\u044f", "name:be": "\u0428\u0447\u0443\u043a\u0456\u043d\u0441\u043a\u0430\u044f", "name:cs": "\u0160\u010dukinskaja", "name:en": "Shchukinskaya", "name:it": "\u0160\u010dukinskaja", "name:pl": "Szczukinskaja", "name:pt": "Esta\u00e7\u00e3o Shchiukinskaia", "name:ru": "\u0429\u0443\u043a\u0438\u043d\u0441\u043a\u0430\u044f", "name:uk": "\u0429\u0443\u043a\u0456\u043d\u0441\u044c\u043a\u0430", "network": "\u041c\u043e\u0441\u043a\u043e\u0432\u0441\u043a\u0438\u0439 \u043c\u0435\u0442\u0440\u043e\u043f\u043e\u043b\u0438\u0442\u0435\u043d", "operator": "\u0413\u0423\u041f \u00ab\u041c\u043e\u0441\u043a\u043e\u0432\u0441\u043a\u0438\u0439 \u043c\u0435\u0442\u0440\u043e\u043f\u043e\u043b\u0438\u0442\u0435\u043d\u00bb", "public_transport": "station", "railway": "station", "station": "subway", "subway": "yes", "transport": "subway", "wikidata": "Q2548953", "wikipedia": "ru:\u0429\u0443\u043a\u0438\u043d\u0441\u043a\u0430\u044f (\u0441\u0442\u0430\u043d\u0446\u0438\u044f \u043c\u0435\u0442\u0440\u043e)"}}, {"type": "node", "id": 296959507, "lat": 55.7775087, "lon": 37.5192899, "tags": {"colour": "violet", "layer": "-2", "name": "\u041f\u043e\u043b\u0435\u0436\u0430\u0435\u0432\u0441\u043a\u0430\u044f", "name:be": "\u041f\u0430\u043b\u0435\u0436\u0430\u0435\u045e\u0441\u043a\u0430\u044f", "name:en": "Polezhayevskaya", "name:ru": "\u041f\u043e\u043b\u0435\u0436\u0430\u0435\u0432\u0441\u043a\u0430\u044f", "name:uk": "\u041f\u043e\u043b\u0435\u0436\u0430\u0454\u0432\u0441\u044c\u043a\u0430", "network": "\u041c\u043e\u0441\u043a\u043e\u0432\u0441\u043a\u0438\u0439 \u043c\u0435\u0442\u0440\u043e\u043f\u043e\u043b\u0438\u0442\u0435\u043d", "operator": "\u0413\u0423\u041f \u00ab\u041c\u043e\u0441\u043a\u043e\u0432\u0441\u043a\u0438\u0439 \u043c\u0435\u0442\u0440\u043e\u043f\u043e\u043b\u0438\u0442\u0435\u043d\u00bb", "public_transport": "station", "railway": "station", "station": "subway", "subway": "yes", "transport": "subway", "wikidata": "Q2549030"}}, {"type": "node", "id": 296959508, "lat": 55.7737161, "lon": 37.5466565, "tags": {"colour": "violet", "layer": "-2", "name": "\u0411\u0435\u0433\u043e\u0432\u0430\u044f", "name:be": "\u0411\u0435\u0433\u0430\u0432\u0430\u044f", "name:en": "Begovaya", "name:ru": "\u0411\u0435\u0433\u043e\u0432\u0430\u044f", "name:uk": "\u0411\u0456\u0433\u043e\u0432\u0430", "network": "\u041c\u043e\u0441\u043a\u043e\u0432\u0441\u043a\u0438\u0439 \u043c\u0435\u0442\u0440\u043e\u043f\u043e\u043b\u0438\u0442\u0435\u043d", "operator": "\u0413\u0423\u041f \u00ab\u041c\u043e\u0441\u043a\u043e\u0432\u0441\u043a\u0438\u0439 \u043c\u0435\u0442\u0440\u043e\u043f\u043e\u043b\u0438\u0442\u0435\u043d\u00bb", "public_transport": "station", "railway": "station", "station": "subway", "subway": "yes", "transport": "subway", "wikidata": "Q2549465"}}, {"type": "node", "id": 296959509, "lat": 55.7648142, "lon": 37.5613756, "tags": {"colour": "violet", "layer": "-2", "loc_name": "905; 905 \u0433\u043e\u0434\u0430; \u0423\u043b\u0438\u0446\u0430 905 \u0433\u043e\u0434\u0430", "name": "\u0423\u043b\u0438\u0446\u0430 1905 \u0433\u043e\u0434\u0430", "name:be": "\u0412\u0443\u043b\u0456\u0446\u0430 1905 \u0433\u043e\u0434\u0430", "name:en": "Ulitsa 1905 Goda", "name:ru": "\u0423\u043b\u0438\u0446\u0430 1905 \u0433\u043e\u0434\u0430", "name:uk": "\u0412\u0443\u043b\u0438\u0446\u044f 1905 \u0440\u043e\u043a\u0443", "network": "\u041c\u043e\u0441\u043a\u043e\u0432\u0441\u043a\u0438\u0439 \u043c\u0435\u0442\u0440\u043e\u043f\u043e\u043b\u0438\u0442\u0435\u043d", "operator": "\u0413\u0423\u041f \u00ab\u041c\u043e\u0441\u043a\u043e\u0432\u0441\u043a\u0438\u0439 \u043c\u0435\u0442\u0440\u043e\u043f\u043e\u043b\u0438\u0442\u0435\u043d\u00bb", "public_transport": "station", "railway": "station", "station": "subway", "subway": "yes", "transport": "subway", "wikidata": "Q2721708"}}, {"type": "node", "id": 296959510, "lat": 55.7611218, "lon": 37.5793053, "tags": {"colour": "violet", "layer": "-4", "name": "\u0411\u0430\u0440\u0440\u0438\u043a\u0430\u0434\u043d\u0430\u044f", "name:be": "\u0411\u0430\u0440\u044b\u043a\u0430\u0434\u043d\u0430\u044f", "name:en": "Barrikadnaya", "name:ru": "\u0411\u0430\u0440\u0440\u0438\u043a\u0430\u0434\u043d\u0430\u044f", "name:uk": "\u0411\u0430\u0440\u0438\u043a\u0430\u0434\u043d\u0430", "network": "\u041c\u043e\u0441\u043a\u043e\u0432\u0441\u043a\u0438\u0439 \u043c\u0435\u0442\u0440\u043e\u043f\u043e\u043b\u0438\u0442\u0435\u043d", "operator": "\u0413\u0423\u041f \u00ab\u041c\u043e\u0441\u043a\u043e\u0432\u0441\u043a\u0438\u0439 \u043c\u0435\u0442\u0440\u043e\u043f\u043e\u043b\u0438\u0442\u0435\u043d\u00bb", "public_transport": "station", "railway": "station", "station": "subway", "subway": "yes", "transport": "subway", "wikidata": "Q2721994", "wikipedia": "ru:\u0411\u0430\u0440\u0440\u0438\u043a\u0430\u0434\u043d\u0430\u044f (\u0441\u0442\u0430\u043d\u0446\u0438\u044f \u043c\u0435\u0442\u0440\u043e)"}}, {"type": "node", "id": 297058726, "lat": 55.7088553, "lon": 37.7286118}, {"type": "node", "id": 297059244, "lat": 55.7317911, "lon": 37.6678548}, {"type": "node", "id": 297059245, "lat": 55.7315796, "lon": 37.670165}, {"type": "node", "id": 297059247, "lat": 55.7288075, "lon": 37.6769825}, {"type": "node", "id": 297060047, "lat": 55.7215754, "lon": 37.6975228}, {"type": "node", "id": 297060048, "lat": 55.7156675, "lon": 37.7098014}, {"type": "node", "id": 297060050, "lat": 55.7093676, "lon": 37.7263182}, {"type": "node", "id": 297060051, "lat": 55.7086375, "lon": 37.7388512}, {"type": "node", "id": 297061243, "lat": 55.7198615, "lon": 37.7966966}, {"type": "node", "id": 297061288, "lat": 55.7181186, "lon": 37.7942202}, {"type": "node", "id": 297061289, "lat": 55.7203826, "lon": 37.7982074}, {"type": "node", "id": 297061290, "lat": 55.7203834, "lon": 37.8038064}, {"type": "node", "id": 297062966, "lat": 55.7045101, "lon": 37.7737019}, {"type": "node", "id": 297062967, "lat": 55.704816, "lon": 37.7776589}, {"type": "node", "id": 297062969, "lat": 55.7051942, "lon": 37.7787788}, {"type": "node", "id": 297062970, "lat": 55.7087518, "lon": 37.785892}, {"type": "node", "id": 297295144, "lat": 55.7174912, "lon": 37.7062791}, {"type": "node", "id": 301849561, "lat": 55.8485291, "lon": 37.4399807}, {"type": "node", "id": 305641854, "lat": 55.7079802, "lon": 37.7441655}, {"type": "node", "id": 305641856, "lat": 55.7068273, "lon": 37.7527928}, {"type": "node", "id": 307526945, "lat": 55.7320485, "lon": 37.6609963}, {"type": "node", "id": 307526946, "lat": 55.7318103, "lon": 37.6631332}, {"type": "node", "id": 307527020, "lat": 55.7332052, "lon": 37.6584888}, {"type": "node", "id": 309747739, "lat": 55.7735525, "lon": 37.5485801}, {"type": "node", "id": 309748209, "lat": 55.7778123, "lon": 37.5229252, "tags": {"railway": "switch"}}, {"type": "node", "id": 309748905, "lat": 55.7933663, "lon": 37.4938123, "tags": {"colour": "violet", "layer": "-2", "name": "\u041e\u043a\u0442\u044f\u0431\u0440\u044c\u0441\u043a\u043e\u0435 \u041f\u043e\u043b\u0435", "name:be": "\u041a\u0430\u0441\u0442\u0440\u044b\u0447\u043d\u0456\u0446\u043a\u0430\u0435 \u043f\u043e\u043b\u0435", "name:en": "Oktyabrskoye Pole", "name:ru": "\u041e\u043a\u0442\u044f\u0431\u0440\u044c\u0441\u043a\u043e\u0435 \u041f\u043e\u043b\u0435", "name:uk": "\u0416\u043e\u0432\u0442\u043d\u0435\u0432\u0435 \u043f\u043e\u043b\u0435", "network": "\u041c\u043e\u0441\u043a\u043e\u0432\u0441\u043a\u0438\u0439 \u043c\u0435\u0442\u0440\u043e\u043f\u043e\u043b\u0438\u0442\u0435\u043d", "operator": "\u0413\u0423\u041f \u00ab\u041c\u043e\u0441\u043a\u043e\u0432\u0441\u043a\u0438\u0439 \u043c\u0435\u0442\u0440\u043e\u043f\u043e\u043b\u0438\u0442\u0435\u043d\u00bb", "railway": "station", "station": "subway", "transport": "subway", "wikidata": "Q2549456", "wikipedia": "ru:\u041e\u043a\u0442\u044f\u0431\u0440\u044c\u0441\u043a\u043e\u0435 \u041f\u043e\u043b\u0435 (\u0441\u0442\u0430\u043d\u0446\u0438\u044f \u043c\u0435\u0442\u0440\u043e)"}}, {"type": "node", "id": 309748906, "lat": 55.7906808, "lon": 37.4986762}, {"type": "node", "id": 309749427, "lat": 55.815144, "lon": 37.437042}, {"type": "node", "id": 309749428, "lat": 55.8102565, "lon": 37.4599561}, {"type": "node", "id": 309749920, "lat": 55.8336905, "lon": 37.4374085}, {"type": "node", "id": 309750154, "lat": 55.8504805, "lon": 37.4397738, "tags": {"colour": "violet", "layer": "-2", "loc_name": "\u0421\u0445\u043e\u0434\u043d\u044f", "name": "\u0421\u0445\u043e\u0434\u043d\u0435\u043d\u0441\u043a\u0430\u044f", "name:be": "\u0421\u0445\u043e\u0434\u043d\u0435\u043d\u0441\u043a\u0430\u044f", "name:en": "Skhodnenskaya", "name:ru": "\u0421\u0445\u043e\u0434\u043d\u0435\u043d\u0441\u043a\u0430\u044f", "name:uk": "\u0421\u0445\u043e\u0434\u043d\u0435\u043d\u0441\u044c\u043a\u0430", "network": "\u041c\u043e\u0441\u043a\u043e\u0432\u0441\u043a\u0438\u0439 \u043c\u0435\u0442\u0440\u043e\u043f\u043e\u043b\u0438\u0442\u0435\u043d", "operator": "\u0413\u0423\u041f \u00ab\u041c\u043e\u0441\u043a\u043e\u0432\u0441\u043a\u0438\u0439 \u043c\u0435\u0442\u0440\u043e\u043f\u043e\u043b\u0438\u0442\u0435\u043d\u00bb", "public_transport": "station", "railway": "station", "station": "subway", "subway": "yes", "transport": "subway", "wheelchair": "no", "wikidata": "Q2549426", "wikipedia": "ru:\u0421\u0445\u043e\u0434\u043d\u0435\u043d\u0441\u043a\u0430\u044f (\u0441\u0442\u0430\u043d\u0446\u0438\u044f \u043c\u0435\u0442\u0440\u043e)"}}, {"type": "node", "id": 311981842, "lat": 55.8107473, "lon": 37.4551368}, {"type": "node", "id": 318194502, "lat": 55.8200389, "lon": 37.4167027}, {"type": "node", "id": 325098190, "lat": 55.7207003, "lon": 37.8025029}, {"type": "node", "id": 357989231, "lat": 55.7207789, "lon": 37.8001434}, {"type": "node", "id": 358367364, "lat": 55.7307317, "lon": 37.6728901}, {"type": "node", "id": 362156015, "lat": 55.7654281, "lon": 37.6074165, "tags": {"colour": "violet", "layer": "-4", "loc_name": "\u041f\u0443\u0448\u043a\u0430", "name": "\u041f\u0443\u0448\u043a\u0438\u043d\u0441\u043a\u0430\u044f", "name:be": "\u041f\u0443\u0448\u043ai\u043d\u0441\u043a\u0430\u044f", "name:de": "Puschkinskaja", "name:en": "Pushkinskaya", "name:ru": "\u041f\u0443\u0448\u043a\u0438\u043d\u0441\u043a\u0430\u044f", "name:uk": "\u041f\u0443\u0448\u043a\u0456\u043d\u0441\u044c\u043a\u0430", "network": "\u041c\u043e\u0441\u043a\u043e\u0432\u0441\u043a\u0438\u0439 \u043c\u0435\u0442\u0440\u043e\u043f\u043e\u043b\u0438\u0442\u0435\u043d", "operator": "\u0413\u0423\u041f \u00ab\u041c\u043e\u0441\u043a\u043e\u0432\u0441\u043a\u0438\u0439 \u043c\u0435\u0442\u0440\u043e\u043f\u043e\u043b\u0438\u0442\u0435\u043d\u00bb", "public_transport": "station", "railway": "station", "station": "subway", "subway": "yes", "transport": "subway", "wikidata": "Q1627587"}}, {"type": "node", "id": 493293874, "lat": 55.7555854, "lon": 37.6334116, "tags": {"layer": "-4", "location": "underground", "name": "\u041a\u0438\u0442\u0430\u0439-\u0433\u043e\u0440\u043e\u0434", "public_transport": "stop_position", "railway": "stop", "subway": "yes"}}, {"type": "node", "id": 493558521, "lat": 55.8273072, "lon": 37.4370884}, {"type": "node", "id": 493558522, "lat": 55.8128387, "lon": 37.4422215}, {"type": "node", "id": 493558523, "lat": 55.8116886, "lon": 37.450292}, {"type": "node", "id": 493558524, "lat": 55.8104184, "lon": 37.4588036}, {"type": "node", "id": 612055403, "lat": 55.8257281, "lon": 37.4366269}, {"type": "node", "id": 666487039, "lat": 55.8162112, "lon": 37.4363315}, {"type": "node", "id": 666487040, "lat": 55.8306287, "lon": 37.4370287}, {"type": "node", "id": 666487042, "lat": 55.8100401, "lon": 37.4609587}, {"type": "node", "id": 666487043, "lat": 55.8094516, "lon": 37.4626894}, {"type": "node", "id": 666487044, "lat": 55.7815081, "lon": 37.5065271}, {"type": "node", "id": 666487045, "lat": 55.7860928, "lon": 37.5049779}, {"type": "node", "id": 666487046, "lat": 55.7776277, "lon": 37.5259713}, {"type": "node", "id": 666487048, "lat": 55.7792359, "lon": 37.5078865}, {"type": "node", "id": 666487049, "lat": 55.7868043, "lon": 37.5042775}, {"type": "node", "id": 666487057, "lat": 55.7639056, "lon": 37.5622879}, {"type": "node", "id": 666487074, "lat": 55.7615615, "lon": 37.575679}, {"type": "node", "id": 666487075, "lat": 55.7601219, "lon": 37.584775, "tags": {"layer": "-4", "railway": "switch", "switch": "1"}}, {"type": "node", "id": 666487078, "lat": 55.7602242, "lon": 37.5880651}, {"type": "node", "id": 666487079, "lat": 55.7604101, "lon": 37.5889782}, {"type": "node", "id": 666487080, "lat": 55.7648636, "lon": 37.5986847}, {"type": "node", "id": 666487081, "lat": 55.7644411, "lon": 37.5976621}, {"type": "node", "id": 666487085, "lat": 55.7656659, "lon": 37.6044418}, {"type": "node", "id": 666487089, "lat": 55.7748483, "lon": 37.5388292}, {"type": "node", "id": 666487090, "lat": 55.7742447, "lon": 37.5415444}, {"type": "node", "id": 666487091, "lat": 55.7725218, "lon": 37.5523651}, {"type": "node", "id": 666487092, "lat": 55.7719001, "lon": 37.5533475}, {"type": "node", "id": 666515716, "lat": 55.708782, "lon": 37.7298705}, {"type": "node", "id": 666515718, "lat": 55.7062296, "lon": 37.7606771}, {"type": "node", "id": 666515720, "lat": 55.7044601, "lon": 37.7745401}, {"type": "node", "id": 666515721, "lat": 55.7046413, "lon": 37.7768792}, {"type": "node", "id": 666515723, "lat": 55.7081717, "lon": 37.7849781}, {"type": "node", "id": 666515724, "lat": 55.7141796, "lon": 37.7914754}, {"type": "node", "id": 666515729, "lat": 55.7375005, "lon": 37.654702}, {"type": "node", "id": 666515734, "lat": 55.7540268, "lon": 37.6341884}, {"type": "node", "id": 666515736, "lat": 55.7523244, "lon": 37.6359261}, {"type": "node", "id": 666515738, "lat": 55.7532434, "lon": 37.6347558}, {"type": "node", "id": 666515739, "lat": 55.7570908, "lon": 37.6323139}, {"type": "node", "id": 666515745, "lat": 55.7491172, "lon": 37.6440726}, {"type": "node", "id": 666515747, "lat": 55.7495007, "lon": 37.6431429}, {"type": "node", "id": 666515748, "lat": 55.7474497, "lon": 37.6464373}, {"type": "node", "id": 666515750, "lat": 55.7481415, "lon": 37.6456851}, {"type": "node", "id": 669897719, "lat": 55.7846074, "lon": 37.5057336}, {"type": "node", "id": 766754808, "lat": 55.8238575, "lon": 37.4345066}, {"type": "node", "id": 1005345304, "lat": 55.8284588, "lon": 37.4372232}, {"type": "node", "id": 1162382753, "lat": 55.8096537, "lon": 37.4301788}, {"type": "node", "id": 1162384677, "lat": 55.809653, "lon": 37.4338003}, {"type": "node", "id": 1162385783, "lat": 55.8139185, "lon": 37.4179432}, {"type": "node", "id": 1162386173, "lat": 55.8108439, "lon": 37.4245433}, {"type": "node", "id": 1162388079, "lat": 55.8097451, "lon": 37.4293075}, {"type": "node", "id": 1162390202, "lat": 55.8135458, "lon": 37.4183796}, {"type": "node", "id": 1162390300, "lat": 55.8128166, "lon": 37.4198083}, {"type": "node", "id": 1162390482, "lat": 55.8099475, "lon": 37.4280242}, {"type": "node", "id": 1162391203, "lat": 55.8110306, "lon": 37.4241471}, {"type": "node", "id": 1162391328, "lat": 55.8115642, "lon": 37.4224851}, {"type": "node", "id": 1162391396, "lat": 55.8096284, "lon": 37.432083}, {"type": "node", "id": 1162392268, "lat": 55.8099241, "lon": 37.4353121}, {"type": "node", "id": 1162394785, "lat": 55.8104199, "lon": 37.426058}, {"type": "node", "id": 1162396013, "lat": 55.813088, "lon": 37.4191972}, {"type": "node", "id": 1162396638, "lat": 55.8102473, "lon": 37.4265918}, {"type": "node", "id": 1162396884, "lat": 55.8104921, "lon": 37.4256051}, {"type": "node", "id": 1162397490, "lat": 55.8118193, "lon": 37.4217897}, {"type": "node", "id": 1162397962, "lat": 55.8095966, "lon": 37.4329832}, {"type": "node", "id": 1162399770, "lat": 55.8098152, "lon": 37.4347293}, {"type": "node", "id": 1162403480, "lat": 55.8124978, "lon": 37.4202418}, {"type": "node", "id": 1162403629, "lat": 55.8129752, "lon": 37.4192991}, {"type": "node", "id": 1162403840, "lat": 55.8095778, "lon": 37.4310467}, {"type": "node", "id": 1162404106, "lat": 55.8097646, "lon": 37.4298418}, {"type": "node", "id": 1162405027, "lat": 55.8117915, "lon": 37.4219759}, {"type": "node", "id": 1162406606, "lat": 55.810227, "lon": 37.4269034}, {"type": "node", "id": 1162407378, "lat": 55.8119991, "lon": 37.421458}, {"type": "node", "id": 1162409583, "lat": 55.8098139, "lon": 37.4343265}, {"type": "node", "id": 1215906968, "lat": 55.8100088, "lon": 37.4614675}, {"type": "node", "id": 1217553868, "lat": 55.8064545, "lon": 37.4683348, "tags": {"crossing": "traffic_signals", "highway": "crossing"}}, {"type": "node", "id": 1221661494, "lat": 55.7562295, "lon": 37.6330886}, {"type": "node", "id": 1221661496, "lat": 55.7548573, "lon": 37.6337599}, {"type": "node", "id": 1221661510, "lat": 55.7548045, "lon": 37.633402}, {"type": "node", "id": 1221661514, "lat": 55.7539487, "lon": 37.6338489}, {"type": "node", "id": 1221661532, "lat": 55.7561888, "lon": 37.632742}, {"type": "node", "id": 1221676925, "lat": 55.7522012, "lon": 37.6357224}, {"type": "node", "id": 1221676926, "lat": 55.7531652, "lon": 37.6344675}, {"type": "node", "id": 1223468177, "lat": 55.7743551, "lon": 37.5415929}, {"type": "node", "id": 1223468184, "lat": 55.830599, "lon": 37.4372133}, {"type": "node", "id": 1223468185, "lat": 55.7208378, "lon": 37.8001365}, {"type": "node", "id": 1223468186, "lat": 55.7288519, "lon": 37.6770616}, {"type": "node", "id": 1223468188, "lat": 55.7319212, "lon": 37.6635193}, {"type": "node", "id": 1223468198, "lat": 55.7154243, "lon": 37.7104577}, {"type": "node", "id": 1223468199, "lat": 55.7907925, "lon": 37.4989572}, {"type": "node", "id": 1223468201, "lat": 55.8101501, "lon": 37.4610364}, {"type": "node", "id": 1223468203, "lat": 55.7047316, "lon": 37.7768166}, {"type": "node", "id": 1223468213, "lat": 55.7621863, "lon": 37.6222569}, {"type": "node", "id": 1223468223, "lat": 55.7046097, "lon": 37.7737316}, {"type": "node", "id": 1223468224, "lat": 55.7375941, "lon": 37.6550197}, {"type": "node", "id": 1223468235, "lat": 55.7725876, "lon": 37.5524879}, {"type": "node", "id": 1223468239, "lat": 55.7733068, "lon": 37.5502986}, {"type": "node", "id": 1223468240, "lat": 55.7773957, "lon": 37.5175786}, {"type": "node", "id": 1223468241, "lat": 55.7204499, "lon": 37.7981741}, {"type": "node", "id": 1223468243, "lat": 55.7475199, "lon": 37.6467422}, {"type": "node", "id": 1223468255, "lat": 55.8613725, "lon": 37.4363862}, {"type": "node", "id": 1223468256, "lat": 55.7069425, "lon": 37.7528059}, {"type": "node", "id": 1223468258, "lat": 55.7739168, "lon": 37.5440209}, {"type": "node", "id": 1223468259, "lat": 55.8273105, "lon": 37.4373181}, {"type": "node", "id": 1223468261, "lat": 55.8103666, "lon": 37.4600282}, {"type": "node", "id": 1223468281, "lat": 55.7090776, "lon": 37.727725}, {"type": "node", "id": 1223468284, "lat": 55.7162996, "lon": 37.7086211}, {"type": "node", "id": 1223468288, "lat": 55.7815296, "lon": 37.5067681}, {"type": "node", "id": 1223468300, "lat": 55.7150408, "lon": 37.8197831, "tags": {"railway": "switch", "ref": "2"}}, {"type": "node", "id": 1223468307, "lat": 55.7279313, "lon": 37.6788895}, {"type": "node", "id": 1223468309, "lat": 55.7605735, "lon": 37.5888525}, {"type": "node", "id": 1223468340, "lat": 55.7191653, "lon": 37.7950575}, {"type": "node", "id": 1223468344, "lat": 55.7492246, "lon": 37.6443464}, {"type": "node", "id": 1223468372, "lat": 55.7442381, "lon": 37.6490727, "tags": {"layer": "-4", "railway": "switch", "ref": "4"}}, {"type": "node", "id": 1223468374, "lat": 55.7861749, "lon": 37.5051887}, {"type": "node", "id": 1223468378, "lat": 55.7148731, "lon": 37.7118316}, {"type": "node", "id": 1223468382, "lat": 55.8129293, "lon": 37.4423715}, {"type": "node", "id": 1223468404, "lat": 55.7657486, "lon": 37.6055895}, {"type": "node", "id": 1223468406, "lat": 55.7203247, "lon": 37.8041441}, {"type": "node", "id": 1223468424, "lat": 55.7048987, "lon": 37.7775632}, {"type": "node", "id": 1223468427, "lat": 55.7623172, "lon": 37.6224865}, {"type": "node", "id": 1223468431, "lat": 55.7617322, "lon": 37.5757571}, {"type": "node", "id": 1223468435, "lat": 55.7781166, "lon": 37.5103902}, {"type": "node", "id": 1223468440, "lat": 55.7106312, "lon": 37.7230698, "tags": {"railway": "switch", "ref": "2"}}, {"type": "node", "id": 1223468465, "lat": 55.7782209, "lon": 37.5104475}, {"type": "node", "id": 1223468468, "lat": 55.7142236, "lon": 37.7913194}, {"type": "node", "id": 1223468470, "lat": 55.7216539, "lon": 37.6976242}, {"type": "node", "id": 1223468474, "lat": 55.8514599, "lon": 37.4397253}, {"type": "node", "id": 1223468483, "lat": 55.7168545, "lon": 37.7075059}, {"type": "node", "id": 1223468518, "lat": 55.7089467, "lon": 37.7286339}, {"type": "node", "id": 1223468523, "lat": 55.7321632, "lon": 37.6612845}, {"type": "node", "id": 1223468541, "lat": 55.8108554, "lon": 37.4552238}, {"type": "node", "id": 1223468547, "lat": 55.7603104, "lon": 37.5848433}, {"type": "node", "id": 1223468550, "lat": 55.7156925, "lon": 37.7098339}, {"type": "node", "id": 1223468559, "lat": 55.8152028, "lon": 37.4372107}, {"type": "node", "id": 1223468565, "lat": 55.7736656, "lon": 37.54864}, {"type": "node", "id": 1223468576, "lat": 55.7162749, "lon": 37.7085801}, {"type": "node", "id": 1223468577, "lat": 55.7955301, "lon": 37.4895659}, {"type": "node", "id": 1223468581, "lat": 55.8095222, "lon": 37.4628115}, {"type": "node", "id": 1223468586, "lat": 55.7798355, "lon": 37.5073351}, {"type": "node", "id": 1223468588, "lat": 55.7650181, "lon": 37.5985186}, {"type": "node", "id": 1223468613, "lat": 55.7081109, "lon": 37.7442028}, {"type": "node", "id": 1223468616, "lat": 55.7153973, "lon": 37.7104196}, {"type": "node", "id": 1223468618, "lat": 55.7094732, "lon": 37.7261948}, {"type": "node", "id": 1223468619, "lat": 55.7199288, "lon": 37.7965939}, {"type": "node", "id": 1223468620, "lat": 55.7482356, "lon": 37.6459865}, {"type": "node", "id": 1223468639, "lat": 55.8613531, "lon": 37.4361764}, {"type": "node", "id": 1223468662, "lat": 55.7846302, "lon": 37.50598}, {"type": "node", "id": 1223468664, "lat": 55.708902, "lon": 37.7296155}, {"type": "node", "id": 1223468667, "lat": 55.7118531, "lon": 37.7197127}, {"type": "node", "id": 1223468672, "lat": 55.7280021, "lon": 37.6790092}, {"type": "node", "id": 1223468678, "lat": 55.810536, "lon": 37.4588275}, {"type": "node", "id": 1223468691, "lat": 55.7202968, "lon": 37.8041136}, {"type": "node", "id": 1223468693, "lat": 55.7639731, "lon": 37.5624562}, {"type": "node", "id": 1223468700, "lat": 55.7118775, "lon": 37.7197533}, {"type": "node", "id": 1223468703, "lat": 55.7207424, "lon": 37.8025273}, {"type": "node", "id": 1223468707, "lat": 55.7082261, "lon": 37.7848324}, {"type": "node", "id": 1223468708, "lat": 55.7316941, "lon": 37.6703888}, {"type": "node", "id": 1223468719, "lat": 55.7175274, "lon": 37.7063351}, {"type": "node", "id": 1223468722, "lat": 55.7868901, "lon": 37.504468}, {"type": "node", "id": 1223468725, "lat": 55.7190951, "lon": 37.7951869}, {"type": "node", "id": 1223468750, "lat": 55.7734028, "lon": 37.5503606}, {"type": "node", "id": 1223468755, "lat": 55.7181572, "lon": 37.7940691}, {"type": "node", "id": 1223468761, "lat": 55.8257073, "lon": 37.436846}, {"type": "node", "id": 1223468783, "lat": 55.7603943, "lon": 37.5879727}, {"type": "node", "id": 1223468788, "lat": 55.7749546, "lon": 37.538907}, {"type": "node", "id": 1223468793, "lat": 55.8336811, "lon": 37.4376141}, {"type": "node", "id": 1223468795, "lat": 55.7313457, "lon": 37.6718254}, {"type": "node", "id": 1223468818, "lat": 55.7204165, "lon": 37.8038272}, {"type": "node", "id": 1223468824, "lat": 55.795582, "lon": 37.4896477}, {"type": "node", "id": 1223468830, "lat": 55.7087989, "lon": 37.7857377}, {"type": "node", "id": 1223468832, "lat": 55.7785271, "lon": 37.5093929}, {"type": "node", "id": 1223468835, "lat": 55.7104238, "lon": 37.7235002, "tags": {"railway": "switch", "ref": "1"}}, {"type": "node", "id": 1223468866, "lat": 55.7792967, "lon": 37.5081273}, {"type": "node", "id": 1223468892, "lat": 55.8486638, "lon": 37.4401692}, {"type": "node", "id": 1223468895, "lat": 55.7108476, "lon": 37.7224882, "tags": {"railway": "switch", "ref": "4"}}, {"type": "node", "id": 1223468918, "lat": 55.7496364, "lon": 37.6433724}, {"type": "node", "id": 1223468936, "lat": 55.7087529, "lon": 37.7388763}, {"type": "node", "id": 1223468949, "lat": 55.7645851, "lon": 37.5974748}, {"type": "node", "id": 1223468955, "lat": 55.7719393, "lon": 37.5534533}, {"type": "node", "id": 1223468958, "lat": 55.8118007, "lon": 37.450349}, {"type": "node", "id": 1223468961, "lat": 55.7319058, "lon": 37.6680775}, {"type": "node", "id": 1223468963, "lat": 55.8284851, "lon": 37.4373906}, {"type": "node", "id": 1223468978, "lat": 55.7148437, "lon": 37.7117887}, {"type": "node", "id": 1223468989, "lat": 55.765272, "lon": 37.609329}, {"type": "node", "id": 1223468992, "lat": 55.7063218, "lon": 37.7607041}, {"type": "node", "id": 1223469016, "lat": 55.7052748, "lon": 37.77867}, {"type": "node", "id": 1223469029, "lat": 55.7798835, "lon": 37.5075971}, {"type": "node", "id": 1223469033, "lat": 55.7333197, "lon": 37.658777}, {"type": "node", "id": 1223469070, "lat": 55.7934031, "lon": 37.4938635, "tags": {"colour": "violet", "layer": "-2", "name": "\u041e\u043a\u0442\u044f\u0431\u0440\u044c\u0441\u043a\u043e\u0435 \u041f\u043e\u043b\u0435", "name:be": "\u041a\u0430\u0441\u0442\u0440\u044b\u0447\u043d\u0456\u0446\u043a\u0430\u0435 \u043f\u043e\u043b\u0435", "name:en": "Oktyabrskoye Pole", "name:ru": "\u041e\u043a\u0442\u044f\u0431\u0440\u044c\u0441\u043a\u043e\u0435 \u041f\u043e\u043b\u0435", "name:uk": "\u0416\u043e\u0432\u0442\u043d\u0435\u0432\u0435 \u043f\u043e\u043b\u0435", "network": "\u041c\u043e\u0441\u043a\u043e\u0432\u0441\u043a\u0438\u0439 \u043c\u0435\u0442\u0440\u043e\u043f\u043e\u043b\u0438\u0442\u0435\u043d", "operator": "\u0413\u0423\u041f \u00ab\u041c\u043e\u0441\u043a\u043e\u0432\u0441\u043a\u0438\u0439 \u043c\u0435\u0442\u0440\u043e\u043f\u043e\u043b\u0438\u0442\u0435\u043d\u00bb", "public_transport": "stop_position", "railway": "stop", "subway": "yes"}}, {"type": "node", "id": 1223469074, "lat": 55.7779862, "lon": 37.5227501}, {"type": "node", "id": 1223469099, "lat": 55.7045599, "lon": 37.7745033}, {"type": "node", "id": 1223469122, "lat": 55.7168838, "lon": 37.7075495}, {"type": "node", "id": 1223469123, "lat": 55.7089938, "lon": 37.7277156}, {"type": "node", "id": 1223496828, "lat": 55.7616904, "lon": 37.6243944}, {"type": "node", "id": 1223496852, "lat": 55.7615226, "lon": 37.6242799}, {"type": "node", "id": 1223496853, "lat": 55.7597993, "lon": 37.6280339}, {"type": "node", "id": 1223496860, "lat": 55.7599273, "lon": 37.6282347}, {"type": "node", "id": 1223550685, "lat": 55.7571497, "lon": 37.6326978}, {"type": "node", "id": 1223550687, "lat": 55.7527751, "lon": 37.6352588}, {"type": "node", "id": 1223550690, "lat": 55.7526608, "lon": 37.6350193}, {"type": "node", "id": 1223589168, "lat": 55.7054963, "lon": 37.7670754}, {"type": "node", "id": 1264728445, "lat": 55.7414525, "lon": 37.6507442, "tags": {"layer": "-4", "railway": "switch", "ref": "1"}}, {"type": "node", "id": 1277385690, "lat": 55.7585797, "lon": 37.6313204}, {"type": "node", "id": 1277500350, "lat": 55.7602236, "lon": 37.5839526}, {"type": "node", "id": 1277500356, "lat": 55.7604228, "lon": 37.5840174, "tags": {"layer": "-4", "railway": "switch", "switch": "2"}}, {"type": "node", "id": 1277500358, "lat": 55.7613706, "lon": 37.5772396}, {"type": "node", "id": 1277500367, "lat": 55.7615332, "lon": 37.5774836}, {"type": "node", "id": 1315297571, "lat": 55.714232, "lon": 37.8221984, "tags": {"railway": "switch", "ref": "4"}}, {"type": "node", "id": 1315297722, "lat": 55.7160731, "lon": 37.8167004}, {"type": "node", "id": 1315297886, "lat": 55.7160458, "lon": 37.8166711}, {"type": "node", "id": 1359261215, "lat": 55.7690303, "lon": 37.5566923, "tags": {"layer": "-2", "railway": "switch", "ref": "4"}}, {"type": "node", "id": 1359261216, "lat": 55.7694196, "lon": 37.5562589, "tags": {"layer": "-2", "railway": "switch", "ref": "2"}}, {"type": "node", "id": 1359261217, "lat": 55.7697393, "lon": 37.5557562, "tags": {"layer": "-2", "railway": "switch", "ref": "1"}}, {"type": "node", "id": 1390960087, "lat": 55.7772258, "lon": 37.5163779}, {"type": "node", "id": 1390960092, "lat": 55.7772285, "lon": 37.5160794}, {"type": "node", "id": 1390960094, "lat": 55.7772326, "lon": 37.5167206}, {"type": "node", "id": 1390960097, "lat": 55.7772437, "lon": 37.5156967}, {"type": "node", "id": 1390960102, "lat": 55.7772452, "lon": 37.5169887}, {"type": "node", "id": 1390960110, "lat": 55.7772648, "lon": 37.5172603}, {"type": "node", "id": 1390960121, "lat": 55.7772722, "lon": 37.5153148}, {"type": "node", "id": 1390960156, "lat": 55.7773277, "lon": 37.5164525}, {"type": "node", "id": 1390960159, "lat": 55.7773288, "lon": 37.5161454}, {"type": "node", "id": 1390960162, "lat": 55.777394, "lon": 37.5144157}, {"type": "node", "id": 1390960173, "lat": 55.7773338, "lon": 37.5167303}, {"type": "node", "id": 1390960189, "lat": 55.7773385, "lon": 37.5158369}, {"type": "node", "id": 1390960212, "lat": 55.7773478, "lon": 37.5170243}, {"type": "node", "id": 1390960227, "lat": 55.7772955, "lon": 37.5175783}, {"type": "node", "id": 1390960235, "lat": 55.7773696, "lon": 37.5173179}, {"type": "node", "id": 1390960239, "lat": 55.7773673, "lon": 37.5153935}, {"type": "node", "id": 1390960331, "lat": 55.7774824, "lon": 37.5144921}, {"type": "node", "id": 1390960991, "lat": 55.7776781, "lon": 37.5256904}, {"type": "node", "id": 1390961032, "lat": 55.7777296, "lon": 37.5210819}, {"type": "node", "id": 1390961105, "lat": 55.777718, "lon": 37.5254306}, {"type": "node", "id": 1390961146, "lat": 55.7777525, "lon": 37.5212947}, {"type": "node", "id": 1390961171, "lat": 55.7777584, "lon": 37.525926}, {"type": "node", "id": 1390961174, "lat": 55.7779188, "lon": 37.5218013}, {"type": "node", "id": 1390961180, "lat": 55.7777683, "lon": 37.5214964}, {"type": "node", "id": 1390961195, "lat": 55.7777656, "lon": 37.5250463}, {"type": "node", "id": 1390961203, "lat": 55.7777824, "lon": 37.5217475}, {"type": "node", "id": 1390961209, "lat": 55.7777887, "lon": 37.5219339}, {"type": "node", "id": 1390961212, "lat": 55.7777973, "lon": 37.5246992}, {"type": "node", "id": 1390961227, "lat": 55.7778279, "lon": 37.5255191}, {"type": "node", "id": 1390961230, "lat": 55.7778169, "lon": 37.5243852}, {"type": "node", "id": 1390961233, "lat": 55.7778309, "lon": 37.5237114}, {"type": "node", "id": 1390961237, "lat": 55.7778294, "lon": 37.5240123}, {"type": "node", "id": 1390961241, "lat": 55.777883, "lon": 37.5251265}, {"type": "node", "id": 1390961259, "lat": 55.7779351, "lon": 37.524649}, {"type": "node", "id": 1390961266, "lat": 55.7779486, "lon": 37.5221142}, {"type": "node", "id": 1390961274, "lat": 55.7779707, "lon": 37.5224294}, {"type": "node", "id": 1390961279, "lat": 55.7779727, "lon": 37.524143}, {"type": "node", "id": 1390961303, "lat": 55.7779919, "lon": 37.5236756}, {"type": "node", "id": 1390961307, "lat": 55.7779958, "lon": 37.5231529}, {"type": "node", "id": 1398729158, "lat": 55.7425785, "lon": 37.6502672, "tags": {"layer": "-4", "railway": "switch", "ref": "2"}}, {"type": "node", "id": 1398729286, "lat": 55.7600622, "lon": 37.5859151}, {"type": "node", "id": 1398729287, "lat": 55.7601016, "lon": 37.5870442}, {"type": "node", "id": 1398729289, "lat": 55.760247, "lon": 37.5859117}, {"type": "node", "id": 1398729290, "lat": 55.76028, "lon": 37.5870019}, {"type": "node", "id": 1453857747, "lat": 55.7722091, "lon": 37.5529215}, {"type": "node", "id": 1453857838, "lat": 55.7722786, "lon": 37.5530302}, {"type": "node", "id": 1453858249, "lat": 55.7727768, "lon": 37.551794}, {"type": "node", "id": 1453858376, "lat": 55.7728532, "lon": 37.5519077}, {"type": "node", "id": 1453858460, "lat": 55.7729923, "lon": 37.5512479}, {"type": "node", "id": 1453858564, "lat": 55.7730846, "lon": 37.5513589}, {"type": "node", "id": 1453858635, "lat": 55.7731668, "lon": 37.5507706}, {"type": "node", "id": 1453858791, "lat": 55.7732623, "lon": 37.5508386}, {"type": "node", "id": 1453858993, "lat": 55.7734479, "lon": 37.549678}, {"type": "node", "id": 1453859025, "lat": 55.773517, "lon": 37.5490906}, {"type": "node", "id": 1453859029, "lat": 55.7735443, "lon": 37.5497169}, {"type": "node", "id": 1453859063, "lat": 55.7737935, "lon": 37.5441486}, {"type": "node", "id": 1453859135, "lat": 55.7738443, "lon": 37.5436484}, {"type": "node", "id": 1453859233, "lat": 55.7736221, "lon": 37.5491527}, {"type": "node", "id": 1453859417, "lat": 55.7739141, "lon": 37.5431981}, {"type": "node", "id": 1453859484, "lat": 55.7739759, "lon": 37.5428623}, {"type": "node", "id": 1453859501, "lat": 55.7739526, "lon": 37.543623}, {"type": "node", "id": 1453859503, "lat": 55.7740277, "lon": 37.5425976}, {"type": "node", "id": 1453859505, "lat": 55.7740051, "lon": 37.5432304}, {"type": "node", "id": 1453859510, "lat": 55.7740655, "lon": 37.5428858}, {"type": "node", "id": 1453859512, "lat": 55.7741193, "lon": 37.5426119}, {"type": "node", "id": 1470892699, "lat": 55.7323384, "lon": 37.6600309}, {"type": "node", "id": 1470892700, "lat": 55.7328437, "lon": 37.6594722}, {"type": "node", "id": 1470892728, "lat": 55.741939, "lon": 37.6507445}, {"type": "node", "id": 2036372327, "lat": 55.7143048, "lon": 37.8217507}, {"type": "node", "id": 2036372331, "lat": 55.714878, "lon": 37.8202692, "tags": {"railway": "switch", "ref": "6"}}, {"type": "node", "id": 2036372333, "lat": 55.7149825, "lon": 37.8197158}, {"type": "node", "id": 2036372337, "lat": 55.7151536, "lon": 37.8193304, "tags": {"railway": "switch", "ref": "1"}}, {"type": "node", "id": 2128698341, "lat": 55.6952311, "lon": 37.8613459}, {"type": "node", "id": 2128698346, "lat": 55.6986475, "lon": 37.8570306}, {"type": "node", "id": 2128698348, "lat": 55.7116684, "lon": 37.8294332}, {"type": "node", "id": 2128698350, "lat": 55.7026408, "lon": 37.8503199}, {"type": "node", "id": 2128698353, "lat": 55.6933255, "lon": 37.8611101}, {"type": "node", "id": 2128698355, "lat": 55.6952149, "lon": 37.8612172}, {"type": "node", "id": 2128698357, "lat": 55.6915657, "lon": 37.8604223}, {"type": "node", "id": 2128698359, "lat": 55.6987302, "lon": 37.857167}, {"type": "node", "id": 2128698361, "lat": 55.696849, "lon": 37.859644}, {"type": "node", "id": 2128698363, "lat": 55.6961559, "lon": 37.8608003}, {"type": "node", "id": 2128698365, "lat": 55.7088261, "lon": 37.8368409}, {"type": "node", "id": 2128698367, "lat": 55.6805696, "lon": 37.8507077}, {"type": "node", "id": 2128698370, "lat": 55.7047298, "lon": 37.8464882}, {"type": "node", "id": 2128698372, "lat": 55.6847448, "lon": 37.85531}, {"type": "node", "id": 2128698373, "lat": 55.7140879, "lon": 37.8223602}, {"type": "node", "id": 2128698375, "lat": 55.6894068, "lon": 37.859254}, {"type": "node", "id": 2128698377, "lat": 55.6846632, "lon": 37.8555127}, {"type": "node", "id": 2128698379, "lat": 55.6866372, "lon": 37.857745}, {"type": "node", "id": 2128698387, "lat": 55.7047417, "lon": 37.8467611}, {"type": "node", "id": 2128698390, "lat": 55.6915508, "lon": 37.8605233}, {"type": "node", "id": 2128698391, "lat": 55.6969252, "lon": 37.8597879}, {"type": "node", "id": 2128698392, "lat": 55.7075063, "lon": 37.8416451}, {"type": "node", "id": 2128698393, "lat": 55.6877282, "lon": 37.8583393}, {"type": "node", "id": 2128698394, "lat": 55.7024954, "lon": 37.8502418}, {"type": "node", "id": 2128698395, "lat": 55.6866457, "lon": 37.8574488}, {"type": "node", "id": 2128698396, "lat": 55.7126846, "lon": 37.8266673}, {"type": "node", "id": 2128698399, "lat": 55.7089233, "lon": 37.8369396}, {"type": "node", "id": 2128698401, "lat": 55.6893947, "lon": 37.8595082}, {"type": "node", "id": 2128698403, "lat": 55.6960919, "lon": 37.8606734}, {"type": "node", "id": 2128698405, "lat": 55.7130681, "lon": 37.8241348}, {"type": "node", "id": 2128698407, "lat": 55.7073942, "lon": 37.8415599}, {"type": "node", "id": 2128698408, "lat": 55.6877075, "lon": 37.8585778}, {"type": "node", "id": 2128745127, "lat": 55.6790896, "lon": 37.8502047}, {"type": "node", "id": 2128745129, "lat": 55.67945, "lon": 37.8502001}, {"type": "node", "id": 2128745131, "lat": 55.6783561, "lon": 37.8504614}, {"type": "node", "id": 2128745134, "lat": 55.6716482, "lon": 37.8647575}, {"type": "node", "id": 2128745137, "lat": 55.6801489, "lon": 37.8501031}, {"type": "node", "id": 2128745139, "lat": 55.6715312, "lon": 37.8646447}, {"type": "node", "id": 2128745142, "lat": 55.6787407, "lon": 37.8502841}, {"type": "node", "id": 2128745143, "lat": 55.6779359, "lon": 37.8504494}, {"type": "node", "id": 2128745146, "lat": 55.6798725, "lon": 37.8499777}, {"type": "node", "id": 2128745148, "lat": 55.680971, "lon": 37.8508165}, {"type": "node", "id": 2128745151, "lat": 55.6804243, "lon": 37.8502806}, {"type": "node", "id": 2128745153, "lat": 55.6843306, "lon": 37.8551176, "tags": {"layer": "-2", "railway": "switch", "ref": "2"}}, {"type": "node", "id": 2128745155, "lat": 55.6808913, "lon": 37.8510262}, {"type": "node", "id": 2128745158, "lat": 55.6794961, "lon": 37.8498854}, {"type": "node", "id": 2128745160, "lat": 55.6802475, "lon": 37.8504743}, {"type": "node", "id": 2128745162, "lat": 55.67989, "lon": 37.8503012}, {"type": "node", "id": 2128745165, "lat": 55.6792222, "lon": 37.8498726}, {"type": "node", "id": 2128745168, "lat": 55.6785622, "lon": 37.8500301}, {"type": "node", "id": 2128745171, "lat": 55.6806571, "lon": 37.8504762}, {"type": "node", "id": 2150014800, "lat": 55.813469, "lon": 37.4400702}, {"type": "node", "id": 2150014804, "lat": 55.8146212, "lon": 37.4377624}, {"type": "node", "id": 2150014805, "lat": 55.8147008, "lon": 37.4378959}, {"type": "node", "id": 2150014806, "lat": 55.8154506, "lon": 37.4367504}, {"type": "node", "id": 2150014807, "lat": 55.8154935, "lon": 37.4369339}, {"type": "node", "id": 2150014810, "lat": 55.82226, "lon": 37.4349839}, {"type": "node", "id": 2209567373, "lat": 55.684405, "lon": 37.8549157, "tags": {"layer": "-2", "railway": "switch", "ref": "1"}}, {"type": "node", "id": 2321914823, "lat": 55.8253729, "lon": 37.4364756}, {"type": "node", "id": 2321914827, "lat": 55.8253412, "lon": 37.4366703}, {"type": "node", "id": 2322387348, "lat": 55.8275583, "lon": 37.4373602}, {"type": "node", "id": 2322387349, "lat": 55.82781, "lon": 37.4373876}, {"type": "node", "id": 2322503068, "lat": 55.8274188, "lon": 37.4373443}, {"type": "node", "id": 2331120535, "lat": 55.7656772, "lon": 37.6032678}, {"type": "node", "id": 2331120537, "lat": 55.7658559, "lon": 37.6032718}, {"type": "node", "id": 2331120538, "lat": 55.7658408, "lon": 37.6044605}, {"type": "node", "id": 2461396860, "lat": 55.6942146, "lon": 37.8613475}, {"type": "node", "id": 2461396861, "lat": 55.6936975, "lon": 37.8613686}, {"type": "node", "id": 2461396862, "lat": 55.6949066, "lon": 37.8613051}, {"type": "node", "id": 2461396863, "lat": 55.6948916, "lon": 37.8614404}, {"type": "node", "id": 2461396864, "lat": 55.6956481, "lon": 37.8610316}, {"type": "node", "id": 2461396865, "lat": 55.6956781, "lon": 37.8611778}, {"type": "node", "id": 2468857193, "lat": 55.8278861, "lon": 37.4371861}, {"type": "node", "id": 2468857198, "lat": 55.8295134, "lon": 37.4372538}, {"type": "node", "id": 2468857200, "lat": 55.8295158, "lon": 37.4370709}, {"type": "node", "id": 2516024446, "lat": 55.6859534, "lon": 37.8569983}, {"type": "node", "id": 2516024450, "lat": 55.6860448, "lon": 37.8567988}, {"type": "node", "id": 2517170274, "lat": 55.6941849, "lon": 37.8614794}, {"type": "node", "id": 2517170275, "lat": 55.6945006, "lon": 37.8614957}, {"type": "node", "id": 2517170276, "lat": 55.6959394, "lon": 37.860996}, {"type": "node", "id": 2517170277, "lat": 55.6959014, "lon": 37.8608524}, {"type": "node", "id": 2517170278, "lat": 55.6945064, "lon": 37.8613605}, {"type": "node", "id": 2517170279, "lat": 55.6939404, "lon": 37.8614417}, {"type": "node", "id": 2517170280, "lat": 55.6939363, "lon": 37.8613124}, {"type": "node", "id": 2517170281, "lat": 55.6936288, "lon": 37.8612215}, {"type": "node", "id": 2517710285, "lat": 55.6788976, "lon": 37.8499163}, {"type": "node", "id": 2517710286, "lat": 55.6782343, "lon": 37.8502134}, {"type": "node", "id": 2517710287, "lat": 55.6776458, "lon": 37.8507524}, {"type": "node", "id": 2517710289, "lat": 55.6774111, "lon": 37.8510617}, {"type": "node", "id": 2517710290, "lat": 55.677158, "lon": 37.8514777}, {"type": "node", "id": 2517710291, "lat": 55.676918, "lon": 37.8519814}, {"type": "node", "id": 2517710292, "lat": 55.6759935, "lon": 37.8546411}, {"type": "node", "id": 2517710293, "lat": 55.6770805, "lon": 37.8519514}, {"type": "node", "id": 2517710294, "lat": 55.678008, "lon": 37.8507115}, {"type": "node", "id": 2517710295, "lat": 55.6777297, "lon": 37.8509824}, {"type": "node", "id": 2517710296, "lat": 55.677499, "lon": 37.8512642}, {"type": "node", "id": 2517710297, "lat": 55.6768671, "lon": 37.8524297}, {"type": "node", "id": 2524114396, "lat": 55.7029263, "lon": 37.849494}, {"type": "node", "id": 2524114400, "lat": 55.704192, "lon": 37.8474339}, {"type": "node", "id": 2524114401, "lat": 55.704177, "lon": 37.8477709}, {"type": "node", "id": 2524130550, "lat": 55.7118113, "lon": 37.8289335}, {"type": "node", "id": 2524130551, "lat": 55.7121979, "lon": 37.8266088}, {"type": "node", "id": 2524130552, "lat": 55.7123211, "lon": 37.8259529}, {"type": "node", "id": 2524130553, "lat": 55.7126322, "lon": 37.8249588}, {"type": "node", "id": 2524130554, "lat": 55.7128568, "lon": 37.8244881}, {"type": "node", "id": 2524130556, "lat": 55.713765, "lon": 37.8229772}, {"type": "node", "id": 2524130557, "lat": 55.7139248, "lon": 37.822708}, {"type": "node", "id": 2525101862, "lat": 55.6853846, "lon": 37.8561964, "tags": {"colour": "violet", "layer": "-2", "name": "\u0416\u0443\u043b\u0435\u0431\u0438\u043d\u043e", "name:en": "Zhulebino", "name:ru": "\u0416\u0443\u043b\u0435\u0431\u0438\u043d\u043e", "name:uk": "\u0416\u0443\u043b\u0435\u0431\u0456\u043d\u043e", "network": "\u041c\u043e\u0441\u043a\u043e\u0432\u0441\u043a\u0438\u0439 \u043c\u0435\u0442\u0440\u043e\u043f\u043e\u043b\u0438\u0442\u0435\u043d", "operator": "\u0413\u0423\u041f \u00ab\u041c\u043e\u0441\u043a\u043e\u0432\u0441\u043a\u0438\u0439 \u043c\u0435\u0442\u0440\u043e\u043f\u043e\u043b\u0438\u0442\u0435\u043d\u00bb", "public_transport": "station", "railway": "station", "station": "subway", "subway": "yes", "wheelchair": "yes", "wikidata": "Q4181601"}}, {"type": "node", "id": 2525101863, "lat": 55.7016254, "lon": 37.8519732, "tags": {"colour": "violet", "name": "\u041b\u0435\u0440\u043c\u043e\u043d\u0442\u043e\u0432\u0441\u043a\u0438\u0439 \u043f\u0440\u043e\u0441\u043f\u0435\u043a\u0442", "name:en": "Lermontovsky prospekt", "name:ru": "\u041b\u0435\u0440\u043c\u043e\u043d\u0442\u043e\u0432\u0441\u043a\u0438\u0439 \u043f\u0440\u043e\u0441\u043f\u0435\u043a\u0442", "name:uk": "\u041b\u0435\u0440\u043c\u043e\u043d\u0442\u043e\u0432\u0441\u044c\u043a\u0438\u0439 \u043f\u0440\u043e\u0441\u043f\u0435\u043a\u0442", "network": "\u041c\u043e\u0441\u043a\u043e\u0432\u0441\u043a\u0438\u0439 \u043c\u0435\u0442\u0440\u043e\u043f\u043e\u043b\u0438\u0442\u0435\u043d", "operator": "\u0413\u0423\u041f \u00ab\u041c\u043e\u0441\u043a\u043e\u0432\u0441\u043a\u0438\u0439 \u043c\u0435\u0442\u0440\u043e\u043f\u043e\u043b\u0438\u0442\u0435\u043d\u00bb", "railway": "station", "station": "subway", "wikidata": "Q4259275"}}, {"type": "node", "id": 2525193113, "lat": 55.6723361, "lon": 37.8623779}, {"type": "node", "id": 2525193114, "lat": 55.6724352, "lon": 37.8625455}, {"type": "node", "id": 2525193115, "lat": 55.6759251, "lon": 37.8551579}, {"type": "node", "id": 2525193116, "lat": 55.6766978, "lon": 37.8525922}, {"type": "node", "id": 2574075009, "lat": 55.8281372, "lon": 37.4374016}, {"type": "node", "id": 3024682983, "lat": 55.8135515, "lon": 37.4402006}, {"type": "node", "id": 3024682985, "lat": 55.816233, "lon": 37.4365212}, {"type": "node", "id": 3024682986, "lat": 55.8175553, "lon": 37.4359118}, {"type": "node", "id": 3024682987, "lat": 55.8175713, "lon": 37.4360708}, {"type": "node", "id": 3024682991, "lat": 55.8189905, "lon": 37.4354556}, {"type": "node", "id": 3024682992, "lat": 55.8189984, "lon": 37.4355346}, {"type": "node", "id": 3024682993, "lat": 55.8190064, "lon": 37.4356145}, {"type": "node", "id": 3024683006, "lat": 55.8207872, "lon": 37.4348612}, {"type": "node", "id": 3024683007, "lat": 55.8208031, "lon": 37.4350516}, {"type": "node", "id": 3024683014, "lat": 55.822261, "lon": 37.4347853}, {"type": "node", "id": 3024683015, "lat": 55.8229431, "lon": 37.4352163}, {"type": "node", "id": 3024683016, "lat": 55.8229624, "lon": 37.435022}, {"type": "node", "id": 3024721719, "lat": 55.8170427, "lon": 37.4345349, "tags": {"colour": "violet", "network": "\u041c\u043e\u0441\u043a\u043e\u0432\u0441\u043a\u0438\u0439 \u043c\u0435\u0442\u0440\u043e\u043f\u043e\u043b\u0438\u0442\u0435\u043d", "operator": "\u0413\u0423\u041f \u00ab\u041c\u043e\u0441\u043a\u043e\u0432\u0441\u043a\u0438\u0439 \u043c\u0435\u0442\u0440\u043e\u043f\u043e\u043b\u0438\u0442\u0435\u043d\u00bb", "railway": "subway_entrance", "ref": "2", "wheelchair": "no"}}, {"type": "node", "id": 3024721720, "lat": 55.8170755, "lon": 37.4339612, "tags": {"colour": "violet", "network": "\u041c\u043e\u0441\u043a\u043e\u0432\u0441\u043a\u0438\u0439 \u043c\u0435\u0442\u0440\u043e\u043f\u043e\u043b\u0438\u0442\u0435\u043d", "operator": "\u0413\u0423\u041f \u00ab\u041c\u043e\u0441\u043a\u043e\u0432\u0441\u043a\u0438\u0439 \u043c\u0435\u0442\u0440\u043e\u043f\u043e\u043b\u0438\u0442\u0435\u043d\u00bb", "railway": "subway_entrance", "ref": "4", "wheelchair": "no"}}, {"type": "node", "id": 3024721726, "lat": 55.817515, "lon": 37.4346276, "tags": {"colour": "violet", "network": "\u041c\u043e\u0441\u043a\u043e\u0432\u0441\u043a\u0438\u0439 \u043c\u0435\u0442\u0440\u043e\u043f\u043e\u043b\u0438\u0442\u0435\u043d", "operator": "\u0413\u0423\u041f \u00ab\u041c\u043e\u0441\u043a\u043e\u0432\u0441\u043a\u0438\u0439 \u043c\u0435\u0442\u0440\u043e\u043f\u043e\u043b\u0438\u0442\u0435\u043d\u00bb", "railway": "subway_entrance", "ref": "3", "wheelchair": "no"}}, {"type": "node", "id": 3024721728, "lat": 55.817548, "lon": 37.4340531, "tags": {"colour": "violet", "network": "\u041c\u043e\u0441\u043a\u043e\u0432\u0441\u043a\u0438\u0439 \u043c\u0435\u0442\u0440\u043e\u043f\u043e\u043b\u0438\u0442\u0435\u043d", "operator": "\u0413\u0423\u041f \u00ab\u041c\u043e\u0441\u043a\u043e\u0432\u0441\u043a\u0438\u0439 \u043c\u0435\u0442\u0440\u043e\u043f\u043e\u043b\u0438\u0442\u0435\u043d\u00bb", "railway": "subway_entrance", "ref": "5", "wheelchair": "no"}}, {"type": "node", "id": 3024721729, "lat": 55.8175633, "lon": 37.4359913}, {"type": "node", "id": 3024721835, "lat": 55.8195308, "lon": 37.4353651, "tags": {"colour": "violet", "network": "\u041c\u043e\u0441\u043a\u043e\u0432\u0441\u043a\u0438\u0439 \u043c\u0435\u0442\u0440\u043e\u043f\u043e\u043b\u0438\u0442\u0435\u043d", "operator": "\u0413\u0423\u041f \u00ab\u041c\u043e\u0441\u043a\u043e\u0432\u0441\u043a\u0438\u0439 \u043c\u0435\u0442\u0440\u043e\u043f\u043e\u043b\u0438\u0442\u0435\u043d\u00bb", "railway": "subway_entrance", "ref": "1"}}, {"type": "node", "id": 3024737235, "lat": 55.8148852, "lon": 37.4373578}, {"type": "node", "id": 3024737236, "lat": 55.8149485, "lon": 37.4375197}, {"type": "node", "id": 3046563958, "lat": 55.8182906, "lon": 37.4356624, "tags": {"layer": "-2", "name": "\u0421\u043f\u0430\u0440\u0442\u0430\u043a", "public_transport": "stop_position", "railway": "stop", "subway": "yes"}}, {"type": "node", "id": 3190272317, "lat": 55.8151834, "lon": 37.4356193}, {"type": "node", "id": 3190272326, "lat": 55.8157179, "lon": 37.4351921}, {"type": "node", "id": 3190272330, "lat": 55.8147298, "lon": 37.4362313}, {"type": "node", "id": 3190272331, "lat": 55.8161915, "lon": 37.4350364}, {"type": "node", "id": 3190272333, "lat": 55.816713, "lon": 37.4349403}, {"type": "node", "id": 3190272334, "lat": 55.8183985, "lon": 37.4352373}, {"type": "node", "id": 3299680393, "lat": 55.7784206, "lon": 37.509277}, {"type": "node", "id": 3299680394, "lat": 55.7787861, "lon": 37.5084808}, {"type": "node", "id": 3299680395, "lat": 55.7788759, "lon": 37.5086943}, {"type": "node", "id": 3414713524, "lat": 55.8237842, "lon": 37.4317558}, {"type": "node", "id": 3414713527, "lat": 55.823832, "lon": 37.4319333}, {"type": "node", "id": 3596458662, "lat": 55.7089133, "lon": 37.728162}, {"type": "node", "id": 3596458668, "lat": 55.7089971, "lon": 37.7281754}, {"type": "node", "id": 3677853722, "lat": 55.7575019, "lon": 37.6321099}, {"type": "node", "id": 3677853723, "lat": 55.7575737, "lon": 37.6324696}, {"type": "node", "id": 3677853724, "lat": 55.7578503, "lon": 37.6318351}, {"type": "node", "id": 3677854925, "lat": 55.757945, "lon": 37.6321608}, {"type": "node", "id": 3677854926, "lat": 55.7584479, "lon": 37.6310792}, {"type": "node", "id": 3694670741, "lat": 55.7420279, "lon": 37.6502359}, {"type": "node", "id": 3706464707, "lat": 55.6743633, "lon": 37.8582702, "tags": {"colour": "violet", "layer": "-2", "name": "\u041a\u043e\u0442\u0435\u043b\u044c\u043d\u0438\u043a\u0438", "network": "\u041c\u043e\u0441\u043a\u043e\u0432\u0441\u043a\u0438\u0439 \u043c\u0435\u0442\u0440\u043e\u043f\u043e\u043b\u0438\u0442\u0435\u043d", "operator": "\u0413\u0423\u041f \u00ab\u041c\u043e\u0441\u043a\u043e\u0432\u0441\u043a\u0438\u0439 \u043c\u0435\u0442\u0440\u043e\u043f\u043e\u043b\u0438\u0442\u0435\u043d\u00bb", "public_transport": "station", "railway": "station", "station": "subway", "subway": "yes", "wikidata": "Q4235947", "wikipedia": "ru:\u041a\u043e\u0442\u0435\u043b\u044c\u043d\u0438\u043a\u0438 (\u0441\u0442\u0430\u043d\u0446\u0438\u044f \u043c\u0435\u0442\u0440\u043e)"}}, {"type": "node", "id": 3781545444, "lat": 55.7648925, "lon": 37.6104731}, {"type": "node", "id": 3781545445, "lat": 55.7650538, "lon": 37.610576}, {"type": "node", "id": 3781545446, "lat": 55.7651082, "lon": 37.6092342}, {"type": "node", "id": 3781546657, "lat": 55.765579, "lon": 37.6055455}, {"type": "node", "id": 3881286057, "lat": 55.7803868, "lon": 37.5069693}, {"type": "node", "id": 3881286058, "lat": 55.7804332, "lon": 37.5072314}, {"type": "node", "id": 3881286059, "lat": 55.7853482, "lon": 37.5054494}, {"type": "node", "id": 3881286060, "lat": 55.7853898, "lon": 37.5056836}, {"type": "node", "id": 3881286061, "lat": 55.7904915, "lon": 37.4989948}, {"type": "node", "id": 3881286062, "lat": 55.7905948, "lon": 37.499292}, {"type": "node", "id": 3889875991, "lat": 55.8129571, "lon": 37.4416255}, {"type": "node", "id": 3889875992, "lat": 55.8130438, "lon": 37.4417682}, {"type": "node", "id": 3889875993, "lat": 55.8130988, "lon": 37.441084}, {"type": "node", "id": 3889875994, "lat": 55.8131825, "lon": 37.4412231}, {"type": "node", "id": 3889875995, "lat": 55.8132876, "lon": 37.4405151}, {"type": "node", "id": 3889875996, "lat": 55.8133706, "lon": 37.4406472}, {"type": "node", "id": 3889875997, "lat": 55.8158339, "lon": 37.43649}, {"type": "node", "id": 3889875998, "lat": 55.8158713, "lon": 37.4366756}, {"type": "node", "id": 3889875999, "lat": 55.8215117, "lon": 37.4347421}, {"type": "node", "id": 3889876000, "lat": 55.821518, "lon": 37.4349388}, {"type": "node", "id": 3889876001, "lat": 55.8255199, "lon": 37.4367639}, {"type": "node", "id": 3889876002, "lat": 55.8255475, "lon": 37.4365579}, {"type": "node", "id": 3914345567, "lat": 55.8238278, "lon": 37.4353902}, {"type": "node", "id": 3915666051, "lat": 55.7606509, "lon": 37.5898065}, {"type": "node", "id": 3915666052, "lat": 55.7608037, "lon": 37.589637}, {"type": "node", "id": 3915666053, "lat": 55.7609168, "lon": 37.5905009}, {"type": "node", "id": 3915666054, "lat": 55.7610946, "lon": 37.5903744}, {"type": "node", "id": 3915666056, "lat": 55.7651913, "lon": 37.5997492}, {"type": "node", "id": 3915667057, "lat": 55.7653576, "lon": 37.5996187}, {"type": "node", "id": 3915667058, "lat": 55.7654594, "lon": 37.6010001}, {"type": "node", "id": 3915667059, "lat": 55.7656162, "lon": 37.6022139}, {"type": "node", "id": 3915667060, "lat": 55.7656335, "lon": 37.6009072}, {"type": "node", "id": 3915667061, "lat": 55.7657958, "lon": 37.6021776}, {"type": "node", "id": 3917371548, "lat": 55.8234924, "lon": 37.4353337}, {"type": "node", "id": 3917371550, "lat": 55.8235897, "lon": 37.435305}, {"type": "node", "id": 3917371561, "lat": 55.8236505, "lon": 37.4353031}, {"type": "node", "id": 3917371568, "lat": 55.8237526, "lon": 37.4353278, "tags": {"crossing": "traffic_signals", "highway": "crossing", "tactile_paving": "no"}}, {"type": "node", "id": 3951049500, "lat": 55.7809435, "lon": 37.5067284}, {"type": "node", "id": 3951049501, "lat": 55.7809738, "lon": 37.5069701}, {"type": "node", "id": 3967496056, "lat": 55.7581658, "lon": 37.631489}, {"type": "node", "id": 3967496857, "lat": 55.7582853, "lon": 37.6317689}, {"type": "node", "id": 3967496858, "lat": 55.7587751, "lon": 37.6304319}, {"type": "node", "id": 3967496859, "lat": 55.7588865, "lon": 37.6306964}, {"type": "node", "id": 3967496862, "lat": 55.7596148, "lon": 37.6284561}, {"type": "node", "id": 3967500200, "lat": 55.7486632, "lon": 37.6449314}, {"type": "node", "id": 3967500201, "lat": 55.7487643, "lon": 37.6452124}, {"type": "node", "id": 3967500202, "lat": 55.7518224, "lon": 37.6365199}, {"type": "node", "id": 3967500203, "lat": 55.751971, "lon": 37.636677}, {"type": "node", "id": 3967500204, "lat": 55.7536069, "lon": 37.6340871}, {"type": "node", "id": 3967500205, "lat": 55.753683, "lon": 37.6344059}, {"type": "node", "id": 3975117175, "lat": 55.7614731, "lon": 37.5765592}, {"type": "node", "id": 3975117176, "lat": 55.7616404, "lon": 37.5767093}, {"type": "node", "id": 3975117177, "lat": 55.7617042, "lon": 37.5702464}, {"type": "node", "id": 3975117178, "lat": 55.7626529, "lon": 37.5645198}, {"type": "node", "id": 3975117179, "lat": 55.7618593, "lon": 37.5702618}, {"type": "node", "id": 3975117180, "lat": 55.762757, "lon": 37.5646645}, {"type": "node", "id": 3975117181, "lat": 55.7630839, "lon": 37.5635712}, {"type": "node", "id": 3975117182, "lat": 55.7631759, "lon": 37.5637245}, {"type": "node", "id": 3975117183, "lat": 55.7634712, "lon": 37.5628984}, {"type": "node", "id": 3975117184, "lat": 55.7635532, "lon": 37.5630573}, {"type": "node", "id": 4000049462, "lat": 55.6719282, "lon": 37.8634401}, {"type": "node", "id": 4000049465, "lat": 55.672041, "lon": 37.8635703}, {"type": "node", "id": 4000049466, "lat": 55.6721175, "lon": 37.8629108}, {"type": "node", "id": 4000049469, "lat": 55.6722232, "lon": 37.8630579}, {"type": "node", "id": 4000049476, "lat": 55.6735095, "lon": 37.8598959, "tags": {"layer": "-2", "railway": "switch", "ref": "1"}}, {"type": "node", "id": 4000049477, "lat": 55.6736076, "lon": 37.8600638, "tags": {"layer": "-2", "railway": "switch", "ref": "2"}}, {"type": "node", "id": 4000049478, "lat": 55.6761466, "lon": 37.854606}, {"type": "node", "id": 4000049479, "lat": 55.6762174, "lon": 37.8540745}, {"type": "node", "id": 4000049480, "lat": 55.6763373, "lon": 37.8540337}, {"type": "node", "id": 4000049481, "lat": 55.6764235, "lon": 37.8534745}, {"type": "node", "id": 4000049482, "lat": 55.6766748, "lon": 37.8529874}, {"type": "node", "id": 4000049483, "lat": 55.6772833, "lon": 37.851585}, {"type": "node", "id": 4027222564, "lat": 55.8475244, "lon": 37.439963}, {"type": "node", "id": 4027222565, "lat": 55.8475469, "lon": 37.4401316}, {"type": "node", "id": 4027222566, "lat": 55.8480165, "lon": 37.4400013}, {"type": "node", "id": 4027222567, "lat": 55.8480888, "lon": 37.4401896}, {"type": "node", "id": 4027222576, "lat": 55.8517107, "lon": 37.4396638}, {"type": "node", "id": 4027222577, "lat": 55.8520171, "lon": 37.4393936}, {"type": "node", "id": 4027230304, "lat": 55.8097677, "lon": 37.461839}, {"type": "node", "id": 4027230305, "lat": 55.8098667, "lon": 37.461961}, {"type": "node", "id": 4027230306, "lat": 55.8108256, "lon": 37.45452}, {"type": "node", "id": 4027230307, "lat": 55.8109307, "lon": 37.4539168}, {"type": "node", "id": 4027230308, "lat": 55.8109346, "lon": 37.4545962}, {"type": "node", "id": 4027230309, "lat": 55.8110397, "lon": 37.4539863}, {"type": "node", "id": 4027230310, "lat": 55.8115857, "lon": 37.4508698}, {"type": "node", "id": 4027230311, "lat": 55.8116957, "lon": 37.4509316}, {"type": "node", "id": 4035908416, "lat": 55.7137398, "lon": 37.7910761}, {"type": "node", "id": 4035908417, "lat": 55.7137851, "lon": 37.7909226}, {"type": "node", "id": 4035908418, "lat": 55.7186269, "lon": 37.7946509}, {"type": "node", "id": 4035908419, "lat": 55.7186813, "lon": 37.79451}, {"type": "node", "id": 4035908420, "lat": 55.7195218, "lon": 37.7958974}, {"type": "node", "id": 4035908421, "lat": 55.7195898, "lon": 37.7957807}, {"type": "node", "id": 4035908422, "lat": 55.7205645, "lon": 37.798838}, {"type": "node", "id": 4035908423, "lat": 55.7205698, "lon": 37.8031566}, {"type": "node", "id": 4035908424, "lat": 55.7206074, "lon": 37.8031786}, {"type": "node", "id": 4035908425, "lat": 55.7206273, "lon": 37.798805}, {"type": "node", "id": 4035908426, "lat": 55.7206994, "lon": 37.7995077}, {"type": "node", "id": 4035908427, "lat": 55.7207593, "lon": 37.7994792}, {"type": "node", "id": 4035908428, "lat": 55.72078, "lon": 37.8018606}, {"type": "node", "id": 4035908429, "lat": 55.720813, "lon": 37.8007052}, {"type": "node", "id": 4035908430, "lat": 55.7208148, "lon": 37.8012469}, {"type": "node", "id": 4035908431, "lat": 55.7208276, "lon": 37.8018784}, {"type": "node", "id": 4035908432, "lat": 55.720867, "lon": 37.8012569}, {"type": "node", "id": 4035908433, "lat": 55.7208687, "lon": 37.8007054}, {"type": "node", "id": 4035914572, "lat": 55.7209201, "lon": 37.698997}, {"type": "node", "id": 4035914573, "lat": 55.7209877, "lon": 37.6991245}, {"type": "node", "id": 4035928418, "lat": 55.7084642, "lon": 37.7854978}, {"type": "node", "id": 4035928419, "lat": 55.7085144, "lon": 37.7853476}, {"type": "node", "id": 4035936915, "lat": 55.7044687, "lon": 37.7753482}, {"type": "node", "id": 4035936916, "lat": 55.7045294, "lon": 37.7761212}, {"type": "node", "id": 4035936917, "lat": 55.7045641, "lon": 37.7752995}, {"type": "node", "id": 4035936918, "lat": 55.7046217, "lon": 37.7760658}, {"type": "node", "id": 4035936920, "lat": 55.7049901, "lon": 37.7782368}, {"type": "node", "id": 4035936921, "lat": 55.705071, "lon": 37.7781338}, {"type": "node", "id": 4074512416, "lat": 55.7616898, "lon": 37.57354}, {"type": "node", "id": 4074512417, "lat": 55.7617198, "lon": 37.5690549}, {"type": "node", "id": 4074512418, "lat": 55.7617242, "lon": 37.5727579}, {"type": "node", "id": 4074512419, "lat": 55.7617286, "lon": 37.5719847}, {"type": "node", "id": 4074512420, "lat": 55.7618265, "lon": 37.5678344}, {"type": "node", "id": 4074512421, "lat": 55.7618542, "lon": 37.5735669}, {"type": "node", "id": 4074512422, "lat": 55.7618702, "lon": 37.5690847}, {"type": "node", "id": 4074512423, "lat": 55.7618855, "lon": 37.572806}, {"type": "node", "id": 4074512424, "lat": 55.7618866, "lon": 37.5720549}, {"type": "node", "id": 4074512425, "lat": 55.7619735, "lon": 37.5678643}, {"type": "node", "id": 4074512426, "lat": 55.7620417, "lon": 37.5665628}, {"type": "node", "id": 4074512427, "lat": 55.7621829, "lon": 37.5666129}, {"type": "node", "id": 4074512428, "lat": 55.7623348, "lon": 37.5654298}, {"type": "node", "id": 4074512429, "lat": 55.7624654, "lon": 37.5655117}, {"type": "node", "id": 4074520399, "lat": 55.7655822, "lon": 37.5603671}, {"type": "node", "id": 4074520400, "lat": 55.7656442, "lon": 37.5605455}, {"type": "node", "id": 4074520401, "lat": 55.7672414, "lon": 37.5585404}, {"type": "node", "id": 4074520402, "lat": 55.7672716, "lon": 37.5586504}, {"type": "node", "id": 4116181359, "lat": 55.8375294, "lon": 37.4381173}, {"type": "node", "id": 4116181377, "lat": 55.8476672, "lon": 37.4399913}, {"type": "node", "id": 4399229950, "lat": 55.7076384, "lon": 37.747701}, {"type": "node", "id": 4474463617, "lat": 55.6994337, "lon": 37.855767}, {"type": "node", "id": 4474463618, "lat": 55.6994576, "lon": 37.856025}, {"type": "node", "id": 4474463619, "lat": 55.7001533, "lon": 37.8548069}, {"type": "node", "id": 4474463620, "lat": 55.703102, "lon": 37.849535}, {"type": "node", "id": 4476113225, "lat": 55.7077153, "lon": 37.8408505}, {"type": "node", "id": 4476113226, "lat": 55.7078078, "lon": 37.8409732}, {"type": "node", "id": 4476113227, "lat": 55.7078602, "lon": 37.8404425}, {"type": "node", "id": 4476113228, "lat": 55.7079548, "lon": 37.8405635}, {"type": "node", "id": 4476113229, "lat": 55.7079826, "lon": 37.8400294}, {"type": "node", "id": 4476113230, "lat": 55.7080867, "lon": 37.8401249}, {"type": "node", "id": 4476113231, "lat": 55.7089947, "lon": 37.8362634}, {"type": "node", "id": 4476113232, "lat": 55.709096, "lon": 37.8363541}, {"type": "node", "id": 4476113233, "lat": 55.709177, "lon": 37.8357383}, {"type": "node", "id": 4476113234, "lat": 55.7092836, "lon": 37.8358213}, {"type": "node", "id": 4476113235, "lat": 55.7093737, "lon": 37.8352539}, {"type": "node", "id": 4476113236, "lat": 55.7094603, "lon": 37.8353877}, {"type": "node", "id": 4476113237, "lat": 55.7102751, "lon": 37.833351}, {"type": "node", "id": 4476113238, "lat": 55.7103595, "lon": 37.8334809}, {"type": "node", "id": 4476113239, "lat": 55.7104923, "lon": 37.8328563}, {"type": "node", "id": 4476113240, "lat": 55.71059, "lon": 37.8329689}, {"type": "node", "id": 4476113241, "lat": 55.710703, "lon": 37.8323254}, {"type": "node", "id": 4476113242, "lat": 55.710814, "lon": 37.8323944}, {"type": "node", "id": 4476141968, "lat": 55.7119344, "lon": 37.8283563}, {"type": "node", "id": 4476141969, "lat": 55.7119478, "lon": 37.8290181}, {"type": "node", "id": 4476141970, "lat": 55.7120156, "lon": 37.8278406}, {"type": "node", "id": 4476141971, "lat": 55.7124508, "lon": 37.8254695}, {"type": "node", "id": 4476141972, "lat": 55.7125017, "lon": 37.8272386}, {"type": "node", "id": 4476141973, "lat": 55.7132776, "lon": 37.8248912}, {"type": "node", "id": 4476141974, "lat": 55.7138143, "lon": 37.8234456}, {"type": "node", "id": 4495448811, "lat": 55.7651761, "lon": 37.6099649}, {"type": "node", "id": 4495448812, "lat": 55.7650135, "lon": 37.6098641}, {"type": "node", "id": 4619363307, "lat": 55.8213399, "lon": 37.4318074}, {"type": "node", "id": 4619363308, "lat": 55.8212855, "lon": 37.4320224}, {"type": "node", "id": 4619363309, "lat": 55.8222907, "lon": 37.4328335}, {"type": "node", "id": 4619363310, "lat": 55.8226761, "lon": 37.4314455}, {"type": "node", "id": 4619363314, "lat": 55.819545, "lon": 37.4333149}, {"type": "node", "id": 4648096988, "lat": 55.7065085, "lon": 37.8431982, "tags": {"railway": "switch"}}, {"type": "node", "id": 4821506728, "lat": 55.7618793, "lon": 37.6233181}, {"type": "node", "id": 4821506729, "lat": 55.7620316, "lon": 37.6234882}, {"type": "node", "id": 4833306803, "lat": 55.675735, "lon": 37.8551879}, {"type": "node", "id": 4974239144, "lat": 55.8186414, "lon": 37.4257046}, {"type": "node", "id": 4974239145, "lat": 55.8178695, "lon": 37.4245727}, {"type": "node", "id": 4974239151, "lat": 55.8211773, "lon": 37.4348671}, {"type": "node", "id": 4974239152, "lat": 55.8207269, "lon": 37.4340355}, {"type": "node", "id": 4974239153, "lat": 55.8167848, "lon": 37.4337459}, {"type": "node", "id": 4974239154, "lat": 55.8166823, "lon": 37.4338639}, {"type": "node", "id": 4974239155, "lat": 55.8165407, "lon": 37.4338585}, {"type": "node", "id": 4974239156, "lat": 55.8150367, "lon": 37.4335957}, {"type": "node", "id": 4974239157, "lat": 55.8149402, "lon": 37.4334615}, {"type": "node", "id": 4974239158, "lat": 55.8149312, "lon": 37.433247}, {"type": "node", "id": 4974239159, "lat": 55.8152748, "lon": 37.4317557}, {"type": "node", "id": 4974239160, "lat": 55.815531, "lon": 37.4316376}, {"type": "node", "id": 4974239161, "lat": 55.8169898, "lon": 37.4326461}, {"type": "node", "id": 4974239175, "lat": 55.8131649, "lon": 37.4228454}, {"type": "node", "id": 4974239180, "lat": 55.8186172, "lon": 37.433424}, {"type": "node", "id": 4974239181, "lat": 55.8193466, "lon": 37.4333328}, {"type": "node", "id": 4974239205, "lat": 55.8220481, "lon": 37.4351384, "tags": {"highway": "traffic_signals"}}, {"type": "node", "id": 5122343582, "lat": 55.7327291, "lon": 37.659184}, {"type": "node", "id": 5122343583, "lat": 55.7318702, "lon": 37.6620441}, {"type": "node", "id": 5122343584, "lat": 55.7324531, "lon": 37.660319}, {"type": "node", "id": 5122343585, "lat": 55.7319848, "lon": 37.6623324}, {"type": "node", "id": 5122396788, "lat": 55.7312309, "lon": 37.671603}, {"type": "node", "id": 5122396789, "lat": 55.7317633, "lon": 37.6686365}, {"type": "node", "id": 5122396790, "lat": 55.7308461, "lon": 37.6731138}, {"type": "node", "id": 5122396791, "lat": 55.731878, "lon": 37.6688591}, {"type": "node", "id": 5125465455, "lat": 55.7213561, "lon": 37.6983555}, {"type": "node", "id": 5125465456, "lat": 55.7212814, "lon": 37.6982421}, {"type": "node", "id": 5125465457, "lat": 55.7239496, "lon": 37.6906469}, {"type": "node", "id": 5125465458, "lat": 55.7240357, "lon": 37.6907245}, {"type": "node", "id": 5125465459, "lat": 55.7245167, "lon": 37.6891548}, {"type": "node", "id": 5125465460, "lat": 55.7244367, "lon": 37.6890598}, {"type": "node", "id": 5125465461, "lat": 55.7196362, "lon": 37.7012391}, {"type": "node", "id": 5125465462, "lat": 55.7197136, "lon": 37.7013717}, {"type": "node", "id": 5125465465, "lat": 55.7205303, "lon": 37.6996903}, {"type": "node", "id": 5125465466, "lat": 55.7205922, "lon": 37.6998238}, {"type": "node", "id": 5125465467, "lat": 55.7200649, "lon": 37.7007116}, {"type": "node", "id": 5125465468, "lat": 55.7199924, "lon": 37.7005574}, {"type": "node", "id": 5125465469, "lat": 55.7194049, "lon": 37.702045}, {"type": "node", "id": 5125465470, "lat": 55.7193327, "lon": 37.7019488}, {"type": "node", "id": 5125465471, "lat": 55.7188433, "lon": 37.7033749}, {"type": "node", "id": 5125465472, "lat": 55.7188833, "lon": 37.7034205}, {"type": "node", "id": 5125465473, "lat": 55.718797, "lon": 37.7036365}, {"type": "node", "id": 5125465474, "lat": 55.7187601, "lon": 37.7035857}, {"type": "node", "id": 5125465475, "lat": 55.7381068, "lon": 37.6545316}, {"type": "node", "id": 5125465476, "lat": 55.7380184, "lon": 37.6542087}, {"type": "node", "id": 5125465477, "lat": 55.739597, "lon": 37.6529536}, {"type": "node", "id": 5125465478, "lat": 55.7394895, "lon": 37.6525961}, {"type": "node", "id": 5171209766, "lat": 55.8146057, "lon": 37.4176311}, {"type": "node", "id": 5171209767, "lat": 55.8148197, "lon": 37.417438}, {"type": "node", "id": 5171209768, "lat": 55.8205792, "lon": 37.4175506}, {"type": "node", "id": 5171209770, "lat": 55.8210944, "lon": 37.417545}, {"type": "node", "id": 5171209771, "lat": 55.8165466, "lon": 37.4168047}, {"type": "node", "id": 5171209772, "lat": 55.8164411, "lon": 37.4168959}, {"type": "node", "id": 5171209773, "lat": 55.818367, "lon": 37.416794}, {"type": "node", "id": 5171209774, "lat": 55.8203229, "lon": 37.4177327}, {"type": "node", "id": 5171209775, "lat": 55.8204767, "lon": 37.4174219}, {"type": "node", "id": 5171209776, "lat": 55.8179058, "lon": 37.4167832}, {"type": "node", "id": 5171209778, "lat": 55.8209589, "lon": 37.4175721}, {"type": "node", "id": 5171209779, "lat": 55.8171735, "lon": 37.4168369}, {"type": "node", "id": 5171209780, "lat": 55.8200263, "lon": 37.4165087}, {"type": "node", "id": 5171209781, "lat": 55.8161216, "lon": 37.4167135}, {"type": "node", "id": 5171209782, "lat": 55.8186382, "lon": 37.416751}, {"type": "node", "id": 5171209784, "lat": 55.8205097, "lon": 37.4180224}, {"type": "node", "id": 5171209785, "lat": 55.8162693, "lon": 37.416853}, {"type": "node", "id": 5171209786, "lat": 55.8172066, "lon": 37.4166867}, {"type": "node", "id": 5171209787, "lat": 55.820754, "lon": 37.4175506}, {"type": "node", "id": 5171209788, "lat": 55.8159739, "lon": 37.4166706}, {"type": "node", "id": 5171209789, "lat": 55.8207751, "lon": 37.4178456}, {"type": "node", "id": 5171209790, "lat": 55.8193284, "lon": 37.4165847}, {"type": "node", "id": 5171209791, "lat": 55.8152566, "lon": 37.4169763}, {"type": "node", "id": 5171209792, "lat": 55.8206967, "lon": 37.4178939}, {"type": "node", "id": 5171209793, "lat": 55.8212992, "lon": 37.4174918}, {"type": "node", "id": 5171209794, "lat": 55.8205732, "lon": 37.4178403}, {"type": "node", "id": 5171209795, "lat": 55.816857, "lon": 37.4166652}, {"type": "node", "id": 5171209796, "lat": 55.8180686, "lon": 37.4167618}, {"type": "node", "id": 5171209797, "lat": 55.8200036, "lon": 37.416982}, {"type": "node", "id": 5171209799, "lat": 55.8169715, "lon": 37.4169281}, {"type": "node", "id": 5171209801, "lat": 55.8194641, "lon": 37.4166496}, {"type": "node", "id": 5171209802, "lat": 55.8189999, "lon": 37.4167242}, {"type": "node", "id": 5171209803, "lat": 55.8203893, "lon": 37.4175935}, {"type": "node", "id": 5171209804, "lat": 55.8200066, "lon": 37.4170463}, {"type": "node", "id": 5171209805, "lat": 55.8188552, "lon": 37.4167081}, {"type": "node", "id": 5171209806, "lat": 55.817511, "lon": 37.4167081}, {"type": "node", "id": 5171209807, "lat": 55.8195785, "lon": 37.4165043}, {"type": "node", "id": 5171209808, "lat": 55.8196751, "lon": 37.4165585}, {"type": "node", "id": 5171209809, "lat": 55.816866, "lon": 37.4167671}, {"type": "node", "id": 5171209811, "lat": 55.8166852, "lon": 37.4166652}, {"type": "node", "id": 5171209812, "lat": 55.8155278, "lon": 37.4168369}, {"type": "node", "id": 5171209813, "lat": 55.8205762, "lon": 37.4171483}, {"type": "node", "id": 5171209814, "lat": 55.8149793, "lon": 37.4172982}, {"type": "node", "id": 5171209815, "lat": 55.8202762, "lon": 37.4166818}, {"type": "node", "id": 5171209816, "lat": 55.8205611, "lon": 37.4170034}, {"type": "node", "id": 5171209817, "lat": 55.8150849, "lon": 37.4170839}, {"type": "node", "id": 5171209818, "lat": 55.8141385, "lon": 37.4180334}, {"type": "node", "id": 5171209819, "lat": 55.8143736, "lon": 37.4178617}, {"type": "node", "id": 5171209820, "lat": 55.8140389, "lon": 37.4180063}, {"type": "node", "id": 5171212321, "lat": 55.8158353, "lon": 37.4166545}, {"type": "node", "id": 5171239639, "lat": 55.8114891, "lon": 37.4403545}, {"type": "node", "id": 5171239643, "lat": 55.8111091, "lon": 37.4306881}, {"type": "node", "id": 5171239653, "lat": 55.8108681, "lon": 37.4401292}, {"type": "node", "id": 5171239655, "lat": 55.811676, "lon": 37.4405261}, {"type": "node", "id": 5171239657, "lat": 55.8121764, "lon": 37.4411055}, {"type": "node", "id": 5171239658, "lat": 55.8118568, "lon": 37.4409767}, {"type": "node", "id": 5171239664, "lat": 55.8121248, "lon": 37.4416688}, {"type": "node", "id": 5171239665, "lat": 55.8121791, "lon": 37.4415078}, {"type": "node", "id": 5171239667, "lat": 55.8110852, "lon": 37.4401399}, {"type": "node", "id": 5171239668, "lat": 55.8121791, "lon": 37.4407246}, {"type": "node", "id": 5171239670, "lat": 55.8112901, "lon": 37.4402686}, {"type": "node", "id": 5171239671, "lat": 55.8167304, "lon": 37.4245788}, {"type": "node", "id": 5171239672, "lat": 55.8101205, "lon": 37.4374148}, {"type": "node", "id": 5171239673, "lat": 55.8187961, "lon": 37.426238}, {"type": "node", "id": 5171239679, "lat": 55.8100241, "lon": 37.4375972}, {"type": "node", "id": 5171239682, "lat": 55.8121489, "lon": 37.4401989}, {"type": "node", "id": 5171239685, "lat": 55.811296, "lon": 37.4351406}, {"type": "node", "id": 5171239690, "lat": 55.8111152, "lon": 37.4327588}, {"type": "node", "id": 5171239694, "lat": 55.8128973, "lon": 37.4234283}, {"type": "node", "id": 5171239695, "lat": 55.8115072, "lon": 37.4282953}, {"type": "node", "id": 5171239698, "lat": 55.8099099, "lon": 37.4378063}, {"type": "node", "id": 5171239709, "lat": 55.8102351, "lon": 37.4375328}, {"type": "node", "id": 5171239710, "lat": 55.8106089, "lon": 37.4385413}, {"type": "node", "id": 5171239711, "lat": 55.810639, "lon": 37.4398717}, {"type": "node", "id": 5171239715, "lat": 55.8106993, "lon": 37.4391528}, {"type": "node", "id": 5171239716, "lat": 55.8103677, "lon": 37.4380049}, {"type": "node", "id": 5175050875, "lat": 55.8169616, "lon": 37.4327975}, {"type": "node", "id": 5175054026, "lat": 55.8208418, "lon": 37.4317098}, {"type": "node", "id": 5175054027, "lat": 55.8191483, "lon": 37.4304568}, {"type": "node", "id": 5175054028, "lat": 55.8192019, "lon": 37.4302274}, {"type": "node", "id": 5175054029, "lat": 55.8209007, "lon": 37.4314843}, {"type": "node", "id": 5175054030, "lat": 55.8196678, "lon": 37.4284909}, {"type": "node", "id": 5175054031, "lat": 55.8210645, "lon": 37.4297202}, {"type": "node", "id": 5175054032, "lat": 55.8211196, "lon": 37.4295216}, {"type": "node", "id": 5175054033, "lat": 55.819723, "lon": 37.4282923}, {"type": "node", "id": 5176051005, "lat": 55.8144972, "lon": 37.4366425}, {"type": "node", "id": 5176051015, "lat": 55.8143435, "lon": 37.4371575}, {"type": "node", "id": 5176051017, "lat": 55.8145846, "lon": 37.4364333}, {"type": "node", "id": 5176053823, "lat": 55.8153267, "lon": 37.4379825}, {"type": "node", "id": 5176053826, "lat": 55.8155542, "lon": 37.4380753}, {"type": "node", "id": 5176053828, "lat": 55.8143984, "lon": 37.4368882}, {"type": "node", "id": 5176192201, "lat": 55.815731, "lon": 37.438228}, {"type": "node", "id": 5176192925, "lat": 55.814452, "lon": 37.4360472}, {"type": "node", "id": 5176192926, "lat": 55.8143977, "lon": 37.4360096}, {"type": "node", "id": 5176192927, "lat": 55.8146715, "lon": 37.4363124}, {"type": "node", "id": 5176192931, "lat": 55.8146238, "lon": 37.4375277}, {"type": "node", "id": 5176192932, "lat": 55.8141988, "lon": 37.4371361}, {"type": "node", "id": 5176192939, "lat": 55.8156878, "lon": 37.4383753}, {"type": "node", "id": 5176212375, "lat": 55.8146276, "lon": 37.4346562}, {"type": "node", "id": 5176212376, "lat": 55.8154474, "lon": 37.4342163}, {"type": "node", "id": 5176212377, "lat": 55.8176988, "lon": 37.4346025}, {"type": "node", "id": 5176212380, "lat": 55.8179209, "lon": 37.4347224}, {"type": "node", "id": 5176212381, "lat": 55.8176172, "lon": 37.4350996}, {"type": "node", "id": 5176212382, "lat": 55.8168661, "lon": 37.4344542}, {"type": "node", "id": 5176212383, "lat": 55.8180355, "lon": 37.434819}, {"type": "node", "id": 5176212384, "lat": 55.8178975, "lon": 37.435149}, {"type": "node", "id": 5176212388, "lat": 55.8147443, "lon": 37.4342933}, {"type": "node", "id": 5176212390, "lat": 55.8144249, "lon": 37.4358275}, {"type": "node", "id": 5176212393, "lat": 55.8181892, "lon": 37.4349799}, {"type": "node", "id": 5176212396, "lat": 55.8147956, "lon": 37.4342343}, {"type": "node", "id": 5176212397, "lat": 55.8147082, "lon": 37.4343737}, {"type": "node", "id": 5176212399, "lat": 55.8149131, "lon": 37.4341431}, {"type": "node", "id": 5176212400, "lat": 55.8168365, "lon": 37.4349621}, {"type": "node", "id": 5176212403, "lat": 55.8149734, "lon": 37.4341323}, {"type": "node", "id": 5176212405, "lat": 55.8179667, "lon": 37.4351612}, {"type": "node", "id": 5176212407, "lat": 55.8157918, "lon": 37.4351612}, {"type": "node", "id": 5176212410, "lat": 55.8176437, "lon": 37.4345883}, {"type": "node", "id": 5176212414, "lat": 55.8146697, "lon": 37.4344899}, {"type": "node", "id": 5176212415, "lat": 55.8148506, "lon": 37.4341787}, {"type": "node", "id": 5176212418, "lat": 55.8154496, "lon": 37.4343201}, {"type": "node", "id": 5176212419, "lat": 55.8178305, "lon": 37.434658}, {"type": "node", "id": 5176216123, "lat": 55.815308, "lon": 37.4341967}, {"type": "node", "id": 5176216124, "lat": 55.8183007, "lon": 37.435114}, {"type": "node", "id": 5176216128, "lat": 55.8179993, "lon": 37.4347761}, {"type": "node", "id": 5176322724, "lat": 55.7554694, "lon": 37.633085, "tags": {"layer": "-4", "location": "underground", "name": "\u041a\u0438\u0442\u0430\u0439-\u0433\u043e\u0440\u043e\u0434", "public_transport": "stop_position", "railway": "stop", "subway": "yes"}}, {"type": "node", "id": 5202107560, "lat": 55.8183044, "lon": 37.4357519, "tags": {"colour": "violet", "layer": "-2", "name": "\u0421\u043f\u0430\u0440\u0442\u0430\u043a", "name:en": "Spartak", "name:ru": "\u0421\u043f\u0430\u0440\u0442\u0430\u043a", "name:uk": "\u0421\u043f\u0430\u0440\u0442\u0430\u043a", "network": "\u041c\u043e\u0441\u043a\u043e\u0432\u0441\u043a\u0438\u0439 \u043c\u0435\u0442\u0440\u043e\u043f\u043e\u043b\u0438\u0442\u0435\u043d", "operator": "\u0413\u0423\u041f \u00ab\u041c\u043e\u0441\u043a\u043e\u0432\u0441\u043a\u0438\u0439 \u043c\u0435\u0442\u0440\u043e\u043f\u043e\u043b\u0438\u0442\u0435\u043d\u00bb", "public_transport": "station", "railway": "station", "station": "subway", "subway": "yes", "transport": "subway", "wikidata": "Q1406124", "wikipedia": "ru:\u0421\u043f\u0430\u0440\u0442\u0430\u043a (\u0441\u0442\u0430\u043d\u0446\u0438\u044f \u043c\u0435\u0442\u0440\u043e)"}}, {"type": "node", "id": 5202107561, "lat": 55.8183028, "lon": 37.4358557, "tags": {"layer": "-2", "name": "\u0421\u043f\u0430\u0440\u0442\u0430\u043a", "public_transport": "stop_position", "railway": "stop", "subway": "yes"}}, {"type": "node", "id": 5203259487, "lat": 55.7774156, "lon": 37.5149387}, {"type": "node", "id": 5203259488, "lat": 55.7773227, "lon": 37.514869}, {"type": "node", "id": 5255904281, "lat": 55.8173121, "lon": 37.4339463, "tags": {"colour": "violet", "network": "\u041c\u043e\u0441\u043a\u043e\u0432\u0441\u043a\u0438\u0439 \u043c\u0435\u0442\u0440\u043e\u043f\u043e\u043b\u0438\u0442\u0435\u043d", "operator": "\u0413\u0423\u041f \u00ab\u041c\u043e\u0441\u043a\u043e\u0432\u0441\u043a\u0438\u0439 \u043c\u0435\u0442\u0440\u043e\u043f\u043e\u043b\u0438\u0442\u0435\u043d\u00bb", "railway": "subway_entrance", "wheelchair": "yes"}}, {"type": "node", "id": 5257379048, "lat": 55.823711, "lon": 37.4353109}, {"type": "node", "id": 5257379052, "lat": 55.812757, "lon": 37.4201866}, {"type": "node", "id": 5257379054, "lat": 55.821967, "lon": 37.4348241}, {"type": "node", "id": 5257379056, "lat": 55.8232054, "lon": 37.4319193}, {"type": "node", "id": 5257379057, "lat": 55.8234405, "lon": 37.4315196}, {"type": "node", "id": 5257379058, "lat": 55.8223286, "lon": 37.434749}, {"type": "node", "id": 5257379059, "lat": 55.82241, "lon": 37.434985}, {"type": "node", "id": 5257379061, "lat": 55.8235686, "lon": 37.435036}, {"type": "node", "id": 5257379062, "lat": 55.823537, "lon": 37.4351084}, {"type": "node", "id": 5257379063, "lat": 55.8237637, "lon": 37.4349032}, {"type": "node", "id": 5333394935, "lat": 55.8153803, "lon": 37.4336557}, {"type": "node", "id": 5482486690, "lat": 55.8099423, "lon": 37.4616984}, {"type": "node", "id": 5643559119, "lat": 55.7261767, "lon": 37.6839958}, {"type": "node", "id": 6048405431, "lat": 55.8197504, "lon": 37.4281642}, {"type": "node", "id": 6048405432, "lat": 55.8228918, "lon": 37.4308767}, {"type": "node", "id": 6048405433, "lat": 55.8222649, "lon": 37.4332672}, {"type": "node", "id": 6048405434, "lat": 55.8225592, "lon": 37.431346}, {"type": "node", "id": 6048405437, "lat": 55.8221722, "lon": 37.4327327}, {"type": "node", "id": 6048405438, "lat": 55.8220309, "lon": 37.4326193}, {"type": "node", "id": 6048405439, "lat": 55.8220852, "lon": 37.4324043}, {"type": "node", "id": 6538128674, "lat": 55.7088212, "lon": 37.7289662}, {"type": "node", "id": 6538128675, "lat": 55.7089225, "lon": 37.7289581}, {"type": "node", "id": 6538128676, "lat": 55.7089085, "lon": 37.7292652}, {"type": "node", "id": 6538128677, "lat": 55.7087978, "lon": 37.729335}, {"type": "node", "id": 6538128678, "lat": 55.709088, "lon": 37.7272516}, {"type": "node", "id": 6538128679, "lat": 55.7092141, "lon": 37.7268077}, {"type": "node", "id": 6538128680, "lat": 55.7091711, "lon": 37.7272509}, {"type": "node", "id": 6538128681, "lat": 55.7092821, "lon": 37.7268137}, {"type": "node", "id": 6661042658, "lat": 55.8193052, "lon": 37.4268144}, {"type": "node", "id": 6661042659, "lat": 55.8195529, "lon": 37.4289111}, {"type": "node", "id": 6661042660, "lat": 55.8196585, "lon": 37.4290029}, {"type": "node", "id": 6661042661, "lat": 55.8197735, "lon": 37.4285842}, {"type": "node", "id": 6669858604, "lat": 55.8130035, "lon": 37.4224623}, {"type": "node", "id": 6669858605, "lat": 55.81354, "lon": 37.421173}, {"type": "node", "id": 6669858606, "lat": 55.8114941, "lon": 37.4236017}, {"type": "node", "id": 6669858607, "lat": 55.812262, "lon": 37.4244198}, {"type": "node", "id": 6669858608, "lat": 55.8128569, "lon": 37.4228211}, {"type": "node", "id": 6669858609, "lat": 55.8127194, "lon": 37.4226507}, {"type": "node", "id": 6669858610, "lat": 55.8128618, "lon": 37.4222868}, {"type": "node", "id": 6669858611, "lat": 55.8127481, "lon": 37.4231139}, {"type": "node", "id": 6937152866, "lat": 55.765343, "lon": 37.6073946, "tags": {"colour": "violet", "layer": "-4", "name": "\u041f\u0443\u0448\u043a\u0438\u043d\u0441\u043a\u0430\u044f", "name:be": "\u041f\u0443\u0448\u043ai\u043d\u0441\u043a\u0430\u044f", "name:de": "Puschkinskaja", "name:en": "Pushkinskaya", "name:ru": "\u041f\u0443\u0448\u043a\u0438\u043d\u0441\u043a\u0430\u044f", "name:uk": "\u041f\u0443\u0448\u043a\u0456\u043d\u0441\u044c\u043a\u0430", "network": "\u041c\u043e\u0441\u043a\u043e\u0432\u0441\u043a\u0438\u0439 \u043c\u0435\u0442\u0440\u043e\u043f\u043e\u043b\u0438\u0442\u0435\u043d", "operator": "\u0413\u0423\u041f \u00ab\u041c\u043e\u0441\u043a\u043e\u0432\u0441\u043a\u0438\u0439 \u043c\u0435\u0442\u0440\u043e\u043f\u043e\u043b\u0438\u0442\u0435\u043d\u00bb", "public_transport": "stop_position", "railway": "stop", "subway": "yes"}}, {"type": "node", "id": 6937152867, "lat": 55.76551, "lon": 37.607462, "tags": {"colour": "violet", "layer": "-4", "name": "\u041f\u0443\u0448\u043a\u0438\u043d\u0441\u043a\u0430\u044f", "name:be": "\u041f\u0443\u0448\u043ai\u043d\u0441\u043a\u0430\u044f", "name:de": "Puschkinskaja", "name:en": "Pushkinskaya", "name:ru": "\u041f\u0443\u0448\u043a\u0438\u043d\u0441\u043a\u0430\u044f", "name:uk": "\u041f\u0443\u0448\u043a\u0456\u043d\u0441\u044c\u043a\u0430", "network": "\u041c\u043e\u0441\u043a\u043e\u0432\u0441\u043a\u0438\u0439 \u043c\u0435\u0442\u0440\u043e\u043f\u043e\u043b\u0438\u0442\u0435\u043d", "operator": "\u0413\u0423\u041f \u00ab\u041c\u043e\u0441\u043a\u043e\u0432\u0441\u043a\u0438\u0439 \u043c\u0435\u0442\u0440\u043e\u043f\u043e\u043b\u0438\u0442\u0435\u043d\u00bb", "public_transport": "stop_position", "railway": "stop", "subway": "yes"}}, {"type": "node", "id": 6937381499, "lat": 55.7404132, "lon": 37.6517247, "tags": {"colour": "violet", "layer": "-4", "name": "\u0422\u0430\u0433\u0430\u043d\u0441\u043a\u0430\u044f", "name:be": "\u0422\u0430\u0433\u0430\u043d\u0441\u043a\u0430\u044f", "name:en": "Taganskaya", "name:ru": "\u0422\u0430\u0433\u0430\u043d\u0441\u043a\u0430\u044f", "name:uk": "\u0422\u0430\u0433\u0430\u043d\u0441\u044c\u043a\u0430", "network": "\u041c\u043e\u0441\u043a\u043e\u0432\u0441\u043a\u0438\u0439 \u043c\u0435\u0442\u0440\u043e\u043f\u043e\u043b\u0438\u0442\u0435\u043d", "operator": "\u0413\u0423\u041f \u00ab\u041c\u043e\u0441\u043a\u043e\u0432\u0441\u043a\u0438\u0439 \u043c\u0435\u0442\u0440\u043e\u043f\u043e\u043b\u0438\u0442\u0435\u043d\u00bb", "public_transport": "stop_position", "railway": "stop", "subway": "yes"}}, {"type": "node", "id": 6937381500, "lat": 55.7405225, "lon": 37.6520806, "tags": {"colour": "violet", "layer": "-4", "name": "\u0422\u0430\u0433\u0430\u043d\u0441\u043a\u0430\u044f", "name:be": "\u0422\u0430\u0433\u0430\u043d\u0441\u043a\u0430\u044f", "name:en": "Taganskaya", "name:ru": "\u0422\u0430\u0433\u0430\u043d\u0441\u043a\u0430\u044f", "name:uk": "\u0422\u0430\u0433\u0430\u043d\u0441\u044c\u043a\u0430", "network": "\u041c\u043e\u0441\u043a\u043e\u0432\u0441\u043a\u0438\u0439 \u043c\u0435\u0442\u0440\u043e\u043f\u043e\u043b\u0438\u0442\u0435\u043d", "operator": "\u0413\u0423\u041f \u00ab\u041c\u043e\u0441\u043a\u043e\u0432\u0441\u043a\u0438\u0439 \u043c\u0435\u0442\u0440\u043e\u043f\u043e\u043b\u0438\u0442\u0435\u043d\u00bb", "public_transport": "stop_position", "railway": "stop", "subway": "yes"}}, {"type": "node", "id": 6937856042, "lat": 55.7317992, "lon": 37.6658705, "tags": {"colour": "violet", "layer": "-2", "name": "\u041f\u0440\u043e\u043b\u0435\u0442\u0430\u0440\u0441\u043a\u0430\u044f", "name:be": "\u041f\u0440\u0430\u043b\u0435\u0442\u0430\u0440\u0441\u043a\u0430\u044f", "name:en": "Proletarskaya", "name:ru": "\u041f\u0440\u043e\u043b\u0435\u0442\u0430\u0440\u0441\u043a\u0430\u044f", "name:uk": "\u041f\u0440\u043e\u043b\u0435\u0442\u0430\u0440\u0441\u044c\u043a\u0430", "network": "\u041c\u043e\u0441\u043a\u043e\u0432\u0441\u043a\u0438\u0439 \u043c\u0435\u0442\u0440\u043e\u043f\u043e\u043b\u0438\u0442\u0435\u043d", "operator": "\u0413\u0423\u041f \u00ab\u041c\u043e\u0441\u043a\u043e\u0432\u0441\u043a\u0438\u0439 \u043c\u0435\u0442\u0440\u043e\u043f\u043e\u043b\u0438\u0442\u0435\u043d\u00bb", "public_transport": "stop_position", "railway": "stop", "subway": "yes"}}, {"type": "node", "id": 6937856043, "lat": 55.7319149, "lon": 37.6658738, "tags": {"colour": "violet", "layer": "-2", "name": "\u041f\u0440\u043e\u043b\u0435\u0442\u0430\u0440\u0441\u043a\u0430\u044f", "name:be": "\u041f\u0440\u0430\u043b\u0435\u0442\u0430\u0440\u0441\u043a\u0430\u044f", "name:en": "Proletarskaya", "name:ru": "\u041f\u0440\u043e\u043b\u0435\u0442\u0430\u0440\u0441\u043a\u0430\u044f", "name:uk": "\u041f\u0440\u043e\u043b\u0435\u0442\u0430\u0440\u0441\u044c\u043a\u0430", "network": "\u041c\u043e\u0441\u043a\u043e\u0432\u0441\u043a\u0438\u0439 \u043c\u0435\u0442\u0440\u043e\u043f\u043e\u043b\u0438\u0442\u0435\u043d", "operator": "\u0413\u0423\u041f \u00ab\u041c\u043e\u0441\u043a\u043e\u0432\u0441\u043a\u0438\u0439 \u043c\u0435\u0442\u0440\u043e\u043f\u043e\u043b\u0438\u0442\u0435\u043d\u00bb", "public_transport": "stop_position", "railway": "stop", "subway": "yes"}}, {"type": "node", "id": 6938090616, "lat": 55.7607085, "lon": 37.6260534, "tags": {"alt_name:uk": "\u041a\u043e\u0432\u0430\u043b\u044c\u0441\u044c\u043a\u0438\u0439 \u043c\u0456\u0441\u0442", "colour": "violet", "layer": "-5", "name": "\u041a\u0443\u0437\u043d\u0435\u0446\u043a\u0438\u0439 \u041c\u043e\u0441\u0442", "name:be": "\u041a\u0443\u0437\u043d\u0435\u0446\u043a\u0456 \u043c\u043e\u0441\u0442", "name:de": "Kusnezk-Br\u00fccke", "name:en": "Kuznetsky Most", "name:ru": "\u041a\u0443\u0437\u043d\u0435\u0446\u043a\u0438\u0439 \u041c\u043e\u0441\u0442", "name:uk": "\u041a\u0443\u0437\u043d\u0435\u0446\u044c\u043a\u0438\u0439 \u043c\u0456\u0441\u0442", "network": "\u041c\u043e\u0441\u043a\u043e\u0432\u0441\u043a\u0438\u0439 \u043c\u0435\u0442\u0440\u043e\u043f\u043e\u043b\u0438\u0442\u0435\u043d", "operator": "\u0413\u0423\u041f \u00ab\u041c\u043e\u0441\u043a\u043e\u0432\u0441\u043a\u0438\u0439 \u043c\u0435\u0442\u0440\u043e\u043f\u043e\u043b\u0438\u0442\u0435\u043d\u00bb", "public_transport": "stop_position", "railway": "stop", "subway": "yes"}}, {"type": "node", "id": 6938090617, "lat": 55.7608298, "lon": 37.626269, "tags": {"alt_name:uk": "\u041a\u043e\u0432\u0430\u043b\u044c\u0441\u044c\u043a\u0438\u0439 \u043c\u0456\u0441\u0442", "colour": "violet", "layer": "-5", "name": "\u041a\u0443\u0437\u043d\u0435\u0446\u043a\u0438\u0439 \u041c\u043e\u0441\u0442", "name:be": "\u041a\u0443\u0437\u043d\u0435\u0446\u043a\u0456 \u043c\u043e\u0441\u0442", "name:de": "Kusnezk-Br\u00fccke", "name:en": "Kuznetsky Most", "name:ru": "\u041a\u0443\u0437\u043d\u0435\u0446\u043a\u0438\u0439 \u041c\u043e\u0441\u0442", "name:uk": "\u041a\u0443\u0437\u043d\u0435\u0446\u044c\u043a\u0438\u0439 \u043c\u0456\u0441\u0442", "network": "\u041c\u043e\u0441\u043a\u043e\u0432\u0441\u043a\u0438\u0439 \u043c\u0435\u0442\u0440\u043e\u043f\u043e\u043b\u0438\u0442\u0435\u043d", "operator": "\u0413\u0423\u041f \u00ab\u041c\u043e\u0441\u043a\u043e\u0432\u0441\u043a\u0438\u0439 \u043c\u0435\u0442\u0440\u043e\u043f\u043e\u043b\u0438\u0442\u0435\u043d\u00bb", "public_transport": "stop_position", "railway": "stop", "subway": "yes"}}, {"type": "node", "id": 6939552998, "lat": 55.8606462, "lon": 37.43642, "tags": {"colour": "violet", "layer": "-2", "name": "\u041f\u043b\u0430\u043d\u0435\u0440\u043d\u0430\u044f", "name:be": "\u041f\u043b\u0430\u043d\u0435\u0440\u043d\u0430\u044f", "name:en": "Planernaya", "name:ru": "\u041f\u043b\u0430\u043d\u0435\u0440\u043d\u0430\u044f", "name:uk": "\u041f\u043b\u0430\u043d\u0435\u0440\u043d\u0430", "network": "\u041c\u043e\u0441\u043a\u043e\u0432\u0441\u043a\u0438\u0439 \u043c\u0435\u0442\u0440\u043e\u043f\u043e\u043b\u0438\u0442\u0435\u043d", "operator": "\u0413\u0423\u041f \u00ab\u041c\u043e\u0441\u043a\u043e\u0432\u0441\u043a\u0438\u0439 \u043c\u0435\u0442\u0440\u043e\u043f\u043e\u043b\u0438\u0442\u0435\u043d\u00bb", "public_transport": "stop_position", "railway": "stop", "subway": "yes"}}, {"type": "node", "id": 6939552999, "lat": 55.8606642, "lon": 37.4366265, "tags": {"colour": "violet", "layer": "-2", "name": "\u041f\u043b\u0430\u043d\u0435\u0440\u043d\u0430\u044f", "name:be": "\u041f\u043b\u0430\u043d\u0435\u0440\u043d\u0430\u044f", "name:en": "Planernaya", "name:ru": "\u041f\u043b\u0430\u043d\u0435\u0440\u043d\u0430\u044f", "name:uk": "\u041f\u043b\u0430\u043d\u0435\u0440\u043d\u0430", "network": "\u041c\u043e\u0441\u043a\u043e\u0432\u0441\u043a\u0438\u0439 \u043c\u0435\u0442\u0440\u043e\u043f\u043e\u043b\u0438\u0442\u0435\u043d", "operator": "\u0413\u0423\u041f \u00ab\u041c\u043e\u0441\u043a\u043e\u0432\u0441\u043a\u0438\u0439 \u043c\u0435\u0442\u0440\u043e\u043f\u043e\u043b\u0438\u0442\u0435\u043d\u00bb", "public_transport": "stop_position", "railway": "stop", "subway": "yes"}}, {"type": "node", "id": 6939553000, "lat": 55.8504814, "lon": 37.4396702, "tags": {"colour": "violet", "layer": "-2", "name": "\u0421\u0445\u043e\u0434\u043d\u0435\u043d\u0441\u043a\u0430\u044f", "name:be": "\u0421\u0445\u043e\u0434\u043d\u0435\u043d\u0441\u043a\u0430\u044f", "name:en": "Skhodnenskaya", "name:ru": "\u0421\u0445\u043e\u0434\u043d\u0435\u043d\u0441\u043a\u0430\u044f", "name:uk": "\u0421\u0445\u043e\u0434\u043d\u0435\u043d\u0441\u044c\u043a\u0430", "network": "\u041c\u043e\u0441\u043a\u043e\u0432\u0441\u043a\u0438\u0439 \u043c\u0435\u0442\u0440\u043e\u043f\u043e\u043b\u0438\u0442\u0435\u043d", "operator": "\u0413\u0423\u041f \u00ab\u041c\u043e\u0441\u043a\u043e\u0432\u0441\u043a\u0438\u0439 \u043c\u0435\u0442\u0440\u043e\u043f\u043e\u043b\u0438\u0442\u0435\u043d\u00bb", "public_transport": "stop_position", "railway": "stop", "subway": "yes"}}, {"type": "node", "id": 6939553001, "lat": 55.8504892, "lon": 37.4398794, "tags": {"colour": "violet", "layer": "-2", "name": "\u0421\u0445\u043e\u0434\u043d\u0435\u043d\u0441\u043a\u0430\u044f", "name:be": "\u0421\u0445\u043e\u0434\u043d\u0435\u043d\u0441\u043a\u0430\u044f", "name:en": "Skhodnenskaya", "name:ru": "\u0421\u0445\u043e\u0434\u043d\u0435\u043d\u0441\u043a\u0430\u044f", "name:uk": "\u0421\u0445\u043e\u0434\u043d\u0435\u043d\u0441\u044c\u043a\u0430", "network": "\u041c\u043e\u0441\u043a\u043e\u0432\u0441\u043a\u0438\u0439 \u043c\u0435\u0442\u0440\u043e\u043f\u043e\u043b\u0438\u0442\u0435\u043d", "operator": "\u0413\u0423\u041f \u00ab\u041c\u043e\u0441\u043a\u043e\u0432\u0441\u043a\u0438\u0439 \u043c\u0435\u0442\u0440\u043e\u043f\u043e\u043b\u0438\u0442\u0435\u043d\u00bb", "public_transport": "stop_position", "railway": "stop", "subway": "yes"}}, {"type": "node", "id": 6939553002, "lat": 55.8265404, "lon": 37.4368643, "tags": {"colour": "violet", "layer": "-3", "name": "\u0422\u0443\u0448\u0438\u043d\u0441\u043a\u0430\u044f", "name:be": "\u0422\u0443\u0448\u044b\u043d\u0441\u043a\u0430\u044f", "name:en": "Tushinskaya", "name:ru": "\u0422\u0443\u0448\u0438\u043d\u0441\u043a\u0430\u044f", "name:uk": "\u0422\u0443\u0448\u0438\u043d\u0441\u044c\u043a\u0430", "network": "\u041c\u043e\u0441\u043a\u043e\u0432\u0441\u043a\u0438\u0439 \u043c\u0435\u0442\u0440\u043e\u043f\u043e\u043b\u0438\u0442\u0435\u043d", "operator": "\u0413\u0423\u041f \u00ab\u041c\u043e\u0441\u043a\u043e\u0432\u0441\u043a\u0438\u0439 \u043c\u0435\u0442\u0440\u043e\u043f\u043e\u043b\u0438\u0442\u0435\u043d\u00bb", "public_transport": "stop_position", "railway": "stop", "subway": "yes"}}, {"type": "node", "id": 6939553003, "lat": 55.8265216, "lon": 37.4370858, "tags": {"colour": "violet", "layer": "-3", "name": "\u0422\u0443\u0448\u0438\u043d\u0441\u043a\u0430\u044f", "name:be": "\u0422\u0443\u0448\u044b\u043d\u0441\u043a\u0430\u044f", "name:en": "Tushinskaya", "name:ru": "\u0422\u0443\u0448\u0438\u043d\u0441\u043a\u0430\u044f", "name:uk": "\u0422\u0443\u0448\u0438\u043d\u0441\u044c\u043a\u0430", "network": "\u041c\u043e\u0441\u043a\u043e\u0432\u0441\u043a\u0438\u0439 \u043c\u0435\u0442\u0440\u043e\u043f\u043e\u043b\u0438\u0442\u0435\u043d", "operator": "\u0413\u0423\u041f \u00ab\u041c\u043e\u0441\u043a\u043e\u0432\u0441\u043a\u0438\u0439 \u043c\u0435\u0442\u0440\u043e\u043f\u043e\u043b\u0438\u0442\u0435\u043d\u00bb", "public_transport": "stop_position", "railway": "stop", "subway": "yes"}}, {"type": "node", "id": 6939553004, "lat": 55.808428, "lon": 37.4646467, "tags": {"alt_name:en": "Schukinskaya", "colour": "violet", "layer": "-2", "name": "\u0429\u0443\u043a\u0438\u043d\u0441\u043a\u0430\u044f", "name:be": "\u0428\u0447\u0443\u043a\u0456\u043d\u0441\u043a\u0430\u044f", "name:cs": "\u0160\u010dukinskaja", "name:en": "Shchukinskaya", "name:it": "\u0160\u010dukinskaja", "name:pl": "Szczukinskaja", "name:pt": "Esta\u00e7\u00e3o Shchiukinskaia", "name:ru": "\u0429\u0443\u043a\u0438\u043d\u0441\u043a\u0430\u044f", "name:uk": "\u0429\u0443\u043a\u0456\u043d\u0441\u044c\u043a\u0430", "network": "\u041c\u043e\u0441\u043a\u043e\u0432\u0441\u043a\u0438\u0439 \u043c\u0435\u0442\u0440\u043e\u043f\u043e\u043b\u0438\u0442\u0435\u043d", "operator": "\u0413\u0423\u041f \u00ab\u041c\u043e\u0441\u043a\u043e\u0432\u0441\u043a\u0438\u0439 \u043c\u0435\u0442\u0440\u043e\u043f\u043e\u043b\u0438\u0442\u0435\u043d\u00bb", "public_transport": "stop_position", "railway": "stop", "subway": "yes"}}, {"type": "node", "id": 6939553005, "lat": 55.8085056, "lon": 37.4647692, "tags": {"alt_name:en": "Schukinskaya", "colour": "violet", "layer": "-2", "name": "\u0429\u0443\u043a\u0438\u043d\u0441\u043a\u0430\u044f", "name:be": "\u0428\u0447\u0443\u043a\u0456\u043d\u0441\u043a\u0430\u044f", "name:cs": "\u0160\u010dukinskaja", "name:en": "Shchukinskaya", "name:it": "\u0160\u010dukinskaja", "name:pl": "Szczukinskaja", "name:pt": "Esta\u00e7\u00e3o Shchiukinskaia", "name:ru": "\u0429\u0443\u043a\u0438\u043d\u0441\u043a\u0430\u044f", "name:uk": "\u0429\u0443\u043a\u0456\u043d\u0441\u044c\u043a\u0430", "network": "\u041c\u043e\u0441\u043a\u043e\u0432\u0441\u043a\u0438\u0439 \u043c\u0435\u0442\u0440\u043e\u043f\u043e\u043b\u0438\u0442\u0435\u043d", "operator": "\u0413\u0423\u041f \u00ab\u041c\u043e\u0441\u043a\u043e\u0432\u0441\u043a\u0438\u0439 \u043c\u0435\u0442\u0440\u043e\u043f\u043e\u043b\u0438\u0442\u0435\u043d\u00bb", "public_transport": "stop_position", "railway": "stop", "subway": "yes"}}, {"type": "node", "id": 6939553006, "lat": 55.793334, "lon": 37.4937642, "tags": {"colour": "violet", "layer": "-2", "name": "\u041e\u043a\u0442\u044f\u0431\u0440\u044c\u0441\u043a\u043e\u0435 \u041f\u043e\u043b\u0435", "name:be": "\u041a\u0430\u0441\u0442\u0440\u044b\u0447\u043d\u0456\u0446\u043a\u0430\u0435 \u043f\u043e\u043b\u0435", "name:en": "Oktyabrskoye Pole", "name:ru": "\u041e\u043a\u0442\u044f\u0431\u0440\u044c\u0441\u043a\u043e\u0435 \u041f\u043e\u043b\u0435", "name:uk": "\u0416\u043e\u0432\u0442\u043d\u0435\u0432\u0435 \u043f\u043e\u043b\u0435", "network": "\u041c\u043e\u0441\u043a\u043e\u0432\u0441\u043a\u0438\u0439 \u043c\u0435\u0442\u0440\u043e\u043f\u043e\u043b\u0438\u0442\u0435\u043d", "operator": "\u0413\u0423\u041f \u00ab\u041c\u043e\u0441\u043a\u043e\u0432\u0441\u043a\u0438\u0439 \u043c\u0435\u0442\u0440\u043e\u043f\u043e\u043b\u0438\u0442\u0435\u043d\u00bb", "public_transport": "stop_position", "railway": "stop", "subway": "yes"}}, {"type": "node", "id": 6939553007, "lat": 55.7775076, "lon": 37.5192904, "tags": {"colour": "violet", "layer": "-2", "name": "\u041f\u043e\u043b\u0435\u0436\u0430\u0435\u0432\u0441\u043a\u0430\u044f", "name:be": "\u041f\u0430\u043b\u0435\u0436\u0430\u0435\u045e\u0441\u043a\u0430\u044f", "name:en": "Polezhayevskaya", "name:ru": "\u041f\u043e\u043b\u0435\u0436\u0430\u0435\u0432\u0441\u043a\u0430\u044f", "name:uk": "\u041f\u043e\u043b\u0435\u0436\u0430\u0454\u0432\u0441\u044c\u043a\u0430", "network": "\u041c\u043e\u0441\u043a\u043e\u0432\u0441\u043a\u0438\u0439 \u043c\u0435\u0442\u0440\u043e\u043f\u043e\u043b\u0438\u0442\u0435\u043d", "operator": "\u0413\u0423\u041f \u00ab\u041c\u043e\u0441\u043a\u043e\u0432\u0441\u043a\u0438\u0439 \u043c\u0435\u0442\u0440\u043e\u043f\u043e\u043b\u0438\u0442\u0435\u043d\u00bb", "public_transport": "stop_position", "railway": "stop", "subway": "yes"}}, {"type": "node", "id": 6939553008, "lat": 55.7776033, "lon": 37.5192547, "tags": {"colour": "violet", "layer": "-2", "name": "\u041f\u043e\u043b\u0435\u0436\u0430\u0435\u0432\u0441\u043a\u0430\u044f", "name:be": "\u041f\u0430\u043b\u0435\u0436\u0430\u0435\u045e\u0441\u043a\u0430\u044f", "name:en": "Polezhayevskaya", "name:ru": "\u041f\u043e\u043b\u0435\u0436\u0430\u0435\u0432\u0441\u043a\u0430\u044f", "name:uk": "\u041f\u043e\u043b\u0435\u0436\u0430\u0454\u0432\u0441\u044c\u043a\u0430", "network": "\u041c\u043e\u0441\u043a\u043e\u0432\u0441\u043a\u0438\u0439 \u043c\u0435\u0442\u0440\u043e\u043f\u043e\u043b\u0438\u0442\u0435\u043d", "operator": "\u0413\u0423\u041f \u00ab\u041c\u043e\u0441\u043a\u043e\u0432\u0441\u043a\u0438\u0439 \u043c\u0435\u0442\u0440\u043e\u043f\u043e\u043b\u0438\u0442\u0435\u043d\u00bb", "public_transport": "stop_position", "railway": "stop", "subway": "yes"}}, {"type": "node", "id": 6939553010, "lat": 55.7736576, "lon": 37.5466477, "tags": {"colour": "violet", "layer": "-2", "name": "\u0411\u0435\u0433\u043e\u0432\u0430\u044f", "name:be": "\u0411\u0435\u0433\u0430\u0432\u0430\u044f", "name:en": "Begovaya", "name:ru": "\u0411\u0435\u0433\u043e\u0432\u0430\u044f", "name:uk": "\u0411\u0456\u0433\u043e\u0432\u0430", "network": "\u041c\u043e\u0441\u043a\u043e\u0432\u0441\u043a\u0438\u0439 \u043c\u0435\u0442\u0440\u043e\u043f\u043e\u043b\u0438\u0442\u0435\u043d", "operator": "\u0413\u0423\u041f \u00ab\u041c\u043e\u0441\u043a\u043e\u0432\u0441\u043a\u0438\u0439 \u043c\u0435\u0442\u0440\u043e\u043f\u043e\u043b\u0438\u0442\u0435\u043d\u00bb", "public_transport": "stop_position", "railway": "stop", "subway": "yes"}}, {"type": "node", "id": 6939553011, "lat": 55.7737729, "lon": 37.5466664, "tags": {"colour": "violet", "layer": "-2", "name": "\u0411\u0435\u0433\u043e\u0432\u0430\u044f", "name:be": "\u0411\u0435\u0433\u0430\u0432\u0430\u044f", "name:en": "Begovaya", "name:ru": "\u0411\u0435\u0433\u043e\u0432\u0430\u044f", "name:uk": "\u0411\u0456\u0433\u043e\u0432\u0430", "network": "\u041c\u043e\u0441\u043a\u043e\u0432\u0441\u043a\u0438\u0439 \u043c\u0435\u0442\u0440\u043e\u043f\u043e\u043b\u0438\u0442\u0435\u043d", "operator": "\u0413\u0423\u041f \u00ab\u041c\u043e\u0441\u043a\u043e\u0432\u0441\u043a\u0438\u0439 \u043c\u0435\u0442\u0440\u043e\u043f\u043e\u043b\u0438\u0442\u0435\u043d\u00bb", "public_transport": "stop_position", "railway": "stop", "subway": "yes"}}, {"type": "node", "id": 6939553012, "lat": 55.7647826, "lon": 37.5612832, "tags": {"colour": "violet", "layer": "-2", "name": "\u0423\u043b\u0438\u0446\u0430 1905 \u0433\u043e\u0434\u0430", "name:be": "\u0412\u0443\u043b\u0456\u0446\u0430 1905 \u0433\u043e\u0434\u0430", "name:en": "Ulitsa 1905 Goda", "name:ru": "\u0423\u043b\u0438\u0446\u0430 1905 \u0433\u043e\u0434\u0430", "name:uk": "\u0412\u0443\u043b\u0438\u0446\u044f 1905 \u0440\u043e\u043a\u0443", "network": "\u041c\u043e\u0441\u043a\u043e\u0432\u0441\u043a\u0438\u0439 \u043c\u0435\u0442\u0440\u043e\u043f\u043e\u043b\u0438\u0442\u0435\u043d", "operator": "\u0413\u0423\u041f \u00ab\u041c\u043e\u0441\u043a\u043e\u0432\u0441\u043a\u0438\u0439 \u043c\u0435\u0442\u0440\u043e\u043f\u043e\u043b\u0438\u0442\u0435\u043d\u00bb", "public_transport": "stop_position", "railway": "stop", "subway": "yes"}}, {"type": "node", "id": 6939553013, "lat": 55.7648465, "lon": 37.5614576, "tags": {"colour": "violet", "layer": "-2", "name": "\u0423\u043b\u0438\u0446\u0430 1905 \u0433\u043e\u0434\u0430", "name:be": "\u0412\u0443\u043b\u0456\u0446\u0430 1905 \u0433\u043e\u0434\u0430", "name:en": "Ulitsa 1905 Goda", "name:ru": "\u0423\u043b\u0438\u0446\u0430 1905 \u0433\u043e\u0434\u0430", "name:uk": "\u0412\u0443\u043b\u0438\u0446\u044f 1905 \u0440\u043e\u043a\u0443", "network": "\u041c\u043e\u0441\u043a\u043e\u0432\u0441\u043a\u0438\u0439 \u043c\u0435\u0442\u0440\u043e\u043f\u043e\u043b\u0438\u0442\u0435\u043d", "operator": "\u0413\u0423\u041f \u00ab\u041c\u043e\u0441\u043a\u043e\u0432\u0441\u043a\u0438\u0439 \u043c\u0435\u0442\u0440\u043e\u043f\u043e\u043b\u0438\u0442\u0435\u043d\u00bb", "public_transport": "stop_position", "railway": "stop", "subway": "yes"}}, {"type": "node", "id": 6939553014, "lat": 55.760908, "lon": 37.5799468, "tags": {"colour": "violet", "layer": "-4", "name": "\u0411\u0430\u0440\u0440\u0438\u043a\u0430\u0434\u043d\u0430\u044f", "name:be": "\u0411\u0430\u0440\u044b\u043a\u0430\u0434\u043d\u0430\u044f", "name:en": "Barrikadnaya", "name:ru": "\u0411\u0430\u0440\u0440\u0438\u043a\u0430\u0434\u043d\u0430\u044f", "name:uk": "\u0411\u0430\u0440\u0438\u043a\u0430\u0434\u043d\u0430", "network": "\u041c\u043e\u0441\u043a\u043e\u0432\u0441\u043a\u0438\u0439 \u043c\u0435\u0442\u0440\u043e\u043f\u043e\u043b\u0438\u0442\u0435\u043d", "operator": "\u0413\u0423\u041f \u00ab\u041c\u043e\u0441\u043a\u043e\u0432\u0441\u043a\u0438\u0439 \u043c\u0435\u0442\u0440\u043e\u043f\u043e\u043b\u0438\u0442\u0435\u043d\u00bb", "public_transport": "stop_position", "railway": "stop", "subway": "yes"}}, {"type": "node", "id": 6939553015, "lat": 55.7613278, "lon": 37.5786921, "tags": {"colour": "violet", "layer": "-4", "name": "\u0411\u0430\u0440\u0440\u0438\u043a\u0430\u0434\u043d\u0430\u044f", "name:be": "\u0411\u0430\u0440\u044b\u043a\u0430\u0434\u043d\u0430\u044f", "name:en": "Barrikadnaya", "name:ru": "\u0411\u0430\u0440\u0440\u0438\u043a\u0430\u0434\u043d\u0430\u044f", "name:uk": "\u0411\u0430\u0440\u0438\u043a\u0430\u0434\u043d\u0430", "network": "\u041c\u043e\u0441\u043a\u043e\u0432\u0441\u043a\u0438\u0439 \u043c\u0435\u0442\u0440\u043e\u043f\u043e\u043b\u0438\u0442\u0435\u043d", "operator": "\u0413\u0423\u041f \u00ab\u041c\u043e\u0441\u043a\u043e\u0432\u0441\u043a\u0438\u0439 \u043c\u0435\u0442\u0440\u043e\u043f\u043e\u043b\u0438\u0442\u0435\u043d\u00bb", "public_transport": "stop_position", "railway": "stop", "subway": "yes"}}, {"type": "node", "id": 6939553016, "lat": 55.7251988, "lon": 37.6868418, "tags": {"colour": "violet", "layer": "-2", "name": "\u0412\u043e\u043b\u0433\u043e\u0433\u0440\u0430\u0434\u0441\u043a\u0438\u0439 \u043f\u0440\u043e\u0441\u043f\u0435\u043a\u0442", "name:be": "\u0412\u0430\u043b\u0433\u0430\u0433\u0440\u0430\u0434\u0441\u043a\u0456 \u043f\u0440\u0430\u0441\u043f\u0435\u043a\u0442", "name:en": "Volgogradsky Prospekt", "name:ru": "\u0412\u043e\u043b\u0433\u043e\u0433\u0440\u0430\u0434\u0441\u043a\u0438\u0439 \u043f\u0440\u043e\u0441\u043f\u0435\u043a\u0442", "name:uk": "\u0412\u043e\u043b\u0433\u043e\u0433\u0440\u0430\u0434\u0441\u044c\u043a\u0438\u0439 \u043f\u0440\u043e\u0441\u043f\u0435\u043a\u0442", "network": "\u041c\u043e\u0441\u043a\u043e\u0432\u0441\u043a\u0438\u0439 \u043c\u0435\u0442\u0440\u043e\u043f\u043e\u043b\u0438\u0442\u0435\u043d", "operator": "\u0413\u0423\u041f \u00ab\u041c\u043e\u0441\u043a\u043e\u0432\u0441\u043a\u0438\u0439 \u043c\u0435\u0442\u0440\u043e\u043f\u043e\u043b\u0438\u0442\u0435\u043d\u00bb", "public_transport": "stop_position", "railway": "stop", "subway": "yes"}}, {"type": "node", "id": 6939553017, "lat": 55.7252832, "lon": 37.6869238, "tags": {"colour": "violet", "layer": "-2", "name": "\u0412\u043e\u043b\u0433\u043e\u0433\u0440\u0430\u0434\u0441\u043a\u0438\u0439 \u043f\u0440\u043e\u0441\u043f\u0435\u043a\u0442", "name:be": "\u0412\u0430\u043b\u0433\u0430\u0433\u0440\u0430\u0434\u0441\u043a\u0456 \u043f\u0440\u0430\u0441\u043f\u0435\u043a\u0442", "name:en": "Volgogradsky Prospekt", "name:ru": "\u0412\u043e\u043b\u0433\u043e\u0433\u0440\u0430\u0434\u0441\u043a\u0438\u0439 \u043f\u0440\u043e\u0441\u043f\u0435\u043a\u0442", "name:uk": "\u0412\u043e\u043b\u0433\u043e\u0433\u0440\u0430\u0434\u0441\u044c\u043a\u0438\u0439 \u043f\u0440\u043e\u0441\u043f\u0435\u043a\u0442", "network": "\u041c\u043e\u0441\u043a\u043e\u0432\u0441\u043a\u0438\u0439 \u043c\u0435\u0442\u0440\u043e\u043f\u043e\u043b\u0438\u0442\u0435\u043d", "operator": "\u0413\u0423\u041f \u00ab\u041c\u043e\u0441\u043a\u043e\u0432\u0441\u043a\u0438\u0439 \u043c\u0435\u0442\u0440\u043e\u043f\u043e\u043b\u0438\u0442\u0435\u043d\u00bb", "public_transport": "stop_position", "railway": "stop", "subway": "yes"}}, {"type": "node", "id": 6939553018, "lat": 55.7087558, "lon": 37.731499, "tags": {"alt_name:en": "Tekstilschiki", "alt_name:uk": "\u0422\u0435\u043a\u0441\u0442\u0438\u043b\u044c\u043d\u0438\u043a\u0438", "colour": "violet", "layer": "-2", "name": "\u0422\u0435\u043a\u0441\u0442\u0438\u043b\u044c\u0449\u0438\u043a\u0438", "name:be": "\u0422\u044d\u043a\u0441\u0442\u044b\u043b\u044c\u0448\u0447\u044b\u043a\u0456", "name:en": "Tekstilshchiki", "name:ru": "\u0422\u0435\u043a\u0441\u0442\u0438\u043b\u044c\u0449\u0438\u043a\u0438", "name:uk": "\u0422\u0435\u043a\u0441\u0442\u0438\u043b\u044c\u0449\u0438\u043a\u0438", "network": "\u041c\u043e\u0441\u043a\u043e\u0432\u0441\u043a\u0438\u0439 \u043c\u0435\u0442\u0440\u043e\u043f\u043e\u043b\u0438\u0442\u0435\u043d", "operator": "\u0413\u0423\u041f \u00ab\u041c\u043e\u0441\u043a\u043e\u0432\u0441\u043a\u0438\u0439 \u043c\u0435\u0442\u0440\u043e\u043f\u043e\u043b\u0438\u0442\u0435\u043d\u00bb", "public_transport": "stop_position", "railway": "stop", "subway": "yes"}}, {"type": "node", "id": 6939553019, "lat": 55.7088715, "lon": 37.7315049, "tags": {"alt_name:en": "Tekstilschiki", "alt_name:uk": "\u0422\u0435\u043a\u0441\u0442\u0438\u043b\u044c\u043d\u0438\u043a\u0438", "colour": "violet", "layer": "-2", "name": "\u0422\u0435\u043a\u0441\u0442\u0438\u043b\u044c\u0449\u0438\u043a\u0438", "name:be": "\u0422\u044d\u043a\u0441\u0442\u044b\u043b\u044c\u0448\u0447\u044b\u043a\u0456", "name:en": "Tekstilshchiki", "name:ru": "\u0422\u0435\u043a\u0441\u0442\u0438\u043b\u044c\u0449\u0438\u043a\u0438", "name:uk": "\u0422\u0435\u043a\u0441\u0442\u0438\u043b\u044c\u0449\u0438\u043a\u0438", "network": "\u041c\u043e\u0441\u043a\u043e\u0432\u0441\u043a\u0438\u0439 \u043c\u0435\u0442\u0440\u043e\u043f\u043e\u043b\u0438\u0442\u0435\u043d", "operator": "\u0413\u0423\u041f \u00ab\u041c\u043e\u0441\u043a\u043e\u0432\u0441\u043a\u0438\u0439 \u043c\u0435\u0442\u0440\u043e\u043f\u043e\u043b\u0438\u0442\u0435\u043d\u00bb", "public_transport": "stop_position", "railway": "stop", "subway": "yes"}}, {"type": "node", "id": 6939553020, "lat": 55.7055591, "lon": 37.7657559, "tags": {"colour": "violet", "layer": "-2", "name": "\u041a\u0443\u0437\u044c\u043c\u0438\u043d\u043a\u0438", "name:be": "\u041a\u0443\u0437\u044c\u043c\u0456\u043d\u043a\u0456", "name:en": "Kuzminki", "name:ru": "\u041a\u0443\u0437\u044c\u043c\u0438\u043d\u043a\u0438", "name:uk": "\u041a\u0443\u0437\u044c\u043c\u0456\u043d\u043a\u0438", "network": "\u041c\u043e\u0441\u043a\u043e\u0432\u0441\u043a\u0438\u0439 \u043c\u0435\u0442\u0440\u043e\u043f\u043e\u043b\u0438\u0442\u0435\u043d", "operator": "\u0413\u0423\u041f \u00ab\u041c\u043e\u0441\u043a\u043e\u0432\u0441\u043a\u0438\u0439 \u043c\u0435\u0442\u0440\u043e\u043f\u043e\u043b\u0438\u0442\u0435\u043d\u00bb", "public_transport": "stop_position", "railway": "stop", "subway": "yes"}}, {"type": "node", "id": 6939553021, "lat": 55.7056605, "lon": 37.7658078, "tags": {"colour": "violet", "layer": "-2", "name": "\u041a\u0443\u0437\u044c\u043c\u0438\u043d\u043a\u0438", "name:be": "\u041a\u0443\u0437\u044c\u043c\u0456\u043d\u043a\u0456", "name:en": "Kuzminki", "name:ru": "\u041a\u0443\u0437\u044c\u043c\u0438\u043d\u043a\u0438", "name:uk": "\u041a\u0443\u0437\u044c\u043c\u0456\u043d\u043a\u0438", "network": "\u041c\u043e\u0441\u043a\u043e\u0432\u0441\u043a\u0438\u0439 \u043c\u0435\u0442\u0440\u043e\u043f\u043e\u043b\u0438\u0442\u0435\u043d", "operator": "\u0413\u0423\u041f \u00ab\u041c\u043e\u0441\u043a\u043e\u0432\u0441\u043a\u0438\u0439 \u043c\u0435\u0442\u0440\u043e\u043f\u043e\u043b\u0438\u0442\u0435\u043d\u00bb", "public_transport": "stop_position", "railway": "stop", "subway": "yes"}}, {"type": "node", "id": 6939553022, "lat": 55.7169313, "lon": 37.7933928, "tags": {"colour": "violet", "layer": "-1", "name": "\u0420\u044f\u0437\u0430\u043d\u0441\u043a\u0438\u0439 \u043f\u0440\u043e\u0441\u043f\u0435\u043a\u0442", "name:be": "\u0420\u0430\u0437\u0430\u043d\u0441\u043a\u0456 \u043f\u0440\u0430\u0441\u043f\u0435\u043a\u0442", "name:en": "Ryazansky Prospekt", "name:ru": "\u0420\u044f\u0437\u0430\u043d\u0441\u043a\u0438\u0439 \u043f\u0440\u043e\u0441\u043f\u0435\u043a\u0442", "name:uk": "\u0420\u044f\u0437\u0430\u043d\u0441\u044c\u043a\u0438\u0439 \u043f\u0440\u043e\u0441\u043f\u0435\u043a\u0442", "network": "\u041c\u043e\u0441\u043a\u043e\u0432\u0441\u043a\u0438\u0439 \u043c\u0435\u0442\u0440\u043e\u043f\u043e\u043b\u0438\u0442\u0435\u043d", "operator": "\u0413\u0423\u041f \u00ab\u041c\u043e\u0441\u043a\u043e\u0432\u0441\u043a\u0438\u0439 \u043c\u0435\u0442\u0440\u043e\u043f\u043e\u043b\u0438\u0442\u0435\u043d\u00bb", "public_transport": "stop_position", "railway": "stop", "subway": "yes"}}, {"type": "node", "id": 6939553023, "lat": 55.7169662, "lon": 37.7932365, "tags": {"colour": "violet", "layer": "-1", "name": "\u0420\u044f\u0437\u0430\u043d\u0441\u043a\u0438\u0439 \u043f\u0440\u043e\u0441\u043f\u0435\u043a\u0442", "name:be": "\u0420\u0430\u0437\u0430\u043d\u0441\u043a\u0456 \u043f\u0440\u0430\u0441\u043f\u0435\u043a\u0442", "name:en": "Ryazansky Prospekt", "name:ru": "\u0420\u044f\u0437\u0430\u043d\u0441\u043a\u0438\u0439 \u043f\u0440\u043e\u0441\u043f\u0435\u043a\u0442", "name:uk": "\u0420\u044f\u0437\u0430\u043d\u0441\u044c\u043a\u0438\u0439 \u043f\u0440\u043e\u0441\u043f\u0435\u043a\u0442", "network": "\u041c\u043e\u0441\u043a\u043e\u0432\u0441\u043a\u0438\u0439 \u043c\u0435\u0442\u0440\u043e\u043f\u043e\u043b\u0438\u0442\u0435\u043d", "operator": "\u0413\u0423\u041f \u00ab\u041c\u043e\u0441\u043a\u043e\u0432\u0441\u043a\u0438\u0439 \u043c\u0435\u0442\u0440\u043e\u043f\u043e\u043b\u0438\u0442\u0435\u043d\u00bb", "public_transport": "stop_position", "railway": "stop", "subway": "yes"}}, {"type": "node", "id": 6939553024, "lat": 55.7156309, "lon": 37.8179078, "tags": {"alt_name:en": "Vyhino", "colour": "violet", "name": "\u0412\u044b\u0445\u0438\u043d\u043e", "name:be": "\u0412\u044b\u0445\u0456\u043d\u0430", "name:en": "Vykhino", "name:ru": "\u0412\u044b\u0445\u0438\u043d\u043e", "name:uk": "\u0412\u0438\u0445\u0456\u043d\u043e", "network": "\u041c\u043e\u0441\u043a\u043e\u0432\u0441\u043a\u0438\u0439 \u043c\u0435\u0442\u0440\u043e\u043f\u043e\u043b\u0438\u0442\u0435\u043d", "operator": "\u0413\u0423\u041f \u00ab\u041c\u043e\u0441\u043a\u043e\u0432\u0441\u043a\u0438\u0439 \u043c\u0435\u0442\u0440\u043e\u043f\u043e\u043b\u0438\u0442\u0435\u043d\u00bb", "public_transport": "stop_position", "railway": "stop", "subway": "yes"}}, {"type": "node", "id": 6939553025, "lat": 55.7156579, "lon": 37.8179402, "tags": {"alt_name:en": "Vyhino", "colour": "violet", "name": "\u0412\u044b\u0445\u0438\u043d\u043e", "name:be": "\u0412\u044b\u0445\u0456\u043d\u0430", "name:en": "Vykhino", "name:ru": "\u0412\u044b\u0445\u0438\u043d\u043e", "name:uk": "\u0412\u0438\u0445\u0456\u043d\u043e", "network": "\u041c\u043e\u0441\u043a\u043e\u0432\u0441\u043a\u0438\u0439 \u043c\u0435\u0442\u0440\u043e\u043f\u043e\u043b\u0438\u0442\u0435\u043d", "operator": "\u0413\u0423\u041f \u00ab\u041c\u043e\u0441\u043a\u043e\u0432\u0441\u043a\u0438\u0439 \u043c\u0435\u0442\u0440\u043e\u043f\u043e\u043b\u0438\u0442\u0435\u043d\u00bb", "public_transport": "stop_position", "railway": "stop", "subway": "yes"}}, {"type": "node", "id": 6939553028, "lat": 55.7015795, "lon": 37.8518947, "tags": {"colour": "violet", "name": "\u041b\u0435\u0440\u043c\u043e\u043d\u0442\u043e\u0432\u0441\u043a\u0438\u0439 \u043f\u0440\u043e\u0441\u043f\u0435\u043a\u0442", "name:en": "Lermontovsky prospekt", "name:ru": "\u041b\u0435\u0440\u043c\u043e\u043d\u0442\u043e\u0432\u0441\u043a\u0438\u0439 \u043f\u0440\u043e\u0441\u043f\u0435\u043a\u0442", "name:uk": "\u041b\u0435\u0440\u043c\u043e\u043d\u0442\u043e\u0432\u0441\u044c\u043a\u0438\u0439 \u043f\u0440\u043e\u0441\u043f\u0435\u043a\u0442", "network": "\u041c\u043e\u0441\u043a\u043e\u0432\u0441\u043a\u0438\u0439 \u043c\u0435\u0442\u0440\u043e\u043f\u043e\u043b\u0438\u0442\u0435\u043d", "operator": "\u0413\u0423\u041f \u00ab\u041c\u043e\u0441\u043a\u043e\u0432\u0441\u043a\u0438\u0439 \u043c\u0435\u0442\u0440\u043e\u043f\u043e\u043b\u0438\u0442\u0435\u043d\u00bb", "public_transport": "stop_position", "railway": "stop", "subway": "yes"}}, {"type": "node", "id": 6939553029, "lat": 55.7016775, "lon": 37.8520575, "tags": {"colour": "violet", "name": "\u041b\u0435\u0440\u043c\u043e\u043d\u0442\u043e\u0432\u0441\u043a\u0438\u0439 \u043f\u0440\u043e\u0441\u043f\u0435\u043a\u0442", "name:en": "Lermontovsky prospekt", "name:ru": "\u041b\u0435\u0440\u043c\u043e\u043d\u0442\u043e\u0432\u0441\u043a\u0438\u0439 \u043f\u0440\u043e\u0441\u043f\u0435\u043a\u0442", "name:uk": "\u041b\u0435\u0440\u043c\u043e\u043d\u0442\u043e\u0432\u0441\u044c\u043a\u0438\u0439 \u043f\u0440\u043e\u0441\u043f\u0435\u043a\u0442", "network": "\u041c\u043e\u0441\u043a\u043e\u0432\u0441\u043a\u0438\u0439 \u043c\u0435\u0442\u0440\u043e\u043f\u043e\u043b\u0438\u0442\u0435\u043d", "operator": "\u0413\u0423\u041f \u00ab\u041c\u043e\u0441\u043a\u043e\u0432\u0441\u043a\u0438\u0439 \u043c\u0435\u0442\u0440\u043e\u043f\u043e\u043b\u0438\u0442\u0435\u043d\u00bb", "public_transport": "stop_position", "railway": "stop", "subway": "yes"}}, {"type": "node", "id": 6939553030, "lat": 55.6853929, "lon": 37.8560522, "tags": {"colour": "violet", "layer": "-2", "name": "\u0416\u0443\u043b\u0435\u0431\u0438\u043d\u043e", "name:en": "Zhulebino", "name:ru": "\u0416\u0443\u043b\u0435\u0431\u0438\u043d\u043e", "name:uk": "\u0416\u0443\u043b\u0435\u0431\u0456\u043d\u043e", "network": "\u041c\u043e\u0441\u043a\u043e\u0432\u0441\u043a\u0438\u0439 \u043c\u0435\u0442\u0440\u043e\u043f\u043e\u043b\u0438\u0442\u0435\u043d", "operator": "\u0413\u0423\u041f \u00ab\u041c\u043e\u0441\u043a\u043e\u0432\u0441\u043a\u0438\u0439 \u043c\u0435\u0442\u0440\u043e\u043f\u043e\u043b\u0438\u0442\u0435\u043d\u00bb", "public_transport": "stop_position", "railway": "stop", "subway": "yes"}}, {"type": "node", "id": 6939553031, "lat": 55.6853033, "lon": 37.8562497, "tags": {"colour": "violet", "layer": "-2", "name": "\u0416\u0443\u043b\u0435\u0431\u0438\u043d\u043e", "name:en": "Zhulebino", "name:ru": "\u0416\u0443\u043b\u0435\u0431\u0438\u043d\u043e", "name:uk": "\u0416\u0443\u043b\u0435\u0431\u0456\u043d\u043e", "network": "\u041c\u043e\u0441\u043a\u043e\u0432\u0441\u043a\u0438\u0439 \u043c\u0435\u0442\u0440\u043e\u043f\u043e\u043b\u0438\u0442\u0435\u043d", "operator": "\u0413\u0423\u041f \u00ab\u041c\u043e\u0441\u043a\u043e\u0432\u0441\u043a\u0438\u0439 \u043c\u0435\u0442\u0440\u043e\u043f\u043e\u043b\u0438\u0442\u0435\u043d\u00bb", "public_transport": "stop_position", "railway": "stop", "subway": "yes"}}, {"type": "node", "id": 6939553032, "lat": 55.6743151, "lon": 37.8581918, "tags": {"colour": "violet", "layer": "-2", "name": "\u041a\u043e\u0442\u0435\u043b\u044c\u043d\u0438\u043a\u0438", "network": "\u041c\u043e\u0441\u043a\u043e\u0432\u0441\u043a\u0438\u0439 \u043c\u0435\u0442\u0440\u043e\u043f\u043e\u043b\u0438\u0442\u0435\u043d", "operator": "\u0413\u0423\u041f \u00ab\u041c\u043e\u0441\u043a\u043e\u0432\u0441\u043a\u0438\u0439 \u043c\u0435\u0442\u0440\u043e\u043f\u043e\u043b\u0438\u0442\u0435\u043d\u00bb", "public_transport": "stop_position", "railway": "stop", "subway": "yes"}}, {"type": "node", "id": 6939553033, "lat": 55.6744177, "lon": 37.8583488, "tags": {"colour": "violet", "layer": "-2", "name": "\u041a\u043e\u0442\u0435\u043b\u044c\u043d\u0438\u043a\u0438", "network": "\u041c\u043e\u0441\u043a\u043e\u0432\u0441\u043a\u0438\u0439 \u043c\u0435\u0442\u0440\u043e\u043f\u043e\u043b\u0438\u0442\u0435\u043d", "operator": "\u0413\u0423\u041f \u00ab\u041c\u043e\u0441\u043a\u043e\u0432\u0441\u043a\u0438\u0439 \u043c\u0435\u0442\u0440\u043e\u043f\u043e\u043b\u0438\u0442\u0435\u043d\u00bb", "public_transport": "stop_position", "railway": "stop", "subway": "yes"}}, {"type": "node", "id": 7124470718, "lat": 55.8210161, "lon": 37.4347651}, {"type": "node", "id": 7124470719, "lat": 55.8208715, "lon": 37.4346256}, {"type": "node", "id": 7124470720, "lat": 55.8206726, "lon": 37.4343145}, {"type": "node", "id": 7124470721, "lat": 55.8218223, "lon": 37.434969}, {"type": "node", "id": 7124470722, "lat": 55.8237938, "lon": 37.4322875}, {"type": "node", "id": 7124470723, "lat": 55.8242921, "lon": 37.4330939}, {"type": "node", "id": 7124470724, "lat": 55.8240176, "lon": 37.4341831}, {"type": "node", "id": 7196506910, "lat": 55.7421546, "lon": 37.6505723}, {"type": "node", "id": 7196506913, "lat": 55.7417513, "lon": 37.6504624}, {"type": "node", "id": 7370485739, "lat": 55.7075492, "lon": 37.8412446}, {"type": "node", "id": 7370485740, "lat": 55.70765, "lon": 37.8413479}, {"type": "node", "id": 7385131201, "lat": 55.8229855, "lon": 37.4309456}, {"type": "node", "id": 7385131231, "lat": 55.8222172, "lon": 37.4351624, "tags": {"crossing": "traffic_signals", "highway": "crossing"}}, {"type": "node", "id": 7385131252, "lat": 55.8212437, "lon": 37.4296307}, {"type": "node", "id": 7385131254, "lat": 55.8210317, "lon": 37.4310155, "tags": {"entrance": "staircase", "ref": "9"}}, {"type": "node", "id": 7385131255, "lat": 55.8210798, "lon": 37.4307848, "tags": {"entrance": "staircase", "ref": "8"}}, {"type": "node", "id": 7385131256, "lat": 55.8211927, "lon": 37.4304038, "tags": {"entrance": "staircase", "ref": "7"}}, {"type": "node", "id": 7385131257, "lat": 55.8212837, "lon": 37.4300263, "tags": {"entrance": "staircase", "ref": "6"}}, {"type": "node", "id": 7385131258, "lat": 55.8209508, "lon": 37.429373, "tags": {"entrance": "staircase", "ref": "5"}}, {"type": "node", "id": 7385131259, "lat": 55.8207195, "lon": 37.4291694, "tags": {"entrance": "staircase", "ref": "4"}}, {"type": "node", "id": 7385131260, "lat": 55.8205986, "lon": 37.4290631, "tags": {"entrance": "staircase", "ref": "3"}}, {"type": "node", "id": 7385131272, "lat": 55.8203466, "lon": 37.4290885}, {"type": "node", "id": 7385131273, "lat": 55.8204018, "lon": 37.4288898, "tags": {"access": "private", "barrier": "gate"}}, {"type": "node", "id": 7385131278, "lat": 55.8199262, "lon": 37.4307633}, {"type": "node", "id": 7385131279, "lat": 55.8198725, "lon": 37.4309926, "tags": {"access": "private", "barrier": "gate"}}, {"type": "node", "id": 7385131284, "lat": 55.8200767, "lon": 37.4286037, "tags": {"entrance": "staircase", "ref": "2"}}, {"type": "node", "id": 7385165585, "lat": 55.8199185, "lon": 37.4284644, "tags": {"entrance": "staircase", "ref": "1"}}, {"type": "node", "id": 7385165588, "lat": 55.8195801, "lon": 37.4288117, "tags": {"access": "private", "amenity": "parking_entrance", "maxheight": "2", "parking": "underground"}}, {"type": "node", "id": 7385165591, "lat": 55.8195596, "lon": 37.4288864, "tags": {"access": "private", "amenity": "parking_entrance", "maxheight": "2", "parking": "underground"}}, {"type": "node", "id": 7385165666, "lat": 55.8192303, "lon": 37.4301962}, {"type": "node", "id": 7385165669, "lat": 55.8192467, "lon": 37.4301259}, {"type": "node", "id": 7385165670, "lat": 55.8193369, "lon": 37.4303273}, {"type": "node", "id": 7385165671, "lat": 55.8193743, "lon": 37.4301673}, {"type": "node", "id": 7385165672, "lat": 55.8192572, "lon": 37.4300808}, {"type": "node", "id": 7385165673, "lat": 55.8192199, "lon": 37.4302407}, {"type": "node", "id": 7385165680, "lat": 55.8206531, "lon": 37.4315702, "tags": {"entrance": "staircase", "ref": "10"}}, {"type": "node", "id": 7385165681, "lat": 55.8204777, "lon": 37.4314404, "tags": {"entrance": "staircase", "ref": "11"}}, {"type": "node", "id": 7385165682, "lat": 55.8202358, "lon": 37.4312614, "tags": {"entrance": "staircase", "ref": "12"}}, {"type": "node", "id": 7385165683, "lat": 55.8200882, "lon": 37.4311522, "tags": {"entrance": "staircase", "ref": "13"}}, {"type": "node", "id": 7385165684, "lat": 55.8193489, "lon": 37.4306052, "tags": {"entrance": "staircase", "ref": "15"}}, {"type": "node", "id": 7385165685, "lat": 55.8195393, "lon": 37.4307461, "tags": {"entrance": "staircase", "ref": "14"}}, {"type": "node", "id": 7385165686, "lat": 55.8209649, "lon": 37.4312434}, {"type": "node", "id": 7385165730, "lat": 55.8213696, "lon": 37.4297038}, {"type": "node", "id": 7385165731, "lat": 55.8212583, "lon": 37.4301217}, {"type": "node", "id": 7385165732, "lat": 55.8212661, "lon": 37.4301283}, {"type": "node", "id": 7385165733, "lat": 55.821163, "lon": 37.4305153}, {"type": "node", "id": 7385165734, "lat": 55.8211536, "lon": 37.4305074}, {"type": "node", "id": 7385165735, "lat": 55.8210425, "lon": 37.4309249}, {"type": "node", "id": 7385165736, "lat": 55.8210534, "lon": 37.4309341}, {"type": "node", "id": 7385165737, "lat": 55.8209699, "lon": 37.4312476}, {"type": "node", "id": 7385165738, "lat": 55.8208528, "lon": 37.4311488}, {"type": "node", "id": 7385165739, "lat": 55.8209375, "lon": 37.4308305}, {"type": "node", "id": 7385165740, "lat": 55.8209229, "lon": 37.4308183}, {"type": "node", "id": 7385165741, "lat": 55.8210315, "lon": 37.4304105}, {"type": "node", "id": 7385165742, "lat": 55.8210455, "lon": 37.4304223}, {"type": "node", "id": 7385165743, "lat": 55.8211514, "lon": 37.4300246}, {"type": "node", "id": 7385165744, "lat": 55.8211411, "lon": 37.4300159}, {"type": "node", "id": 7385165745, "lat": 55.8212509, "lon": 37.4296036}, {"type": "node", "id": 7385165805, "lat": 55.8233434, "lon": 37.4315116}, {"type": "node", "id": 7385165806, "lat": 55.8233034, "lon": 37.4315947}, {"type": "node", "id": 7385165807, "lat": 55.8238278, "lon": 37.4318522}, {"type": "node", "id": 7385165808, "lat": 55.8238172, "lon": 37.4317986}, {"type": "node", "id": 7385165809, "lat": 55.8223572, "lon": 37.4349233}, {"type": "node", "id": 7385165810, "lat": 55.8223271, "lon": 37.4348375}, {"type": "node", "id": 7385165812, "lat": 55.8223316, "lon": 37.4334481}, {"type": "node", "id": 7385165813, "lat": 55.8224386, "lon": 37.4334106}, {"type": "node", "id": 7385165814, "lat": 55.8230533, "lon": 37.4311092}, {"type": "node", "id": 7385165835, "lat": 55.8222066, "lon": 37.4310447, "tags": {"entrance": "staircase", "ref": "3"}}, {"type": "node", "id": 7385165836, "lat": 55.8219934, "lon": 37.4308945, "tags": {"entrance": "staircase", "ref": "2"}}, {"type": "node", "id": 7385165837, "lat": 55.821845, "lon": 37.4307333, "tags": {"entrance": "staircase", "ref": "1"}}, {"type": "node", "id": 7385165906, "lat": 55.8221521, "lon": 37.4309978}, {"type": "node", "id": 7385165907, "lat": 55.8221447, "lon": 37.4310249}, {"type": "node", "id": 7385165908, "lat": 55.8219432, "lon": 37.4308513}, {"type": "node", "id": 7385165909, "lat": 55.8219506, "lon": 37.4308242}, {"type": "node", "id": 7385165910, "lat": 55.8216719, "lon": 37.4305842}, {"type": "node", "id": 7385165911, "lat": 55.8216142, "lon": 37.4307964}, {"type": "node", "id": 7385165912, "lat": 55.8218905, "lon": 37.4310344}, {"type": "node", "id": 7385165913, "lat": 55.8218829, "lon": 37.4310625}, {"type": "node", "id": 7385165914, "lat": 55.8220837, "lon": 37.4312354}, {"type": "node", "id": 7385165915, "lat": 55.8220913, "lon": 37.4312073}, {"type": "node", "id": 7385165916, "lat": 55.8223499, "lon": 37.43143}, {"type": "node", "id": 7385165917, "lat": 55.8224076, "lon": 37.4312178}, {"type": "node", "id": 7385165922, "lat": 55.822422, "lon": 37.4304199}, {"type": "node", "id": 7385165923, "lat": 55.8221146, "lon": 37.4301651}, {"type": "node", "id": 7385165925, "lat": 55.8217214, "lon": 37.4222231}, {"type": "node", "id": 7385165926, "lat": 55.8212, "lon": 37.4229205}, {"type": "node", "id": 7385165927, "lat": 55.8209001, "lon": 37.4240255}, {"type": "node", "id": 7385165928, "lat": 55.8199042, "lon": 37.4256938}, {"type": "node", "id": 7385165929, "lat": 55.8197564, "lon": 37.4254471}, {"type": "node", "id": 7385165930, "lat": 55.8193746, "lon": 37.4263344}, {"type": "node", "id": 7385165934, "lat": 55.8222294, "lon": 37.4325198}, {"type": "node", "id": 7385165935, "lat": 55.8218194, "lon": 37.4322245}, {"type": "node", "id": 7385165936, "lat": 55.8216152, "lon": 37.4320609}, {"type": "node", "id": 7385165937, "lat": 55.8216222, "lon": 37.4320335}, {"type": "node", "id": 7385165938, "lat": 55.8218264, "lon": 37.432197}, {"type": "node", "id": 7385165939, "lat": 55.8215583, "lon": 37.4322751}, {"type": "node", "id": 7385165940, "lat": 55.8217617, "lon": 37.432438}, {"type": "node", "id": 7385165941, "lat": 55.8215655, "lon": 37.4322465}, {"type": "node", "id": 7385165942, "lat": 55.8217689, "lon": 37.4324095}, {"type": "node", "id": 7385165943, "lat": 55.8222853, "lon": 37.4323116}, {"type": "node", "id": 7385165944, "lat": 55.8222971, "lon": 37.4323216}, {"type": "node", "id": 7385165945, "lat": 55.8224144, "lon": 37.4324153}, {"type": "node", "id": 7385165946, "lat": 55.822497, "lon": 37.4321078}, {"type": "node", "id": 7385165947, "lat": 55.8224052, "lon": 37.4324074}, {"type": "node", "id": 7385165948, "lat": 55.8224878, "lon": 37.4321}, {"type": "node", "id": 7385165949, "lat": 55.8224513, "lon": 37.4316842}, {"type": "node", "id": 7385165950, "lat": 55.8223687, "lon": 37.4319916}, {"type": "node", "id": 7385165951, "lat": 55.8224651, "lon": 37.431696}, {"type": "node", "id": 7385165952, "lat": 55.8223826, "lon": 37.4320035}, {"type": "node", "id": 7385165953, "lat": 55.8225832, "lon": 37.4317916}, {"type": "node", "id": 7385165954, "lat": 55.8225729, "lon": 37.4317829}, {"type": "node", "id": 7385323823, "lat": 55.8125088, "lon": 37.4237568}, {"type": "node", "id": 7385323838, "lat": 55.812443, "lon": 37.4210134}, {"type": "node", "id": 7999279465, "lat": 55.8154034, "lon": 37.4297989}, {"type": "node", "id": 7999279477, "lat": 55.8145971, "lon": 37.4334238}, {"type": "node", "id": 8224069552, "lat": 55.8199975, "lon": 37.4202114}, {"type": "node", "id": 8224069553, "lat": 55.8198559, "lon": 37.4202275}, {"type": "node", "id": 8224069554, "lat": 55.8192411, "lon": 37.4207318}, {"type": "node", "id": 8224069555, "lat": 55.8189699, "lon": 37.4210375}, {"type": "node", "id": 8224069556, "lat": 55.8180717, "lon": 37.4228507}, {"type": "node", "id": 8224069557, "lat": 55.8210885, "lon": 37.4230063}, {"type": "node", "id": 8224069558, "lat": 55.8201452, "lon": 37.4251306}, {"type": "node", "id": 8224069559, "lat": 55.820537, "lon": 37.4244386}, {"type": "node", "id": 8224069560, "lat": 55.8216822, "lon": 37.4227354}, {"type": "node", "id": 8383152206, "lat": 55.8158392, "lon": 37.4315184}, {"type": "node", "id": 8383152207, "lat": 55.8154585, "lon": 37.4312674}, {"type": "node", "id": 8383152208, "lat": 55.8153996, "lon": 37.4312117}, {"type": "node", "id": 8383152209, "lat": 55.8153566, "lon": 37.4311096}, {"type": "node", "id": 8383152210, "lat": 55.8153516, "lon": 37.4309893}, {"type": "node", "id": 8383152211, "lat": 55.8153625, "lon": 37.4309357}, {"type": "node", "id": 8531288165, "lat": 55.8110368, "lon": 37.4350762}, {"type": "node", "id": 8531288166, "lat": 55.8111332, "lon": 37.4362135}, {"type": "node", "id": 8531288167, "lat": 55.8112116, "lon": 37.4373507}, {"type": "node", "id": 8531288168, "lat": 55.8112116, "lon": 37.4386811}, {"type": "node", "id": 8531288169, "lat": 55.8112779, "lon": 37.4392068}, {"type": "node", "id": 8531288170, "lat": 55.8114166, "lon": 37.4396467}, {"type": "node", "id": 8531288171, "lat": 55.8117602, "lon": 37.4402153}, {"type": "node", "id": 8531288172, "lat": 55.8119712, "lon": 37.4399686}, {"type": "node", "id": 8926875074, "lat": 55.7315635, "lon": 37.6702379}, {"type": "node", "id": 9071412728, "lat": 55.8237841, "lon": 37.4321875}, {"type": "node", "id": 9071412729, "lat": 55.8233863, "lon": 37.4315009}, {"type": "node", "id": 9071412730, "lat": 55.8230964, "lon": 37.4318774}, {"type": "node", "id": 9178000668, "lat": 55.8157631, "lon": 37.4235105}, {"type": "node", "id": 9178000669, "lat": 55.8135296, "lon": 37.4216866}, {"type": "node", "id": 9178000670, "lat": 55.8165228, "lon": 37.4253979}, {"type": "node", "id": 9178000671, "lat": 55.8141596, "lon": 37.4353337}, {"type": "node", "id": 9178000672, "lat": 55.8172704, "lon": 37.4237443}, {"type": "node", "id": 9250708267, "lat": 55.8165649, "lon": 37.4286294}, {"type": "node", "id": 9250708268, "lat": 55.817265, "lon": 37.4260447}, {"type": "node", "id": 9250708269, "lat": 55.8174444, "lon": 37.4251247}, {"type": "node", "id": 9250708270, "lat": 55.8170049, "lon": 37.4247593}, {"type": "node", "id": 9250708271, "lat": 55.8167922, "lon": 37.4321694}, {"type": "node", "id": 9250708272, "lat": 55.8174773, "lon": 37.4292726}, {"type": "node", "id": 9250708273, "lat": 55.8186422, "lon": 37.4301318}, {"type": "node", "id": 9250708274, "lat": 55.8189929, "lon": 37.4303917}, {"type": "node", "id": 9250708275, "lat": 55.8189289, "lon": 37.4306948}, {"type": "node", "id": 9250708276, "lat": 55.8190885, "lon": 37.4308118}, {"type": "node", "id": 9250708277, "lat": 55.8189504, "lon": 37.4308686}, {"type": "node", "id": 9250708278, "lat": 55.8188404, "lon": 37.4311958}, {"type": "node", "id": 9250708279, "lat": 55.8183883, "lon": 37.4330627}, {"type": "node", "id": 9250708280, "lat": 55.8184517, "lon": 37.4333105}, {"type": "node", "id": 9250708307, "lat": 55.8168548, "lon": 37.4257794}, {"type": "node", "id": 9250708308, "lat": 55.8161513, "lon": 37.4283528}, {"type": "node", "id": 9250708309, "lat": 55.8165081, "lon": 37.4288694}, {"type": "node", "id": 9250708310, "lat": 55.8159432, "lon": 37.4286643}, {"type": "node", "id": 9250708311, "lat": 55.8159882, "lon": 37.4285318}, {"type": "node", "id": 9250708312, "lat": 55.8160401, "lon": 37.4285071}, {"type": "node", "id": 9250708313, "lat": 55.816118, "lon": 37.4285503}, {"type": "node", "id": 9330588504, "lat": 55.8607292, "lon": 37.4363914}, {"type": "node", "id": 9330588505, "lat": 55.8607429, "lon": 37.4365998}, {"type": "node", "id": 9330588506, "lat": 55.8264924, "lon": 37.4368503}, {"type": "node", "id": 9330588507, "lat": 55.8264656, "lon": 37.4370693}, {"type": "node", "id": 9330588508, "lat": 55.8086712, "lon": 37.4644501}, {"type": "node", "id": 9330588509, "lat": 55.8085952, "lon": 37.4643342}, {"type": "node", "id": 9330588510, "lat": 55.7647253, "lon": 37.5615962}, {"type": "node", "id": 9330588511, "lat": 55.7646659, "lon": 37.5614169}, {"type": "node", "id": 9330588512, "lat": 55.7649084, "lon": 37.5613868}, {"type": "node", "id": 9330588513, "lat": 55.7648452, "lon": 37.5612115}, {"type": "node", "id": 9330588514, "lat": 55.7253043, "lon": 37.6868624}, {"type": "node", "id": 9330588515, "lat": 55.7252264, "lon": 37.6867615}, {"type": "node", "id": 9330588516, "lat": 55.7171392, "lon": 37.7933574}, {"type": "node", "id": 9330622517, "lat": 55.7170945, "lon": 37.7935065}, {"type": "node", "id": 9330622518, "lat": 55.6744422, "lon": 37.8579229}, {"type": "node", "id": 9330622519, "lat": 55.6745457, "lon": 37.8580779}, {"type": "node", "id": 9683309910, "lat": 55.8196344, "lon": 37.4281025}, {"type": "node", "id": 9683309911, "lat": 55.8194185, "lon": 37.427042}, {"type": "node", "id": 9683344881, "lat": 55.8217229, "lon": 37.4225798}, {"type": "node", "id": 9683344882, "lat": 55.8217123, "lon": 37.4226764}, {"type": "node", "id": 9683344883, "lat": 55.8215556, "lon": 37.4227917}, {"type": "node", "id": 9683344884, "lat": 55.821713, "lon": 37.4172057}, {"type": "node", "id": 9683344895, "lat": 55.8200882, "lon": 37.4252638}, {"type": "node", "id": 9683344896, "lat": 55.8199493, "lon": 37.425034}, {"type": "node", "id": 9683344897, "lat": 55.8198228, "lon": 37.4246961}, {"type": "node", "id": 9683344898, "lat": 55.8195093, "lon": 37.4227595}, {"type": "node", "id": 9683344899, "lat": 55.8204601, "lon": 37.4217623}, {"type": "way", "id": 27095520, "nodes": [297058726, 6538128674, 6538128677, 666515716, 6939553018, 297060051, 305641854, 305641856, 666515718, 6939553020, 297062966, 666515720, 4035936915, 4035936916, 666515721, 297062967, 4035936920, 297062969, 666515723, 4035928418, 297062970, 4035908416, 666515724], "tags": {"colour": "violet", "electrified": "rail", "frequency": "0", "gauge": "1520", "layer": "-2", "name": "\u0422\u0430\u0433\u0430\u043d\u0441\u043a\u043e-\u041a\u0440\u0430\u0441\u043d\u043e\u043f\u0440\u0435\u0441\u043d\u0435\u043d\u0441\u043a\u0430\u044f \u043b\u0438\u043d\u0438\u044f", "oneway": "yes", "railway": "subway", "tunnel": "yes", "voltage": "750"}}, {"type": "way", "id": 27095554, "nodes": [297295144, 1223468483, 1223468576, 297060048, 1223468616, 1223468978, 1223468667, 1223468835, 297060050, 6538128679, 6538128678, 1223469123, 3596458662, 297058726], "tags": {"colour": "violet", "electrified": "rail", "frequency": "0", "gauge": "1520", "name": "\u0422\u0430\u0433\u0430\u043d\u0441\u043a\u043e-\u041a\u0440\u0430\u0441\u043d\u043e\u043f\u0440\u0435\u0441\u043d\u0435\u043d\u0441\u043a\u0430\u044f \u043b\u0438\u043d\u0438\u044f", "oneway": "yes", "railway": "subway", "tunnel": "no", "voltage": "750"}}, {"type": "way", "id": 72873712, "nodes": [297061290, 1223468691, 1315297886, 6939553024, 2036372337], "tags": {"colour": "violet", "electrified": "rail", "frequency": "0", "gauge": "1520", "name": "\u0422\u0430\u0433\u0430\u043d\u0441\u043a\u043e-\u041a\u0440\u0430\u0441\u043d\u043e\u043f\u0440\u0435\u0441\u043d\u0435\u043d\u0441\u043a\u0430\u044f \u043b\u0438\u043d\u0438\u044f", "oneway": "yes", "railway": "subway", "tunnel": "no", "voltage": "750"}}, {"type": "way", "id": 106107640, "nodes": [1221661510, 1221661514, 3967500204, 1221676926, 1223550690, 1221676925, 3967500202, 666515747, 666515745, 3967500200, 666515750, 666515748, 3694670741, 7196506913, 1264728445, 6937381499, 5125465478, 5125465476, 666515729, 307527020, 5122343582, 1470892699, 307526945, 5122343583, 307526946], "tags": {"colour": "violet", "electrified": "rail", "frequency": "0", "gauge": "1520", "layer": "-4", "name": "\u0422\u0430\u0433\u0430\u043d\u0441\u043a\u043e-\u041a\u0440\u0430\u0441\u043d\u043e\u043f\u0440\u0435\u0441\u043d\u0435\u043d\u0441\u043a\u0430\u044f \u043b\u0438\u043d\u0438\u044f", "name:ru": "\u0422\u0430\u0433\u0430\u043d\u0441\u043a\u043e-\u041a\u0440\u0430\u0441\u043d\u043e\u043f\u0440\u0435\u0441\u043d\u0435\u043d\u0441\u043a\u0430\u044f \u043b\u0438\u043d\u0438\u044f", "railway": "subway", "railway:preferred_direction": "forward", "tunnel": "yes", "voltage": "750"}}, {"type": "way", "id": 106107643, "nodes": [1221661532, 5176322724, 1221661510], "tags": {"colour": "violet", "electrified": "rail", "frequency": "0", "gauge": "1520", "layer": "-4", "name": "\u0422\u0430\u0433\u0430\u043d\u0441\u043a\u043e-\u041a\u0440\u0430\u0441\u043d\u043e\u043f\u0440\u0435\u0441\u043d\u0435\u043d\u0441\u043a\u0430\u044f \u043b\u0438\u043d\u0438\u044f", "railway": "subway", "railway:preferred_direction": "forward", "ref": "1", "tunnel": "yes", "voltage": "750"}}, {"type": "way", "id": 106107648, "nodes": [1221661496, 493293874, 1221661494], "tags": {"colour": "violet", "electrified": "rail", "frequency": "0", "gauge": "1520", "layer": "-4", "name": "\u0422\u0430\u0433\u0430\u043d\u0441\u043a\u043e-\u041a\u0440\u0430\u0441\u043d\u043e\u043f\u0440\u0435\u0441\u043d\u0435\u043d\u0441\u043a\u0430\u044f \u043b\u0438\u043d\u0438\u044f", "name:ru": "\u0422\u0430\u0433\u0430\u043d\u0441\u043a\u043e-\u041a\u0440\u0430\u0441\u043d\u043e\u043f\u0440\u0435\u0441\u043d\u0435\u043d\u0441\u043a\u0430\u044f \u043b\u0438\u043d\u0438\u044f", "railway": "subway", "railway:preferred_direction": "forward", "ref": "2", "tunnel": "yes", "voltage": "750"}}, {"type": "way", "id": 106299172, "nodes": [1223468693, 9330588510, 6939553013, 9330588512, 4074520400, 4074520402, 1359261215, 1359261216, 1223468955, 1453857838, 1223468235, 1453858376, 1453858564, 1453858791, 1223468750, 1453859029, 1453859233, 1223468565, 6939553011, 1223468258, 1453859501, 1453859505, 1453859510, 1453859512, 1223468177, 1223468788, 1390961171, 1390961227, 1390961241, 1390961259, 1390961279, 1390961303, 1390961307, 1223469074, 1390961274, 1390961266, 1390961174, 6939553008, 1223468240, 1390960235, 1390960212, 1390960173, 1390960156, 1390960159, 1390960189, 1390960239, 5203259487, 1390960331, 1223468465, 1223468832, 3299680395, 1223468866, 1223469029, 3881286058, 3951049501, 1223468288, 1223468662, 3881286060, 1223468374, 1223468722, 3881286062, 1223468199, 1223469070, 1223468824, 6939553005, 9330588508, 1223468581, 4027230305, 5482486690, 1215906968, 1223468201, 1223468261, 1223468678, 1223468541, 4027230308, 4027230309, 4027230311, 1223468958, 1223468382, 3889875992, 3889875994, 3889875996, 3024682983, 2150014805, 3024737236, 1223468559, 2150014807, 3889875998, 3024682985, 5202107561, 3024683007, 3889876000, 2150014810, 3024683015, 2321914827, 3889876001, 1223468761, 9330588507, 6939553003, 1223468259, 2322503068, 2322387348, 2322387349, 2574075009, 1223468963, 2468857198, 1223468184, 1223468793, 4027222565, 4027222567, 1223468892, 6939553001, 1223468474], "tags": {"colour": "violet", "electrified": "rail", "frequency": "0", "gauge": "1520", "layer": "-3", "name": "\u0422\u0430\u0433\u0430\u043d\u0441\u043a\u043e-\u041a\u0440\u0430\u0441\u043d\u043e\u043f\u0440\u0435\u0441\u043d\u0435\u043d\u0441\u043a\u0430\u044f \u043b\u0438\u043d\u0438\u044f", "name:ru": "\u0422\u0430\u0433\u0430\u043d\u0441\u043a\u043e-\u041a\u0440\u0430\u0441\u043d\u043e\u043f\u0440\u0435\u0441\u043d\u0435\u043d\u0441\u043a\u0430\u044f \u043b\u0438\u043d\u0438\u044f", "railway": "subway", "railway:preferred_direction": "forward", "tunnel": "yes", "voltage": "750"}}, {"type": "way", "id": 106299184, "nodes": [666515724, 6939553022, 9330622517, 297061288, 4035908418, 1223468725, 4035908420, 297061243, 297061289, 4035908422, 4035908426, 357989231, 4035908429, 4035908430, 4035908428, 325098190, 4035908423, 297061290], "tags": {"colour": "violet", "electrified": "rail", "frequency": "0", "gauge": "1520", "layer": "-1", "name": "\u0422\u0430\u0433\u0430\u043d\u0441\u043a\u043e-\u041a\u0440\u0430\u0441\u043d\u043e\u043f\u0440\u0435\u0441\u043d\u0435\u043d\u0441\u043a\u0430\u044f \u043b\u0438\u043d\u0438\u044f", "oneway": "yes", "railway": "subway", "tunnel": "yes", "voltage": "750"}}, {"type": "way", "id": 106299185, "nodes": [1223468300, 6939553025, 1315297722, 1223468406, 1223468818], "tags": {"colour": "violet", "electrified": "rail", "frequency": "0", "gauge": "1520", "name": "\u0422\u0430\u0433\u0430\u043d\u0441\u043a\u043e-\u041a\u0440\u0430\u0441\u043d\u043e\u043f\u0440\u0435\u0441\u043d\u0435\u043d\u0441\u043a\u0430\u044f \u043b\u0438\u043d\u0438\u044f", "oneway": "yes", "railway": "subway", "tunnel": "no", "voltage": "750"}}, {"type": "way", "id": 106299188, "nodes": [296959503, 6939553000, 301849561, 4027222566, 4116181377, 4027222564, 4116181359, 309749920, 666487040, 2468857200, 1005345304, 2468857193, 493558521, 6939553002, 9330588506, 612055403], "tags": {"colour": "violet", "electrified": "rail", "frequency": "0", "gauge": "1520", "layer": "-2", "name": "\u0422\u0430\u0433\u0430\u043d\u0441\u043a\u043e-\u041a\u0440\u0430\u0441\u043d\u043e\u043f\u0440\u0435\u0441\u043d\u0435\u043d\u0441\u043a\u0430\u044f \u043b\u0438\u043d\u0438\u044f", "railway": "subway", "railway:preferred_direction": "forward", "tunnel": "yes", "voltage": "750"}}, {"type": "way", "id": 106299198, "nodes": [1223468468, 4035908417, 1223468830, 4035928419, 1223468707, 1223469016, 4035936921, 1223468424, 1223468203, 4035936918, 4035936917, 1223469099, 1223468223, 1223589168], "tags": {"colour": "violet", "electrified": "rail", "frequency": "0", "gauge": "1520", "layer": "-2", "name": "\u0422\u0430\u0433\u0430\u043d\u0441\u043a\u043e-\u041a\u0440\u0430\u0441\u043d\u043e\u043f\u0440\u0435\u0441\u043d\u0435\u043d\u0441\u043a\u0430\u044f \u043b\u0438\u043d\u0438\u044f", "oneway": "yes", "railway": "subway", "tunnel": "yes", "voltage": "750"}}, {"type": "way", "id": 106299222, "nodes": [1223468474, 4027222576, 6939552999, 9330588505, 1223468255], "tags": {"colour": "violet", "electrified": "rail", "frequency": "0", "gauge": "1520", "layer": "-2", "name": "\u0422\u0430\u0433\u0430\u043d\u0441\u043a\u043e-\u041a\u0440\u0430\u0441\u043d\u043e\u043f\u0440\u0435\u0441\u043d\u0435\u043d\u0441\u043a\u0430\u044f \u043b\u0438\u043d\u0438\u044f", "oneway": "yes", "railway": "subway", "tunnel": "yes", "voltage": "750"}}, {"type": "way", "id": 106299233, "nodes": [666487057, 3975117183, 3975117181, 3975117178, 4074512428, 4074512426, 4074512420, 4074512417, 3975117177, 4074512419, 4074512418, 4074512416, 666487074, 3975117175, 1277500358], "tags": {"colour": "violet", "electrified": "rail", "frequency": "0", "gauge": "1520", "layer": "-4", "name": "\u0422\u0430\u0433\u0430\u043d\u0441\u043a\u043e-\u041a\u0440\u0430\u0441\u043d\u043e\u043f\u0440\u0435\u0441\u043d\u0435\u043d\u0441\u043a\u0430\u044f \u043b\u0438\u043d\u0438\u044f", "name:ru": "\u0422\u0430\u0433\u0430\u043d\u0441\u043a\u043e-\u041a\u0440\u0430\u0441\u043d\u043e\u043f\u0440\u0435\u0441\u043d\u0435\u043d\u0441\u043a\u0430\u044f \u043b\u0438\u043d\u0438\u044f", "railway": "subway", "railway:preferred_direction": "forward", "tunnel": "yes", "voltage": "750"}}, {"type": "way", "id": 106299238, "nodes": [1223468518, 3596458668, 1223468281, 6538128680, 6538128681, 1223468618, 1223468440, 1223468895, 1223468700, 1223468378, 1223468198, 1223468550, 1223468284, 1223469122, 1223468719], "tags": {"colour": "violet", "electrified": "rail", "frequency": "0", "gauge": "1520", "name": "\u0422\u0430\u0433\u0430\u043d\u0441\u043a\u043e-\u041a\u0440\u0430\u0441\u043d\u043e\u043f\u0440\u0435\u0441\u043d\u0435\u043d\u0441\u043a\u0430\u044f \u043b\u0438\u043d\u0438\u044f", "oneway": "yes", "railway": "subway", "tunnel": "no", "voltage": "750"}}, {"type": "way", "id": 106299241, "nodes": [1223468719, 5125465473, 5125465472, 5125465469, 5125465462, 5125465467, 5125465466, 4035914573, 5125465455, 1223468470, 5125465458, 5125465459, 6939553017, 9330588514, 1223468672, 1223468186, 5122396790, 1223468795, 1223468708, 5122396791, 1223468961, 6937856043, 1223468188], "tags": {"colour": "violet", "electrified": "rail", "frequency": "0", "gauge": "1520", "layer": "-2", "name": "\u0422\u0430\u0433\u0430\u043d\u0441\u043a\u043e-\u041a\u0440\u0430\u0441\u043d\u043e\u043f\u0440\u0435\u0441\u043d\u0435\u043d\u0441\u043a\u0430\u044f \u043b\u0438\u043d\u0438\u044f", "railway": "subway", "railway:preferred_direction": "forward", "tunnel": "yes", "voltage": "750"}}, {"type": "way", "id": 106299243, "nodes": [1223468639, 9330588504, 6939552998, 4027222577, 296959503], "tags": {"colour": "violet", "electrified": "rail", "frequency": "0", "gauge": "1520", "layer": "-2", "name": "\u0422\u0430\u0433\u0430\u043d\u0441\u043a\u043e-\u041a\u0440\u0430\u0441\u043d\u043e\u043f\u0440\u0435\u0441\u043d\u0435\u043d\u0441\u043a\u0430\u044f \u043b\u0438\u043d\u0438\u044f", "oneway": "yes", "railway": "subway", "tunnel": "yes", "voltage": "750"}}, {"type": "way", "id": 106299250, "nodes": [307526946, 6937856042, 297059244, 5122396789, 297059245, 8926875074, 5122396788, 358367364, 297059247, 1223468307, 5643559119, 9330588515, 6939553016, 5125465460, 5125465457, 297060047, 5125465456, 4035914572, 5125465465, 5125465468, 5125465461, 5125465470, 5125465471, 5125465474, 297295144], "tags": {"colour": "violet", "electrified": "rail", "frequency": "0", "gauge": "1520", "layer": "-2", "name": "\u0422\u0430\u0433\u0430\u043d\u0441\u043a\u043e-\u041a\u0440\u0430\u0441\u043d\u043e\u043f\u0440\u0435\u0441\u043d\u0435\u043d\u0441\u043a\u0430\u044f \u043b\u0438\u043d\u0438\u044f", "railway": "subway", "railway:preferred_direction": "forward", "tunnel": "yes", "voltage": "750"}}, {"type": "way", "id": 106299253, "nodes": [1223468818, 4035908424, 1223468703, 4035908431, 4035908432, 4035908433, 1223468185, 4035908427, 4035908425, 1223468241, 1223468619, 4035908421, 1223468340, 4035908419, 1223468755, 9330588516, 6939553023, 1223468468], "tags": {"colour": "violet", "electrified": "rail", "frequency": "0", "gauge": "1520", "layer": "-1", "name": "\u0422\u0430\u0433\u0430\u043d\u0441\u043a\u043e-\u041a\u0440\u0430\u0441\u043d\u043e\u043f\u0440\u0435\u0441\u043d\u0435\u043d\u0441\u043a\u0430\u044f \u043b\u0438\u043d\u0438\u044f", "oneway": "yes", "railway": "subway", "tunnel": "yes", "voltage": "750"}}, {"type": "way", "id": 106299256, "nodes": [1221661494, 1223550685, 3677853723, 3677854925, 3967496857, 1277385690, 3967496859, 1223496860], "tags": {"colour": "violet", "electrified": "rail", "frequency": "0", "gauge": "1520", "layer": "-4", "name": "\u0422\u0430\u0433\u0430\u043d\u0441\u043a\u043e-\u041a\u0440\u0430\u0441\u043d\u043e\u043f\u0440\u0435\u0441\u043d\u0435\u043d\u0441\u043a\u0430\u044f \u043b\u0438\u043d\u0438\u044f", "name:ru": "\u0422\u0430\u0433\u0430\u043d\u0441\u043a\u043e-\u041a\u0440\u0430\u0441\u043d\u043e\u043f\u0440\u0435\u0441\u043d\u0435\u043d\u0441\u043a\u0430\u044f \u043b\u0438\u043d\u0438\u044f", "railway": "subway", "railway:preferred_direction": "forward", "tunnel": "yes", "voltage": "750"}}, {"type": "way", "id": 106299259, "nodes": [1223468188, 5122343585, 1223468523, 5122343584, 1470892700, 1223469033, 1223468224, 5125465475, 5125465477, 6937381500, 1470892728, 7196506910, 1398729158, 1223468372, 1223468243, 1223468620, 3967500201, 1223468344, 1223468918, 3967500203, 666515736, 1223550687, 666515738, 3967500205, 666515734, 1221661496], "tags": {"colour": "violet", "electrified": "rail", "frequency": "0", "gauge": "1520", "layer": "-3", "name": "\u0422\u0430\u0433\u0430\u043d\u0441\u043a\u043e-\u041a\u0440\u0430\u0441\u043d\u043e\u043f\u0440\u0435\u0441\u043d\u0435\u043d\u0441\u043a\u0430\u044f \u043b\u0438\u043d\u0438\u044f", "name:ru": "\u0422\u0430\u0433\u0430\u043d\u0441\u043a\u043e-\u041a\u0440\u0430\u0441\u043d\u043e\u043f\u0440\u0435\u0441\u043d\u0435\u043d\u0441\u043a\u0430\u044f \u043b\u0438\u043d\u0438\u044f", "railway": "subway", "railway:preferred_direction": "forward", "tunnel": "yes", "voltage": "750"}}, {"type": "way", "id": 106300859, "nodes": [1223496853, 3967496862, 3967496858, 3677854926, 3967496056, 3677853724, 3677853722, 666515739, 1221661532], "tags": {"colour": "violet", "electrified": "rail", "frequency": "0", "gauge": "1520", "layer": "-4", "name": "\u0422\u0430\u0433\u0430\u043d\u0441\u043a\u043e-\u041a\u0440\u0430\u0441\u043d\u043e\u043f\u0440\u0435\u0441\u043d\u0435\u043d\u0441\u043a\u0430\u044f \u043b\u0438\u043d\u0438\u044f", "name:ru": "\u0422\u0430\u0433\u0430\u043d\u0441\u043a\u043e-\u041a\u0440\u0430\u0441\u043d\u043e\u043f\u0440\u0435\u0441\u043d\u0435\u043d\u0441\u043a\u0430\u044f \u043b\u0438\u043d\u0438\u044f", "railway": "subway", "railway:preferred_direction": "forward", "tunnel": "yes", "voltage": "750"}}, {"type": "way", "id": 106300864, "nodes": [1223496852, 6938090616, 1223496853], "tags": {"colour": "violet", "electrified": "rail", "frequency": "0", "gauge": "1520", "layer": "-4", "name": "\u0422\u0430\u0433\u0430\u043d\u0441\u043a\u043e-\u041a\u0440\u0430\u0441\u043d\u043e\u043f\u0440\u0435\u0441\u043d\u0435\u043d\u0441\u043a\u0430\u044f \u043b\u0438\u043d\u0438\u044f", "name:ru": "\u0422\u0430\u0433\u0430\u043d\u0441\u043a\u043e-\u041a\u0440\u0430\u0441\u043d\u043e\u043f\u0440\u0435\u0441\u043d\u0435\u043d\u0441\u043a\u0430\u044f \u043b\u0438\u043d\u0438\u044f", "railway": "subway", "railway:preferred_direction": "forward", "ref": "1", "tunnel": "yes", "voltage": "750"}}, {"type": "way", "id": 106300867, "nodes": [1223496828, 4821506729, 1223468427, 3781545445, 4495448811, 1223468989, 6937152867, 1223468404, 2331120538, 2331120537, 3915667061, 3915667060, 3915667057, 1223468588, 1223468949, 3915666054, 3915666052, 1223468309, 1223468783, 1398729290, 1398729289, 1223468547, 1277500356], "tags": {"colour": "violet", "electrified": "rail", "frequency": "0", "gauge": "1520", "layer": "-4", "name": "\u0422\u0430\u0433\u0430\u043d\u0441\u043a\u043e-\u041a\u0440\u0430\u0441\u043d\u043e\u043f\u0440\u0435\u0441\u043d\u0435\u043d\u0441\u043a\u0430\u044f \u043b\u0438\u043d\u0438\u044f", "name:ru": "\u0422\u0430\u0433\u0430\u043d\u0441\u043a\u043e-\u041a\u0440\u0430\u0441\u043d\u043e\u043f\u0440\u0435\u0441\u043d\u0435\u043d\u0441\u043a\u0430\u044f \u043b\u0438\u043d\u0438\u044f", "railway": "subway", "railway:preferred_direction": "forward", "ref": "2", "tunnel": "yes", "voltage": "750"}}, {"type": "way", "id": 106300870, "nodes": [1223496860, 6938090617, 1223496828], "tags": {"colour": "violet", "electrified": "rail", "frequency": "0", "gauge": "1520", "layer": "-4", "name": "\u0422\u0430\u0433\u0430\u043d\u0441\u043a\u043e-\u041a\u0440\u0430\u0441\u043d\u043e\u043f\u0440\u0435\u0441\u043d\u0435\u043d\u0441\u043a\u0430\u044f \u043b\u0438\u043d\u0438\u044f", "name:ru": "\u0422\u0430\u0433\u0430\u043d\u0441\u043a\u043e-\u041a\u0440\u0430\u0441\u043d\u043e\u043f\u0440\u0435\u0441\u043d\u0435\u043d\u0441\u043a\u0430\u044f \u043b\u0438\u043d\u0438\u044f", "railway": "subway", "railway:preferred_direction": "forward", "ref": "2", "tunnel": "yes", "voltage": "750"}}, {"type": "way", "id": 106306430, "nodes": [1223589168, 6939553021, 1223468992, 1223468256, 4399229950, 1223468613, 1223468936, 6939553019, 1223468664, 6538128676, 6538128675, 1223468518], "tags": {"colour": "violet", "electrified": "rail", "frequency": "0", "gauge": "1520", "layer": "-2", "name": "\u0422\u0430\u0433\u0430\u043d\u0441\u043a\u043e-\u041a\u0440\u0430\u0441\u043d\u043e\u043f\u0440\u0435\u0441\u043d\u0435\u043d\u0441\u043a\u0430\u044f \u043b\u0438\u043d\u0438\u044f", "oneway": "yes", "railway": "subway", "tunnel": "yes", "voltage": "750"}}, {"type": "way", "id": 112390949, "nodes": [1277500358, 6939553014, 1277500350], "tags": {"colour": "violet", "electrified": "rail", "frequency": "0", "gauge": "1520", "layer": "-4", "name": "\u0422\u0430\u0433\u0430\u043d\u0441\u043a\u043e-\u041a\u0440\u0430\u0441\u043d\u043e\u043f\u0440\u0435\u0441\u043d\u0435\u043d\u0441\u043a\u0430\u044f \u043b\u0438\u043d\u0438\u044f", "name:ru": "\u0422\u0430\u0433\u0430\u043d\u0441\u043a\u043e-\u041a\u0440\u0430\u0441\u043d\u043e\u043f\u0440\u0435\u0441\u043d\u0435\u043d\u0441\u043a\u0430\u044f \u043b\u0438\u043d\u0438\u044f", "railway": "subway", "railway:preferred_direction": "forward", "tunnel": "yes", "voltage": "750"}}, {"type": "way", "id": 112390951, "nodes": [1277500350, 666487075, 1398729286, 1398729287, 666487078, 666487079, 3915666051, 3915666053, 666487081, 666487080, 3915666056, 3915667058, 3915667059, 2331120535, 666487085, 3781546657, 6937152866, 3781545446, 4495448812, 3781545444, 1223468213, 4821506728, 1223496852], "tags": {"colour": "violet", "electrified": "rail", "frequency": "0", "gauge": "1520", "layer": "-4", "name": "\u0422\u0430\u0433\u0430\u043d\u0441\u043a\u043e-\u041a\u0440\u0430\u0441\u043d\u043e\u043f\u0440\u0435\u0441\u043d\u0435\u043d\u0441\u043a\u0430\u044f \u043b\u0438\u043d\u0438\u044f", "name:ru": "\u0422\u0430\u0433\u0430\u043d\u0441\u043a\u043e-\u041a\u0440\u0430\u0441\u043d\u043e\u043f\u0440\u0435\u0441\u043d\u0435\u043d\u0441\u043a\u0430\u044f \u043b\u0438\u043d\u0438\u044f", "railway": "subway", "railway:preferred_direction": "forward", "ref": "1", "tunnel": "yes", "voltage": "750"}}, {"type": "way", "id": 112390952, "nodes": [1277500367, 3975117176, 1223468431, 4074512421, 4074512423, 4074512424, 3975117179, 4074512422, 4074512425, 4074512427, 4074512429, 3975117180, 3975117182, 3975117184, 1223468693], "tags": {"colour": "violet", "electrified": "rail", "frequency": "0", "gauge": "1520", "layer": "-4", "name": "\u0422\u0430\u0433\u0430\u043d\u0441\u043a\u043e-\u041a\u0440\u0430\u0441\u043d\u043e\u043f\u0440\u0435\u0441\u043d\u0435\u043d\u0441\u043a\u0430\u044f \u043b\u0438\u043d\u0438\u044f", "name:ru": "\u0422\u0430\u0433\u0430\u043d\u0441\u043a\u043e-\u041a\u0440\u0430\u0441\u043d\u043e\u043f\u0440\u0435\u0441\u043d\u0435\u043d\u0441\u043a\u0430\u044f \u043b\u0438\u043d\u0438\u044f", "railway": "subway", "railway:preferred_direction": "forward", "tunnel": "yes", "voltage": "750"}}, {"type": "way", "id": 112390954, "nodes": [1277500356, 6939553015, 1277500367], "tags": {"colour": "violet", "electrified": "rail", "frequency": "0", "gauge": "1520", "layer": "-4", "name": "\u0422\u0430\u0433\u0430\u043d\u0441\u043a\u043e-\u041a\u0440\u0430\u0441\u043d\u043e\u043f\u0440\u0435\u0441\u043d\u0435\u043d\u0441\u043a\u0430\u044f \u043b\u0438\u043d\u0438\u044f", "name:ru": "\u0422\u0430\u0433\u0430\u043d\u0441\u043a\u043e-\u041a\u0440\u0430\u0441\u043d\u043e\u043f\u0440\u0435\u0441\u043d\u0435\u043d\u0441\u043a\u0430\u044f \u043b\u0438\u043d\u0438\u044f", "railway": "subway", "railway:preferred_direction": "forward", "tunnel": "yes", "voltage": "750"}}, {"type": "way", "id": 193120246, "nodes": [2036372337, 2036372333, 2036372327], "tags": {"colour": "violet", "electrified": "rail", "frequency": "0", "gauge": "1520", "name": "\u0422\u0430\u0433\u0430\u043d\u0441\u043a\u043e-\u041a\u0440\u0430\u0441\u043d\u043e\u043f\u0440\u0435\u0441\u043d\u0435\u043d\u0441\u043a\u0430\u044f \u043b\u0438\u043d\u0438\u044f", "oneway": "yes", "railway": "subway", "tunnel": "no", "voltage": "750"}}, {"type": "way", "id": 202924835, "nodes": [2128698396, 4476141973, 4476141974, 1315297571], "tags": {"colour": "violet", "electrified": "rail", "frequency": "0", "gauge": "1520", "name": "\u0422\u0430\u0433\u0430\u043d\u0441\u043a\u043e-\u041a\u0440\u0430\u0441\u043d\u043e\u043f\u0440\u0435\u0441\u043d\u0435\u043d\u0441\u043a\u0430\u044f \u043b\u0438\u043d\u0438\u044f", "oneway": "yes", "railway": "subway", "subway": "constriction", "tunnel": "no", "voltage": "750"}}, {"type": "way", "id": 202925519, "nodes": [2036372327, 2128698373, 2524130557, 2524130556, 2128698405], "tags": {"colour": "violet", "electrified": "rail", "frequency": "0", "gauge": "1520", "layer": "-2", "name": "\u0422\u0430\u0433\u0430\u043d\u0441\u043a\u043e-\u041a\u0440\u0430\u0441\u043d\u043e\u043f\u0440\u0435\u0441\u043d\u0435\u043d\u0441\u043a\u0430\u044f \u043b\u0438\u043d\u0438\u044f", "oneway": "yes", "railway": "subway", "ref": "1", "tunnel": "no", "voltage": "750"}}, {"type": "way", "id": 202925520, "nodes": [2128745134, 4000049465, 4000049469, 2525193114, 4000049477, 6939553033, 9330622519, 2525193115, 4000049478, 4000049480, 4000049482, 2517710297, 2517710293, 4000049483, 2517710296, 2517710295, 2517710294, 2128745131, 2128745142, 2128745127, 2128745129, 2128745162, 2128745160, 2128698367, 2128745155], "tags": {"colour": "violet", "electrified": "rail", "frequency": "0", "gauge": "1520", "layer": "-2", "name": "\u0422\u0430\u0433\u0430\u043d\u0441\u043a\u043e-\u041a\u0440\u0430\u0441\u043d\u043e\u043f\u0440\u0435\u0441\u043d\u0435\u043d\u0441\u043a\u0430\u044f \u043b\u0438\u043d\u0438\u044f", "oneway": "yes", "railway": "subway", "ref": "2", "tunnel": "yes", "voltage": "750"}}, {"type": "way", "id": 210929334, "nodes": [2128745148, 2128745171, 2128745151, 2128745137, 2128745146, 2128745158, 2128745165, 2517710285, 2128745168, 2517710286, 2128745143, 2517710287, 2517710289, 2517710290, 2517710291, 2525193116, 4000049481, 4000049479, 2517710292, 4833306803, 9330622518, 6939553032, 4000049476, 2525193113, 4000049466, 4000049462, 2128745139], "tags": {"colour": "violet", "electrified": "rail", "frequency": "0", "gauge": "1520", "layer": "-2", "name": "\u0422\u0430\u0433\u0430\u043d\u0441\u043a\u043e-\u041a\u0440\u0430\u0441\u043d\u043e\u043f\u0440\u0435\u0441\u043d\u0435\u043d\u0441\u043a\u0430\u044f \u043b\u0438\u043d\u0438\u044f", "oneway": "yes", "railway": "subway", "ref": "1", "tunnel": "yes", "voltage": "750"}}, {"type": "way", "id": 210929345, "nodes": [2128745155, 2128745153], "tags": {"colour": "violet", "electrified": "rail", "frequency": "0", "gauge": "1520", "layer": "-2", "name": "\u0422\u0430\u0433\u0430\u043d\u0441\u043a\u043e-\u041a\u0440\u0430\u0441\u043d\u043e\u043f\u0440\u0435\u0441\u043d\u0435\u043d\u0441\u043a\u0430\u044f \u043b\u0438\u043d\u0438\u044f", "railway": "subway", "ref": "2", "tunnel": "yes", "voltage": "750"}}, {"type": "way", "id": 210929347, "nodes": [2128745153, 2128698377, 6939553031, 2516024446, 2128698379, 2128698408, 2128698401, 2128698390, 2461396861, 2517170279, 2517170274, 2517170275, 2461396863, 2128698341, 2461396865, 2517170276, 2128698363, 2128698391, 2128698359, 4474463618, 4474463619, 6939553029, 2128698350, 4474463620, 2524114401, 2128698387, 2128698392, 7370485740, 4476113226, 4476113228, 4476113230, 2128698399, 4476113232, 4476113234, 4476113236, 4476113238, 4476113240, 4476113242, 4476141969, 4476141972, 2128698396], "tags": {"colour": "violet", "electrified": "rail", "frequency": "0", "gauge": "1520", "layer": "-2", "name": "\u0422\u0430\u0433\u0430\u043d\u0441\u043a\u043e-\u041a\u0440\u0430\u0441\u043d\u043e\u043f\u0440\u0435\u0441\u043d\u0435\u043d\u0441\u043a\u0430\u044f \u043b\u0438\u043d\u0438\u044f", "name:ru": "\u0422\u0430\u0433\u0430\u043d\u0441\u043a\u043e-\u041a\u0440\u0430\u0441\u043d\u043e\u043f\u0440\u0435\u0441\u043d\u0435\u043d\u0441\u043a\u0430\u044f \u043b\u0438\u043d\u0438\u044f", "oneway": "yes", "railway": "subway", "ref": "2", "tunnel": "yes", "voltage": "750"}}, {"type": "way", "id": 210929353, "nodes": [2209567373, 2128745148], "tags": {"colour": "violet", "electrified": "rail", "frequency": "0", "gauge": "1520", "layer": "-2", "name": "\u0422\u0430\u0433\u0430\u043d\u0441\u043a\u043e-\u041a\u0440\u0430\u0441\u043d\u043e\u043f\u0440\u0435\u0441\u043d\u0435\u043d\u0441\u043a\u0430\u044f \u043b\u0438\u043d\u0438\u044f", "railway": "subway", "ref": "1", "tunnel": "yes", "voltage": "750"}}, {"type": "way", "id": 245172284, "nodes": [2128698405, 2524130554, 2524130553, 4476141971, 2524130552, 2524130551, 4476141970, 4476141968, 2524130550, 2128698348, 4476113241, 4476113239, 4476113237, 4476113235, 4476113233, 4476113231, 2128698365, 4476113229, 4476113227, 4476113225, 7370485739, 2128698407, 4648096988, 2128698370, 2524114400, 2524114396, 2128698394, 6939553028, 4474463617, 2128698346, 2128698361, 2128698403, 2517170277, 2461396864, 2128698355, 2461396862, 2517170278, 2461396860, 2517170280, 2517170281, 2128698353, 2128698357, 2128698375, 2128698393, 2128698395, 2516024450, 6939553030, 2128698372, 2209567373], "tags": {"colour": "violet", "electrified": "rail", "frequency": "0", "gauge": "1520", "layer": "-2", "name": "\u0422\u0430\u0433\u0430\u043d\u0441\u043a\u043e-\u041a\u0440\u0430\u0441\u043d\u043e\u043f\u0440\u0435\u0441\u043d\u0435\u043d\u0441\u043a\u0430\u044f \u043b\u0438\u043d\u0438\u044f", "name:ru": "\u0422\u0430\u0433\u0430\u043d\u0441\u043a\u043e-\u041a\u0440\u0430\u0441\u043d\u043e\u043f\u0440\u0435\u0441\u043d\u0435\u043d\u0441\u043a\u0430\u044f \u043b\u0438\u043d\u0438\u044f", "oneway": "yes", "railway": "subway", "ref": "1", "tunnel": "yes", "voltage": "750"}}, {"type": "way", "id": 291720054, "nodes": [1315297571, 2036372331, 1223468300], "tags": {"colour": "violet", "electrified": "rail", "frequency": "0", "gauge": "1520", "name": "\u0422\u0430\u0433\u0430\u043d\u0441\u043a\u043e-\u041a\u0440\u0430\u0441\u043d\u043e\u043f\u0440\u0435\u0441\u043d\u0435\u043d\u0441\u043a\u0430\u044f \u043b\u0438\u043d\u0438\u044f", "oneway": "yes", "railway": "subway", "tunnel": "no", "voltage": "750"}}, {"type": "way", "id": 298577019, "nodes": [3024682991, 3024682992, 3024682993, 3024682987, 3024721729, 3024682986, 3024682991], "tags": {"area": "yes", "layer": "-3", "lit": "yes", "name": "\u0421\u043f\u0430\u0440\u0442\u0430\u043a", "network": "\u041c\u043e\u0441\u043a\u043e\u0432\u0441\u043a\u0438\u0439 \u043c\u0435\u0442\u0440\u043e\u043f\u043e\u043b\u0438\u0442\u0435\u043d", "operator": "\u0413\u0423\u041f \u00ab\u041c\u043e\u0441\u043a\u043e\u0432\u0441\u043a\u0438\u0439 \u043c\u0435\u0442\u0440\u043e\u043f\u043e\u043b\u0438\u0442\u0435\u043d\u00bb", "public_transport": "platform", "railway": "platform", "subway": "yes", "tunnel": "yes"}}, {"type": "way", "id": 388547835, "nodes": [766754808, 5257379063, 5257379061, 5257379062, 5257379059, 7385165809, 7385165810, 5257379058, 9071412730, 5257379056, 7385165806, 7385165805, 9071412729, 5257379057, 3414713524, 7385165808, 7385165807, 3414713527, 9071412728, 7124470722, 7124470723, 7124470724, 766754808], "tags": {"barrier": "fence"}}, {"type": "way", "id": 388547846, "nodes": [3917371548, 7385131231, 4974239205], "tags": {"highway": "unclassified", "lanes": "4", "lanes:backward": "2", "lanes:forward": "2", "lit": "yes", "maxspeed": "RU:urban", "surface": "asphalt"}}, {"type": "way", "id": 388547857, "nodes": [3914345567, 3917371568, 5257379048, 3917371561, 3917371550, 3917371548], "tags": {"highway": "unclassified", "lanes": "2", "lit": "yes", "maxspeed": "RU:urban", "oneway": "yes", "surface": "asphalt"}}, {"type": "way", "id": 467289463, "nodes": [7385165934, 7385165943, 7385165944, 7385165952, 7385165950, 7385165949, 7385165951, 6048405434, 4619363310, 7385165953, 7385165954, 7385165948, 7385165946, 7385165945, 7385165947, 4619363309, 6048405437]}, {"type": "way", "id": 508030435, "nodes": [9178000672, 4974239145, 4974239144, 7385165930], "tags": {"barrier": "fence"}}, {"type": "way", "id": 508030436, "nodes": [4974239160, 4974239159, 4974239158, 4974239157, 4974239156, 5333394935]}, {"type": "way", "id": 532927374, "nodes": [6048405433, 7385165812, 5257379054, 7124470721, 4974239151, 7124470718, 7124470719, 7124470720, 4974239152, 4619363314]}, {"type": "way", "id": 532940522, "nodes": [5171209780, 5171209808, 5171209807, 5171209801, 5171209790, 5171209802, 5171209805, 5171209782, 5171209773, 5171209796, 5171209776, 5171209806, 5171209786, 5171209779, 5171209799, 5171209809, 5171209795, 5171209811, 5171209771, 5171209772, 5171209785, 5171209781, 5171209788, 5171212321, 5171209812, 5171209791, 5171209817, 5171209814, 5171209767, 5171209766, 5171209819, 5171209818, 5171209820, 1162385783]}, {"type": "way", "id": 532940527, "nodes": [5171209815, 5171209797, 5171209804, 5171209816, 5171209813, 5171209768, 5171209775, 5171209803, 5171209774, 5171209784, 5171209794, 5171209792, 5171209789, 5171209787, 5171209778, 5171209770, 5171209793]}, {"type": "way", "id": 532940533, "nodes": [5171209815, 318194502, 5171209780]}, {"type": "way", "id": 532940538, "nodes": [1162385783, 1162390202, 1162396013, 1162403629, 1162390300, 1162403480, 1162407378, 1162397490, 1162405027, 1162391328, 1162391203, 1162386173, 1162396884, 1162394785, 1162396638, 1162406606, 1162390482, 1162388079, 1162404106, 1162382753, 1162403840, 1162391396, 1162397962, 1162384677, 1162409583, 1162399770, 1162392268, 5171239698]}, {"type": "way", "id": 532943851, "nodes": [5171239682, 5171239668, 5171239657, 5171239665, 5171239664, 5171239658, 5171239655, 5171239639, 5171239670, 5171239667, 5171239653, 5171239711, 5171239715, 5171239710, 5171239716, 5171239709, 5171239672, 5171239679, 5171239698]}, {"type": "way", "id": 532943853, "nodes": [5171239671, 9178000668, 9178000669, 5171239694]}, {"type": "way", "id": 533416365, "nodes": [7385165673, 5175054028, 5175054027, 7385165684, 7385165685, 7385131279, 7385165683, 7385165682, 7385165681, 7385165680, 5175054026, 5175054029, 7385131278, 7385165670]}, {"type": "way", "id": 533416366, "nodes": [5175054030, 5175054033, 7385165585, 7385131284, 7385131273, 7385131260, 7385131259, 7385131258, 5175054032, 5175054031, 7385131272, 6661042661]}, {"type": "way", "id": 533541627, "nodes": [5176053826, 5176053823, 5176051015, 5176053828, 5176051005, 5176051017, 5176192927]}, {"type": "way", "id": 533561221, "nodes": [5176192927, 5176192925, 5176192926, 5176192932, 5176192931, 5176192939, 5176192201]}, {"type": "way", "id": 533561226, "nodes": [5176192201, 5176053826]}, {"type": "way", "id": 533564140, "nodes": [5176212384, 5176212381], "tags": {"barrier": "fence"}}, {"type": "way", "id": 533564143, "nodes": [3190272326, 3190272317, 3190272330]}, {"type": "way", "id": 533564147, "nodes": [5176212400, 3190272333, 3190272331, 5176212407]}, {"type": "way", "id": 533564154, "nodes": [3190272334, 5176212405], "tags": {"barrier": "fence"}}, {"type": "way", "id": 533564157, "nodes": [5176212400, 5176212382, 5176212376, 5176212418, 5176212407]}, {"type": "way", "id": 533564159, "nodes": [3190272326, 5176216123, 5176212403, 5176212399, 5176212415, 5176212396, 5176212388, 5176212397, 5176212414, 5176212375, 5176212390, 3190272330]}, {"type": "way", "id": 533564160, "nodes": [3190272334, 5176216124, 5176212393, 5176212383, 5176216128, 5176212405]}, {"type": "way", "id": 533564164, "nodes": [5176212384, 5176212380, 5176212419, 5176212377, 5176212410, 5176212381]}, {"type": "way", "id": 552402439, "nodes": [4974239155, 4974239154, 4974239153, 5175050875, 4974239161, 4974239160]}, {"type": "way", "id": 552402441, "nodes": [5333394935, 4974239155]}, {"type": "way", "id": 553723871, "nodes": [612055403, 3889876002, 2321914823, 3024683016, 3024683014, 3889875999, 3024683006, 3046563958, 666487039, 3889875997, 2150014806, 309749427, 3024737235, 2150014804, 2150014800, 3889875995, 3889875993, 3889875991, 493558522, 493558523, 4027230310, 4027230307, 4027230306, 311981842, 493558524, 309749428, 666487042, 4027230304, 666487043, 250954967, 9330588509, 6939553004, 1217553868, 1223468577, 6939553006, 309748906, 3881286061, 666487049, 666487045, 3881286059, 669897719, 666487044, 3951049500, 3881286057, 1223468586, 666487048, 3299680394, 3299680393, 1223468435, 1390960162, 5203259488, 1390960121, 1390960097, 1390960092, 1390960087, 1390960094, 1390960102, 1390960110, 1390960227, 6939553007, 1390961032, 1390961146, 1390961180, 1390961203, 1390961209, 309748209, 1390961233, 1390961237, 1390961230, 1390961212, 1390961195, 1390961105, 1390960991, 666487046, 666487089, 666487090, 1453859503, 1453859484, 1453859417, 1453859135, 1453859063, 6939553010, 309747739, 1453859025, 1453858993, 1223468239, 1453858635, 1453858460, 1453858249, 666487091, 1453857747, 666487092, 1359261217, 4074520401, 4074520399, 9330588513, 6939553012, 9330588511, 666487057], "tags": {"colour": "violet", "electrified": "rail", "frequency": "0", "gauge": "1520", "layer": "-3", "name": "\u0422\u0430\u0433\u0430\u043d\u0441\u043a\u043e-\u041a\u0440\u0430\u0441\u043d\u043e\u043f\u0440\u0435\u0441\u043d\u0435\u043d\u0441\u043a\u0430\u044f \u043b\u0438\u043d\u0438\u044f", "name:ru": "\u0422\u0430\u0433\u0430\u043d\u0441\u043a\u043e-\u041a\u0440\u0430\u0441\u043d\u043e\u043f\u0440\u0435\u0441\u043d\u0435\u043d\u0441\u043a\u0430\u044f \u043b\u0438\u043d\u0438\u044f", "railway": "subway", "railway:preferred_direction": "forward", "tunnel": "yes", "voltage": "750"}}, {"type": "way", "id": 642492633, "nodes": [6048405432, 7385165922, 7385165923, 6048405431]}, {"type": "way", "id": 642492635, "nodes": [6048405432, 7385131201, 7385165814, 7385165813, 6048405433]}, {"type": "way", "id": 642492639, "nodes": [6048405439, 6048405438]}, {"type": "way", "id": 708888354, "nodes": [6661042661, 5175054030]}, {"type": "way", "id": 709618010, "nodes": [5257379052, 7385323838, 6669858606, 6669858607, 7385323823, 6669858611], "tags": {"barrier": "fence"}}, {"type": "way", "id": 709618012, "nodes": [6669858611, 6669858608, 6669858609, 6669858610, 6669858604, 6669858605, 5257379052], "tags": {"barrier": "fence"}}, {"type": "way", "id": 789886955, "nodes": [7385165670, 7385165673]}, {"type": "way", "id": 789886956, "nodes": [7385165673, 7385165666, 7385165669, 7385165672, 7385165671, 7385165670]}, {"type": "way", "id": 789886975, "nodes": [5175054030, 7385165588, 7385165591, 6661042659, 6661042660, 6661042661]}, {"type": "way", "id": 789886977, "nodes": [7385165745, 7385165730, 7385131257, 7385165731, 7385165732, 7385131256, 7385165733, 7385165734, 7385131255, 7385165735, 7385165736, 7385131254, 7385165737, 7385165686, 7385165738, 7385165739, 7385165740, 7385165741, 7385165742, 7385165743, 7385165744, 7385131252, 7385165745], "tags": {"building:part": "apartments"}}, {"type": "way", "id": 789887013, "nodes": [7385165917, 7385165916, 7385165915, 7385165914, 7385165913, 7385165912, 7385165911, 7385165910, 7385165837, 7385165909, 7385165908, 7385165836, 7385165907, 7385165906, 7385165835, 7385165917]}, {"type": "way", "id": 789887016, "nodes": [9683344895, 8224069558, 8224069559, 7385165927, 8224069557], "tags": {"barrier": "fence"}}, {"type": "way", "id": 789887017, "nodes": [6048405438, 7385165942, 7385165940, 7385165939, 7385165941, 4619363308, 4619363307, 7385165937, 7385165936, 7385165935, 7385165938, 6048405439]}, {"type": "way", "id": 789887018, "nodes": [6048405439, 7385165934]}, {"type": "way", "id": 789887019, "nodes": [6048405437, 6048405438]}, {"type": "way", "id": 789887020, "nodes": [7385165934, 6048405437]}, {"type": "way", "id": 789907078, "nodes": [9250708276, 6048405433]}, {"type": "way", "id": 789907079, "nodes": [6661042658, 9683309911]}, {"type": "way", "id": 789907080, "nodes": [6661042658, 7385165930], "tags": {"barrier": "fence"}}, {"type": "way", "id": 858043460, "nodes": [5171239694, 4974239175, 9178000670, 7999279465, 7999279477, 9178000671, 5171239685]}, {"type": "way", "id": 884319783, "nodes": [7385165929, 8224069556, 8224069555, 8224069554, 8224069553, 8224069552, 9683344899], "tags": {"barrier": "fence"}}, {"type": "way", "id": 884319784, "nodes": [7385165930, 7385165929], "tags": {"barrier": "fence"}}, {"type": "way", "id": 884319785, "nodes": [8224069557, 7385165926, 9683344883, 8224069560, 9683344882, 9683344881, 7385165925, 9683344884]}, {"type": "way", "id": 902573189, "nodes": [9250708309, 9250708313, 9250708312, 9250708311, 9250708310, 8383152211, 8383152210, 8383152209, 8383152208, 8383152207, 8383152206], "tags": {"barrier": "kerb"}}, {"type": "way", "id": 918591048, "nodes": [5171239682, 8531288172, 8531288171, 8531288170, 8531288169, 8531288168, 8531288167, 8531288166, 8531288165, 5171239685]}, {"type": "way", "id": 993430913, "nodes": [5171239694, 5171239695, 5171239643, 5171239690, 5171239685]}, {"type": "way", "id": 993430914, "nodes": [5171239671, 5171239673, 6661042658]}, {"type": "way", "id": 1002320270, "nodes": [9250708267, 9250708268]}, {"type": "way", "id": 1002320271, "nodes": [9250708270, 9178000672]}, {"type": "way", "id": 1002320272, "nodes": [9250708271, 9250708272, 9250708273]}, {"type": "way", "id": 1002320273, "nodes": [6048405431, 9683309910, 9250708274]}, {"type": "way", "id": 1002320274, "nodes": [9250708276, 9250708277, 9250708278, 9250708279, 9250708280]}, {"type": "way", "id": 1002320275, "nodes": [4619363314, 4974239181, 4974239180, 9250708280], "tags": {"barrier": "fence"}}, {"type": "way", "id": 1002320276, "nodes": [9250708274, 9250708275, 9250708276]}, {"type": "way", "id": 1002320277, "nodes": [9250708271, 8383152206], "tags": {"barrier": "fence"}}, {"type": "way", "id": 1002320282, "nodes": [9250708268, 9250708307, 9250708308, 9250708267]}, {"type": "way", "id": 1002320283, "nodes": [8383152206, 9250708309]}, {"type": "way", "id": 1002320284, "nodes": [9250708268, 9250708269, 9250708270]}, {"type": "way", "id": 1002320285, "nodes": [9250708309, 9250708267]}, {"type": "way", "id": 1053679830, "nodes": [9250708273, 9683309911]}, {"type": "way", "id": 1053679840, "nodes": [9683344884, 5171209793]}, {"type": "way", "id": 1053679841, "nodes": [9683344899, 8224069557], "tags": {"barrier": "fence"}}, {"type": "way", "id": 1053679842, "nodes": [7385165929, 7385165928, 9683344895], "tags": {"barrier": "fence"}}, {"type": "way", "id": 1053679843, "nodes": [9683344899, 9683344898, 9683344897, 9683344896, 9683344895]}, {"type": "relation", "id": 309620, "members": [{"type": "node", "ref": 296959502, "role": "stop"}, {"type": "node", "ref": 309750154, "role": "stop"}, {"type": "node", "ref": 296959504, "role": "stop"}, {"type": "node", "ref": 3046563958, "role": "stop"}, {"type": "node", "ref": 296959505, "role": "stop"}, {"type": "node", "ref": 309748905, "role": "stop"}, {"type": "node", "ref": 296959507, "role": "stop"}, {"type": "node", "ref": 296959508, "role": "stop"}, {"type": "node", "ref": 296959509, "role": "stop"}, {"type": "node", "ref": 296959510, "role": "stop"}, {"type": "node", "ref": 362156015, "role": "stop"}, {"type": "node", "ref": 252934400, "role": "stop"}, {"type": "node", "ref": 5176322724, "role": "stop"}, {"type": "node", "ref": 253016890, "role": "stop"}, {"type": "node", "ref": 253016891, "role": "stop"}, {"type": "node", "ref": 253016892, "role": "stop"}, {"type": "node", "ref": 253016893, "role": "stop"}, {"type": "node", "ref": 253016894, "role": "stop"}, {"type": "node", "ref": 253017004, "role": "stop"}, {"type": "node", "ref": 253016895, "role": "stop"}, {"type": "node", "ref": 2525101863, "role": "stop"}, {"type": "node", "ref": 2525101862, "role": "stop"}, {"type": "node", "ref": 3706464707, "role": "stop"}, {"type": "way", "ref": 106299243, "role": ""}, {"type": "way", "ref": 106299188, "role": ""}, {"type": "way", "ref": 553723871, "role": ""}, {"type": "way", "ref": 106299233, "role": ""}, {"type": "way", "ref": 112390949, "role": ""}, {"type": "way", "ref": 112390951, "role": ""}, {"type": "way", "ref": 106300864, "role": ""}, {"type": "way", "ref": 106300859, "role": ""}, {"type": "way", "ref": 106107643, "role": ""}, {"type": "way", "ref": 106107640, "role": ""}, {"type": "way", "ref": 106299250, "role": ""}, {"type": "way", "ref": 27095554, "role": ""}, {"type": "way", "ref": 27095520, "role": ""}, {"type": "way", "ref": 106299184, "role": ""}, {"type": "way", "ref": 72873712, "role": ""}, {"type": "way", "ref": 193120246, "role": ""}, {"type": "way", "ref": 202925519, "role": ""}, {"type": "way", "ref": 245172284, "role": ""}, {"type": "way", "ref": 210929353, "role": ""}, {"type": "way", "ref": 210929334, "role": ""}], "tags": {"colour": "#ff00ff", "from": "\u041f\u043b\u0430\u043d\u0435\u0440\u043d\u0430\u044f", "note": "\u0422\u0430\u0433\u0430\u043d\u0441\u043a\u043e-\u041a\u0440\u0430\u0441\u043d\u043e\u043f\u0440\u0435\u0441\u043d\u0435\u043d\u0441\u043a\u0430\u044f \u043b\u0438\u043d\u0438\u044f: \u041f\u043b\u0430\u043d\u0435\u0440\u043d\u0430\u044f \u2192 \u041a\u043e\u0442\u0435\u043b\u044c\u043d\u0438\u043a\u0438", "ref": "7", "route": "subway", "to": "\u041a\u043e\u0442\u0435\u043b\u044c\u043d\u0438\u043a\u0438", "type": "route", "wikidata": "Q924028"}}, {"type": "relation", "id": 1516303, "members": [{"type": "node", "ref": 3706464707, "role": "stop"}, {"type": "node", "ref": 2525101862, "role": "stop"}, {"type": "node", "ref": 2525101863, "role": "stop"}, {"type": "node", "ref": 253016895, "role": "stop"}, {"type": "node", "ref": 253017004, "role": "stop"}, {"type": "node", "ref": 253016894, "role": "stop"}, {"type": "node", "ref": 253016893, "role": "stop"}, {"type": "node", "ref": 253016892, "role": "stop"}, {"type": "node", "ref": 253016891, "role": "stop"}, {"type": "node", "ref": 253016890, "role": "stop"}, {"type": "node", "ref": 493293874, "role": "stop"}, {"type": "node", "ref": 252934400, "role": "stop"}, {"type": "node", "ref": 362156015, "role": "stop"}, {"type": "node", "ref": 296959510, "role": "stop"}, {"type": "node", "ref": 296959509, "role": "stop"}, {"type": "node", "ref": 296959508, "role": "stop"}, {"type": "node", "ref": 296959507, "role": "stop"}, {"type": "node", "ref": 309748905, "role": "stop"}, {"type": "node", "ref": 296959505, "role": "stop"}, {"type": "node", "ref": 5202107561, "role": "stop"}, {"type": "node", "ref": 296959504, "role": "stop"}, {"type": "node", "ref": 309750154, "role": "stop"}, {"type": "node", "ref": 296959502, "role": "stop"}, {"type": "way", "ref": 202925520, "role": ""}, {"type": "way", "ref": 210929345, "role": ""}, {"type": "way", "ref": 210929347, "role": ""}, {"type": "way", "ref": 202924835, "role": ""}, {"type": "way", "ref": 291720054, "role": ""}, {"type": "way", "ref": 106299185, "role": ""}, {"type": "way", "ref": 106299253, "role": ""}, {"type": "way", "ref": 106299198, "role": ""}, {"type": "way", "ref": 106306430, "role": ""}, {"type": "way", "ref": 106299238, "role": ""}, {"type": "way", "ref": 106299241, "role": ""}, {"type": "way", "ref": 106299259, "role": ""}, {"type": "way", "ref": 106107648, "role": ""}, {"type": "way", "ref": 106299256, "role": ""}, {"type": "way", "ref": 106300870, "role": ""}, {"type": "way", "ref": 106300867, "role": ""}, {"type": "way", "ref": 112390954, "role": ""}, {"type": "way", "ref": 112390952, "role": ""}, {"type": "way", "ref": 106299172, "role": ""}, {"type": "way", "ref": 106299222, "role": ""}], "tags": {"colour": "#ff00ff", "from": "\u041a\u043e\u0442\u0435\u043b\u044c\u043d\u0438\u043a\u0438", "note": "\u0422\u0430\u0433\u0430\u043d\u0441\u043a\u043e-\u041a\u0440\u0430\u0441\u043d\u043e\u043f\u0440\u0435\u0441\u043d\u0435\u043d\u0441\u043a\u0430\u044f \u043b\u0438\u043d\u0438\u044f: \u041a\u043e\u0442\u0435\u043b\u044c\u043d\u0438\u043a\u0438 \u2192 \u041f\u043b\u0430\u043d\u0435\u0440\u043d\u0430\u044f", "ref": "7", "route": "subway", "to": "\u041f\u043b\u0430\u043d\u0435\u0440\u043d\u0430\u044f", "type": "route"}}, {"type": "relation", "id": 1516304, "members": [{"type": "node", "ref": 253016894, "role": "stop"}, {"type": "node", "ref": 253016893, "role": "stop"}, {"type": "node", "ref": 253016892, "role": "stop"}, {"type": "node", "ref": 253016891, "role": "stop"}, {"type": "node", "ref": 253016890, "role": "stop"}, {"type": "node", "ref": 493293874, "role": "stop"}, {"type": "node", "ref": 252934400, "role": "stop"}, {"type": "node", "ref": 362156015, "role": "stop"}, {"type": "node", "ref": 296959510, "role": "stop"}, {"type": "node", "ref": 296959509, "role": "stop"}, {"type": "node", "ref": 296959508, "role": "stop"}, {"type": "node", "ref": 296959507, "role": "stop"}, {"type": "node", "ref": 309748905, "role": "stop"}, {"type": "node", "ref": 296959505, "role": "stop"}, {"type": "node", "ref": 5202107561, "role": "stop"}, {"type": "node", "ref": 296959504, "role": "stop"}, {"type": "node", "ref": 309750154, "role": "stop"}, {"type": "node", "ref": 296959502, "role": "stop"}, {"type": "way", "ref": 106306430, "role": ""}, {"type": "way", "ref": 106299238, "role": ""}, {"type": "way", "ref": 106299241, "role": ""}, {"type": "way", "ref": 106299259, "role": ""}, {"type": "way", "ref": 106107648, "role": ""}, {"type": "way", "ref": 106299256, "role": ""}, {"type": "way", "ref": 106300870, "role": ""}, {"type": "way", "ref": 106300867, "role": ""}, {"type": "way", "ref": 112390954, "role": ""}, {"type": "way", "ref": 112390952, "role": ""}, {"type": "way", "ref": 106299172, "role": ""}, {"type": "way", "ref": 106299222, "role": ""}], "tags": {"colour": "#ff00ff", "from": "\u041a\u0443\u0437\u044c\u043c\u0438\u043d\u043a\u0438", "note": "\u0422\u0430\u0433\u0430\u043d\u0441\u043a\u043e-\u041a\u0440\u0430\u0441\u043d\u043e\u043f\u0440\u0435\u0441\u043d\u0435\u043d\u0441\u043a\u0430\u044f \u043b\u0438\u043d\u0438\u044f: \u041a\u0443\u0437\u044c\u043c\u0438\u043d\u043a\u0438 \u2192 \u041f\u043b\u0430\u043d\u0435\u0440\u043d\u0430\u044f", "ref": "7", "route": "subway", "to": "\u041f\u043b\u0430\u043d\u0435\u0440\u043d\u0430\u044f", "type": "route"}}, {"type": "relation", "id": 5806702, "members": [{"type": "way", "ref": 388547835, "role": "outer"}, {"type": "way", "ref": 1002320274, "role": "outer"}, {"type": "way", "ref": 789907078, "role": "outer"}, {"type": "way", "ref": 532927374, "role": "outer"}, {"type": "way", "ref": 1002320275, "role": "outer"}, {"type": "way", "ref": 1002320277, "role": "outer"}, {"type": "way", "ref": 1002320283, "role": "outer"}, {"type": "way", "ref": 1002320285, "role": "outer"}, {"type": "way", "ref": 1002320270, "role": "outer"}, {"type": "way", "ref": 1002320284, "role": "outer"}, {"type": "way", "ref": 1002320271, "role": "outer"}, {"type": "way", "ref": 508030435, "role": "outer"}, {"type": "way", "ref": 789907080, "role": "outer"}, {"type": "way", "ref": 789907079, "role": "outer"}, {"type": "way", "ref": 1002320272, "role": "outer"}, {"type": "way", "ref": 1053679830, "role": "outer"}], "tags": {"landuse": "construction", "name": "\u0416\u0438\u043b\u043e\u0439 \u043a\u043e\u043c\u043f\u043b\u0435\u043a\u0441 \u00ab\u0413\u043e\u0440\u043e\u0434 \u043d\u0430 \u0440\u0435\u043a\u0435 \u0422\u0443\u0448\u0438\u043d\u043e-2018\u00bb", "type": "multipolygon"}}, {"type": "relation", "id": 7588394, "members": [{"type": "node", "ref": 3046563958, "role": "stop"}, {"type": "node", "ref": 3024721720, "role": ""}, {"type": "node", "ref": 3024721728, "role": ""}, {"type": "node", "ref": 3024721719, "role": ""}, {"type": "node", "ref": 3024721726, "role": ""}, {"type": "node", "ref": 3024721835, "role": ""}, {"type": "way", "ref": 298577019, "role": "platform"}, {"type": "node", "ref": 5202107560, "role": ""}, {"type": "node", "ref": 5202107561, "role": ""}, {"type": "node", "ref": 5255904281, "role": ""}], "tags": {"name": "\u0421\u043f\u0430\u0440\u0442\u0430\u043a", "public_transport": "stop_area", "type": "public_transport"}}, {"type": "relation", "id": 7656425, "members": [{"type": "way", "ref": 532943851, "role": "outer"}, {"type": "way", "ref": 918591048, "role": "outer"}, {"type": "way", "ref": 532943853, "role": "outer"}, {"type": "way", "ref": 993430914, "role": "outer"}, {"type": "way", "ref": 789907080, "role": "outer"}, {"type": "way", "ref": 884319784, "role": "outer"}, {"type": "way", "ref": 884319783, "role": "outer"}, {"type": "way", "ref": 1053679841, "role": "outer"}, {"type": "way", "ref": 884319785, "role": "outer"}, {"type": "way", "ref": 1053679840, "role": "outer"}, {"type": "way", "ref": 532940527, "role": "outer"}, {"type": "way", "ref": 532940533, "role": "outer"}, {"type": "way", "ref": 532940522, "role": "outer"}, {"type": "way", "ref": 532940538, "role": "outer"}, {"type": "way", "ref": 709618010, "role": "inner"}, {"type": "way", "ref": 709618012, "role": "inner"}, {"type": "way", "ref": 993430913, "role": "outer"}], "tags": {"natural": "grassland", "type": "multipolygon"}}, {"type": "relation", "id": 7664228, "members": [{"type": "way", "ref": 533564147, "role": "outer"}, {"type": "way", "ref": 533564157, "role": "outer"}, {"type": "way", "ref": 533564164, "role": "outer"}, {"type": "way", "ref": 533564140, "role": "outer"}, {"type": "way", "ref": 533564160, "role": "outer"}, {"type": "way", "ref": 533564154, "role": "outer"}, {"type": "way", "ref": 533564159, "role": "outer"}, {"type": "way", "ref": 533564143, "role": "outer"}, {"type": "way", "ref": 533561221, "role": "outer"}, {"type": "way", "ref": 533541627, "role": "outer"}, {"type": "way", "ref": 533561226, "role": "outer"}], "tags": {"natural": "grassland", "type": "multipolygon"}}, {"type": "relation", "id": 7892768, "members": [{"type": "way", "ref": 508030436, "role": "outer"}, {"type": "way", "ref": 552402441, "role": "outer"}, {"type": "way", "ref": 552402439, "role": "outer"}], "tags": {"access": "yes", "amenity": "parking", "fee": "no", "parking": "surface", "type": "multipolygon"}}, {"type": "relation", "id": 8904133, "members": [{"type": "way", "ref": 789907078, "role": "outer"}, {"type": "way", "ref": 1002320276, "role": "outer"}, {"type": "way", "ref": 642492635, "role": "outer"}, {"type": "way", "ref": 642492633, "role": "outer"}, {"type": "way", "ref": 1002320273, "role": "outer"}], "tags": {"contact:website": "https://tushino2018.ru/", "name": "\u0413\u043e\u0440\u043e\u0434 \u043d\u0430 \u0440\u0435\u043a\u0435 \u0422\u0443\u0448\u0438\u043d\u043e-2018", "official_status": "\u0416\u0438\u043b\u043e\u0439 \u043a\u043e\u043c\u043f\u043b\u0435\u043a\u0441", "place": "neighbourhood", "type": "multipolygon"}}, {"type": "relation", "id": 10977507, "members": [{"type": "way", "ref": 789886956, "role": "outer"}, {"type": "way", "ref": 789886955, "role": "outer"}], "tags": {"building:levels": "1", "building:part": "service", "type": "multipolygon"}}, {"type": "relation", "id": 10977508, "members": [{"type": "way", "ref": 533416365, "role": "outer"}, {"type": "way", "ref": 789886955, "role": "outer"}], "tags": {"building:part": "apartments", "type": "multipolygon"}}, {"type": "relation", "id": 10977509, "members": [{"type": "way", "ref": 789886975, "role": "outer"}, {"type": "way", "ref": 533416366, "role": "outer"}, {"type": "way", "ref": 789886977, "role": "outer"}, {"type": "way", "ref": 533416365, "role": "outer"}, {"type": "way", "ref": 789886956, "role": "outer"}], "tags": {"addr:housenumber": "71 \u043a2", "addr:street": "\u0412\u043e\u043b\u043e\u043a\u043e\u043b\u0430\u043c\u0441\u043a\u043e\u0435 \u0448\u043e\u0441\u0441\u0435", "building": "apartments", "building:levels": "19", "type": "multipolygon"}}, {"type": "relation", "id": 10977510, "members": [{"type": "way", "ref": 708888354, "role": "outer"}, {"type": "way", "ref": 789886975, "role": "outer"}], "tags": {"building:levels": "1", "building:part": "service", "type": "multipolygon"}}, {"type": "relation", "id": 10977511, "members": [{"type": "way", "ref": 708888354, "role": "outer"}, {"type": "way", "ref": 533416366, "role": "outer"}], "tags": {"building:part": "apartments", "type": "multipolygon"}}, {"type": "relation", "id": 10977512, "members": [{"type": "way", "ref": 789887019, "role": "outer"}, {"type": "way", "ref": 789887017, "role": "outer"}, {"type": "way", "ref": 789887018, "role": "outer"}, {"type": "way", "ref": 467289463, "role": "outer"}, {"type": "way", "ref": 789887013, "role": "outer"}], "tags": {"addr:housenumber": "71 \u043a1", "addr:street": "\u0412\u043e\u043b\u043e\u043a\u043e\u043b\u0430\u043c\u0441\u043a\u043e\u0435 \u0448\u043e\u0441\u0441\u0435", "building": "apartments", "building:levels": "19", "type": "multipolygon"}}, {"type": "relation", "id": 10977513, "members": [{"type": "way", "ref": 642492639, "role": "outer"}, {"type": "way", "ref": 789887017, "role": "outer"}], "tags": {"building:levels": "19", "building:part": "apartments", "type": "multipolygon"}}, {"type": "relation", "id": 10977514, "members": [{"type": "way", "ref": 789887020, "role": "outer"}, {"type": "way", "ref": 789887019, "role": "outer"}, {"type": "way", "ref": 642492639, "role": "outer"}, {"type": "way", "ref": 789887018, "role": "outer"}], "tags": {"building:levels": "1", "building:part": "yes", "type": "multipolygon"}}, {"type": "relation", "id": 10977515, "members": [{"type": "way", "ref": 789887020, "role": "outer"}, {"type": "way", "ref": 467289463, "role": "outer"}], "tags": {"building:levels": "19", "building:part": "apartments", "type": "multipolygon"}}, {"type": "relation", "id": 12012830, "members": [{"type": "way", "ref": 1053679842, "role": "outer"}, {"type": "way", "ref": 884319783, "role": "outer"}, {"type": "way", "ref": 1053679843, "role": "outer"}], "tags": {"construction:type": "construction", "contact:website": "https://www.alia.moscow/", "landuse": "construction", "name": "\u0416\u0438\u043b\u043e\u0439 \u0440\u0430\u0439\u043e\u043d \"Alia\"", "type": "multipolygon"}}, {"type": "relation", "id": 13335184, "members": [{"type": "way", "ref": 993430913, "role": "outer"}, {"type": "way", "ref": 858043460, "role": "outer"}], "tags": {"check_date": "2020-10-11", "construction": "residential", "landuse": "construction", "name": "\u0416\u0438\u043b\u043e\u0439 \u043a\u043e\u043c\u043f\u043b\u0435\u043a\u0441 \u00abHolland Park\u00bb", "operator": "\u041f\u0418\u041a", "type": "multipolygon"}}, {"type": "relation", "id": 13438992, "members": [{"type": "way", "ref": 1002320282, "role": "outer"}, {"type": "way", "ref": 1002320270, "role": "outer"}], "tags": {"landuse": "residential", "residential": "urban", "type": "multipolygon"}}, {"type": "relation", "id": 13438993, "members": [{"type": "way", "ref": 902573189, "role": "outer"}, {"type": "way", "ref": 1002320283, "role": "outer"}], "tags": {"landuse": "residential", "residential": "urban", "type": "multipolygon"}}, {"type": "relation", "id": 13654192, "members": [{"type": "way", "ref": 388547857, "role": "from"}, {"type": "way", "ref": 388547846, "role": "to"}, {"type": "node", "ref": 3917371548, "role": "via"}], "tags": {"restriction": "only_straight_on", "type": "restriction"}}, {"type": "relation", "id": 14063587, "members": [{"type": "way", "ref": 1053679843, "role": "outer"}, {"type": "way", "ref": 789887016, "role": "outer"}, {"type": "way", "ref": 1053679841, "role": "outer"}], "tags": {"contact:website": "https://www.alia.moscow/", "landuse": "residential", "name": "\u0416\u0438\u043b\u043e\u0439 \u0440\u0430\u0439\u043e\u043d \"Alia\"", "residential": "urban", "type": "multipolygon"}}]}